identifiant,type_de_structure,libelle_type_de_structure,libelle_court,libelle_long,siege_administratif,geolocalisation,latitude,longitude,adresse,complement_adresse,code_postal,localite,site_internet,compte_twitter,siret,element_wikidata,compte_facebook,compte_linkedin,compte_viadeo,compte_dailymotion,compte_youtube,code_commune,commune,code_unite_urbaine,unite_urbaine,code_departement,departement,code_academie,academie,code_region,region
CRT_30,CRT,Centre de ressources technologiques,ITERG,Institut des corps gras,oui,"44.7774302, -0.6584952",44.7774302,-0.6584952,11 RUE MONGE,PARC INDUSTRIEL BERSOL II,33600,PESSAC,http://www.iterg.com/,,77566488100049,,,,,,,33318,Pessac,UU33701,Bordeaux,D033,Gironde,A04,Bordeaux,R72,Aquitaine
CRT_31,CRT,Centre de ressources technologiques,RESCOLL,"RESCOLL, Centre de Ressources Technologiques des Matériaux",oui,"44.8007315, -0.610884",44.8007315, -0.610884,ENSCPB - PLATEAU TECHNIQUE,16 AVE PEY-BERLAND,33607,PESSAC CEDEX,http://www.rescoll.fr/,,43795017300041,,,,,,,33318,Pessac,UU33701,Bordeaux,D033,Gironde,A04,Bordeaux,R72,Aquitaine
SATT_7_2,SATT,Société d'accélération du transfert de technologies,AST,Aquitaine science transfert,,"44.8257716, -0.5774421",44.8257716,-0.5774421,"162, AVENUE ALBERT SCHWEITZER",,33600,PESSAC,http://ast-innovations.com,@SATTaquitaine,75302766300032,,,,,,,33318,Pessac,UU33701,Bordeaux,D033,Gironde,A04,Bordeaux,R72,Aquitaine
SATT_7_3,SATT,Société d'accélération du transfert de technologies,AST,Aquitaine science transfert,,"44.8257716, -0.5774421",44.8257716,-0.5774421,AVENUE DE L'UNIVERSITE,,64012,PAU CEDEX,http://ast-innovations.com,@SATTaquitaine,75302766300024,,,,,,,64445,Pau,UU64601,Pau,D064,Pyrénées-Atlantiques,A04,Bordeaux,R72,Aquitaine
CARNOT_21,CARNOT,Institut Carnot,ISIFoR,Institute for the sustainable engineering of fossil resources,oui,"43.31141, -0.3644233",43.31141,-0.3644233,AVENUE DE L'UNIVERSITÉ - BP 576,,64012,PAU,http://www.instituts-carnot.eu/fr/institut-carnot/isifor,,,,,,,,,64445,Pau,UU64601,Pau,D064,Pyrénées-Atlantiques,A04,Bordeaux,R72,Aquitaine
CRT_49,CRT,Centre de ressources technologiques,APESA Innovation,APESA Innovation,oui,"43.319209, -0.3674954",43.319209,-0.3674954,"HÉLIOPARC, 2 , AVENUE DU PRÉSIDENT PIERRE ANGOT",,64053,PAU CEDEX 9,http://www.apesa.fr/,,40491092900011,,,,,,,64445,Pau,UU64601,Pau,D064,Pyrénées-Atlantiques,A04,Bordeaux,R72,Aquitaine
SATT_7,SATT,Société d'accélération du transfert de technologies,AST,Aquitaine science transfert,oui,"44.8257716, -0.5774421",44.8257716,-0.5774421,166 COURS DE L'ARGONNE,,33000,BORDEAUX,http://ast-innovations.com,@SATTaquitaine,75302766300016,,,,,,,33063,Bordeaux,UU33701,Bordeaux,D033,Gironde,A04,Bordeaux,R72,Aquitaine
IRT_10_2,IRT,Institut de recherche technologique,IRT Saint Exupéry,,,"44.8163136, -0.6066641",44.8163136,-0.6066641,,,33063,BORDEAUX,http://www.irt-saintexupery.com/,@irtSaintEx,,,,,,,,33063,Bordeaux,UU33701,Bordeaux,D033,Gironde,A04,Bordeaux,R72,Aquitaine
INCUB_19,INCUB,Incubateur,IRA,Incubateur régional d'Aquitaine,oui,"44.8088489, -0.5914614",44.8088489,-0.5914614,351 COURS DE LA LIBÉRATION,,33400,TALENCE,http://www.incubateur-aquitaine.com/,,43142003300018,,,,,,,33522,Talence,UU33701,Bordeaux,D033,Gironde,A04,Bordeaux,R72,Aquitaine
CRT_2,CRT,Centre de ressources technologiques,NOBATEK,NOBATEK,oui,"43.4733568, -1.5105049",43.4733568,-1.5105049,67 AVENUE DE MIRAMBEAU,,64600,ANGLET,http://www.nobatek.com/,,45193120800040,,,,,,,64024,Anglet,UU00751,Bayonne,D064,Pyrénées-Atlantiques,A04,Bordeaux,R72,Aquitaine
PEPITE_2,PEPITE,"Pôle étudiants pour l'innovation, le transfert et l'entrepreneuriat",ECA,Entrepreneuriat Campus Aquitaine,oui,"44.8257716, -0.5774421",44.8257716,-0.5774421,COMMUNAUTÉ D'UNIVERSITÉS ET ETABLISSEMENTS D'AQUITAINE,"166, COURS DE L'ARGONNE",33000,BORDEAUX,http://www.eca-univ-bordeaux.fr/,@ECA_Univ_Bdx,,,https://www.facebook.com/eca.univ.bordeaux,https://www.linkedin.com/in/ecaunivbordeaux,http://fr.viadeo.com/fr/profile/entrepreneuriat-campus-aquitaine.pres-universite-de-bordeaux,,,33063,Bordeaux,UU33701,Bordeaux,D033,Gironde,A04,Bordeaux,R72,Aquitaine
CRT_28,CRT,Centre de ressources technologiques,AGIR,AGroalimentaire Innovation Recherche AGIR,oui,"44.8028765, -0.6129793",44.8028765,-0.6129793,37 AVENUE  ALBERT SCHWEITZER,BP 100,33402,TALENCE CEDEX,http://www.agir-crt.com/,,39928362100015,,,,,,,33522,Talence,UU33701,Bordeaux,D033,Gironde,A04,Bordeaux,R72,Aquitaine
CRT_29,CRT,Centre de ressources technologiques,ALPhANOV,Centre technologique ALPhANOV,oui,"44.8088489, -0.5914614",44.8088489,-0.5914614,,,,,http://www.alphanov.com/,,49363581700023,,,,,,,33522,Talence,UU33701,Bordeaux,D033,Gironde,A04,Bordeaux,R72,Aquitaine
CDT_12,CDT,Centre de développement technologique,Aquitaine développement innovation,Aquitaine développement innovation,oui,"44.7938788, -0.6240161",44.7938788,-0.6240161,,,,,http://www.aquitaine-developpement-innovation.com/,,53885796200012,,,,,,,33318,Pessac,UU33701,Bordeaux,D033,Gironde,A04,Bordeaux,R72,Aquitaine
PFT_27,PFT,Plateforme technologiques,PFT Aquitaine Bois,PFT Aquitaine Bois,oui,"43.72697, -1.04301",43.72697,-1.04301,LYCÉE HAROUN TAZIEFF,B.P. 90,40990,SAINT PAUL LES DAX,,,,,,,,,,40279,Saint-Paul-lès-Dax,UU40402,Dax,D040,Landes,A04,Bordeaux,R72,Aquitaine
CRT_36,CRT,Centre de ressources technologiques,IFTS,Institut de la Filtration et des Techniques Séparatives,oui,"44.231803, 0.6430793",44.231803, 0.6430793,RUE MARCEL PAGNOL,BP 292,47510,FOULAYRONNES,http://www.ifts-sls.com/,,32279040300016,,,,,,,47100,Foulayronnes,UU47501,Agen,D047,Lot-et-Garonne,A04,Bordeaux,R72,Aquitaine
CRT_37,CRT,Centre de ressources technologiques,AGROTEC,AGROTEC,oui,"44.1651087, 0.5837748",44.1651087, 0.5837748,SITE AGROPOLE,BP 102,47931,AGEN CEDEX 9,http://www.agrotec-france.com/,,34444755200045,,,,,,,47001,Agen,UU47501,Agen,D047,Lot-et-Garonne,A04,Bordeaux,R72,Aquitaine
CARNOT_23,CARNOT,Institut Carnot,LISA,Lipides pour l'industrie et la santé,oui,"44.7774258, -0.658502",44.7774258, -0.658502,11 RUE GASPARD MONGE - PARC INDUSTRIEL BERSOL 2,,33600,PESSAC,http://www.lisa-carnot.eu/,,,,,,,,,33318,Pessac,UU33701,Bordeaux,D033,Gironde,A04,Bordeaux,R72,Aquitaine
PFT_4,PFT,Plateforme technologiques,PFT ESKAL EUREKA,PFT du BTP Eskal Développement,oui,"43.4814202, -1.5623233",43.4814202,-1.5623233,8 RUE BROQUEDIS,,64200,BIARRITZ,http://www.eskal-eureka.fr/plateforme-technologique,,,,,,,,,64122,Biarritz,UU00751,Bayonne,D064,Pyrénées-Atlantiques,A04,Bordeaux,R72,Aquitaine
