id,lat,lng,name,photo_url,address,created_at,updated_at,published,last_event
70,44.8432652145445,-0.576916887523966,Rue Diderot,http://damln.s3.amazonaws.com/upload%2Fcondomatix%2Fdb72ec7c-f434-447f-9a00-0856c80151ff,"7 Rue Diderot, 33000 Bordeaux, France",2013-06-12 08:19:25 UTC,2013-06-12 08:19:25 UTC,true,5
73,44.8309436563938,-0.573480694400559,Place de la Victoire,http://damln.s3.amazonaws.com/upload%2Fcondomatix%2Fd46189b4-06f8-4fc8-b38e-39c8be903973,"23 Place de la Victoire, 33000 Bordeaux, France",2013-06-12 08:36:29 UTC,2013-06-12 08:36:29 UTC,true,5
74,44.830025392275,-0.573254619962283,Cours de l'Argonne,http://damln.s3.amazonaws.com/upload%2Fcondomatix%2F0cb4f3d2-4298-4309-92a1-c3e3b6c0d88d,"17 Cours de l'Argonne, 33000 Bordeaux, France",2013-06-12 08:40:04 UTC,2013-06-12 08:40:04 UTC,true,5
75,44.8325047,-0.5713232,Rue des Augustins,http://damln.s3.amazonaws.com/upload%2Fcondomatix%2F0acb94d7-2b18-4c32-a749-07e51088ccfd,"1-9 Rue des Augustins, 33000 Bordeaux, France",2013-06-12 08:51:45 UTC,2013-06-12 08:51:45 UTC,true,5
91,44.8526641007619,-0.573374188797136,Cours Portal,http://damln.s3.amazonaws.com/upload%2Fcondomatix%2F5d99e748-dd60-4f67-83b7-a10fbe62502a,"15 Cours Portal, 33000 Bordeaux, France",2013-06-15 14:53:14 UTC,2013-06-15 14:53:14 UTC,true,5
92,44.8495750040988,-0.584878432565751,Rue Fondaudège,http://damln.s3.amazonaws.com/upload%2Fcondomatix%2Fdcba46cc-e9e0-4a73-a1c3-5424a4f693d0,"164 Rue Fondaudège, 33000 Bordeaux, France",2013-06-15 15:01:52 UTC,2013-06-15 15:01:52 UTC,true,3
93,44.8465362595985,-0.598484517304329,Boulevard du Président Wilson,http://damln.s3.amazonaws.com/upload%2Fcondomatix%2F89bbd746-b538-4a62-83b0-0e2c517eaa5c,"220 Boulevard du Président Wilson, 33000 Bordeaux, France",2013-06-15 15:22:03 UTC,2013-06-15 15:22:03 UTC,true,5
94,44.8482684829873,-0.592032410334982,Bordeaux,http://damln.s3.amazonaws.com/upload%2Fcondomatix%2Ff08b168d-0428-4729-b5a4-b4cf1d1ea0f9,"Rue Hériard Dubreuil, 33000 Bordeaux, France",2013-06-15 15:29:24 UTC,2013-06-15 15:29:24 UTC,true,5
95,44.8366198594962,-0.598984276373073,Boulevard du Président Wilson,http://damln.s3.amazonaws.com/upload%2Fcondomatix%2F145c3710-4db6-41aa-a8b2-687a5780a32b,"1 Boulevard du Président Wilson, 33000 Bordeaux, France",2013-06-15 15:50:07 UTC,2013-06-15 15:50:07 UTC,true,5
96,44.8315023705894,-0.597950989728361,Rue d'Ornano,http://damln.s3.amazonaws.com/upload%2Fcondomatix%2F9805515a-86a6-4942-887b-e644720ec032,"308 Rue d'Ornano, 33000 Bordeaux, France",2013-06-15 15:55:14 UTC,2013-06-15 15:55:14 UTC,true,5
97,44.8275627041636,-0.592522554998625,Boulevard Maréchal Leclerc,http://damln.s3.amazonaws.com/upload%2Fcondomatix%2F77ac6c80-92b0-42fb-9160-3d9f28922e64,"128 Boulevard Maréchal Leclerc, 33000 Bordeaux, France",2013-06-15 15:59:45 UTC,2013-06-15 15:59:45 UTC,true,5
100,44.8399046179889,-0.56871650943868,Quai Richelieu,http://damln.s3.amazonaws.com/upload%2Fcondomatix%2Fe68ad4fa-8690-46b3-bfaf-c65bfa727057,"3 Quai Richelieu, 33000 Bordeaux, France",2013-06-15 16:30:01 UTC,2013-06-15 16:30:01 UTC,true,5
109,44.828705,-0.568487,Pharmacie de l'Yser,"","26 Cours de l'Yser, 33800 Bordeaux, France",2013-06-19 20:56:38 UTC,2013-06-19 20:56:38 UTC,true,-
90,44.8537402783616,-0.572633741236068,Cours Portal,http://damln.s3.amazonaws.com/upload%2Fcondomatix%2F5bf2afd5-1713-40d8-9744-4c13e752ebaz,"41 Cours Portal, 33000 Bordeaux, France",2013-06-15 14:50:55 UTC,2013-06-18 09:05:09 UTC,true,5
103,44.8211907201725,-0.58385790119403,Boulevard George V,http://damln.s3.amazonaws.com/upload%2Fcondomatix%2F5bf2afd5-1713-40d8-9744-4c13e752ebae,"135 Boulevard Georges V, 33000 Talence, France",2013-06-16 17:23:24 UTC,2013-06-18 09:17:49 UTC,true,0
101,44.8051196323382,-0.572179215469404,Route de Toulouse,http://damln.s3.amazonaws.com/upload/condomatix/5bf2afd5-1713-40d8-9744-4c13e752eba1,"216 Route de Toulouse, 33130 Bègles, France",2013-06-16 17:15:39 UTC,2013-06-18 09:22:32 UTC,true,1
110,44.8244436,-0.5515948,Ma Pharmacie Belcier,"","53 Rue de Son Tay, 33800 Bordeaux, France",2013-06-19 21:17:51 UTC,2013-06-19 21:17:51 UTC,true,-
98,44.8365450001613,-0.575823580672663,Rue Duffour Dubergier,http://damln.s3.amazonaws.com/upload/condomatix/5bf2afd5-1713-40d8-9744-4c13e752eba2,"9-19 Rue Duffour Dubergier, 33000 Bordeaux, France",2013-06-15 16:19:00 UTC,2013-06-18 09:26:24 UTC,true,5
102,44.8132173017956,-0.573090930185023,Rue Armand Lamarque,http://damln.s3.amazonaws.com/upload/condomatix/5bf2afd5-1713-40d8-9744-4c13e752eba3,"1 Rue Armand Lamarque, 33800 Bordeaux, France",2013-06-16 17:18:41 UTC,2013-06-18 09:29:09 UTC,true,5
111,44.8117664,-0.5641619,Pharmacie de la Ferrade,"","36 Cours Victor Hugo, 33130 Bègles, France",2013-06-19 21:20:12 UTC,2013-06-19 21:20:12 UTC,true,-
71,44.8416768478968,-0.580444764190681,Place Gambetta,http://damln.s3.amazonaws.com/upload%2Fcondomatix%2Fa3fb5744-4273-479b-a217-4da57d9e86c4,"43 Place Gambetta, 33000 Bordeaux, France",2013-06-12 08:24:23 UTC,2013-06-18 09:34:29 UTC,true,5
72,44.83919,-0.581636,Rue du Docteur Charles Nancel Penard,http://damln.s3.amazonaws.com/upload%2Fcondomatix%2F9722aa44-5473-44bc-8611-c64839ecda03,"31 Rue du Docteur Charles Nancel Penard, 33000 Bordeaux, France",2013-06-12 08:28:30 UTC,2013-06-18 09:39:36 UTC,true,0
67,44.855266,-0.571066,Rue Borie,http://damln.s3.amazonaws.com/upload%2Fcondomatix%2Fb7eda8bd-a55d-4f57-bd62-42ead7d3efcc,"70 Rue Borie, 33300 Bordeaux, France",2013-06-12 07:40:08 UTC,2013-06-18 09:41:34 UTC,true,0
69,44.852111,-0.573469,Cours de Verdun,http://damln.s3.amazonaws.com/upload%2Fcondomatix%2F44474143-4d7f-4283-a9ac-5830ea56f631,"130 Cours de Verdun, 33000 Bordeaux, France",2013-06-12 08:11:56 UTC,2013-06-18 09:42:38 UTC,true,2
105,44.8225176471135,-0.552750176031794,Rue Sarrette,http://damln.s3.amazonaws.com/upload%2Fcondomatix%2Fe31edfca-2704-43a1-84d9-450868d11db6,"33 Rue Sarrette, 33800 Bordeaux, France",2013-06-19 17:46:30 UTC,2013-06-19 17:46:30 UTC,true,0
106,44.8284007421458,-0.561522858321142,Cours de la Marne,http://damln.s3.amazonaws.com/upload%2Fcondomatix%2Ffec6edbc-937a-409f-bbd0-d6f7e3900fdc,"158 Cours de la Marne, 33800 Bordeaux, France",2013-06-19 20:42:37 UTC,2013-06-19 20:42:37 UTC,true,5
107,44.8279080447227,-0.559559259564206,Cours de la Marne,http://damln.s3.amazonaws.com/upload%2Fcondomatix%2F96c8776c-f244-478c-a545-80db0c89f239,"205 Cours de la Marne, 33800 Bordeaux, France",2013-06-19 20:46:38 UTC,2013-06-19 20:46:38 UTC,true,5
108,44.8239838891149,-0.557845328003688,Rue Charles Domercq,http://damln.s3.amazonaws.com/upload%2Fcondomatix%2Fe9071a99-c95e-4666-8a0f-915ab5ce94d1,"48 Rue Charles Domercq, 33800 Bordeaux, France",2013-06-19 20:53:43 UTC,2013-06-19 20:53:43 UTC,true,5
112,44.8130569,-0.5644618,Pharmacie Paoli,"","2 Cours Victor Hugo, 33130 Bègles, France",2013-06-19 21:22:17 UTC,2013-06-19 21:22:17 UTC,true,-
113,44.8687716,-0.6084001,Pharmacie des Ecus,"","323 Avenue de la Libération Charles de Gaulle, 33110 Le Bouscat, France",2013-06-19 21:24:18 UTC,2013-06-19 21:24:18 UTC,true,-
114,44.8812758,-0.6132754,Pharmacie du Stade,"","1 Rue Théodore Bellemer, 33520 Bruges, France",2013-06-19 21:26:21 UTC,2013-06-19 21:26:21 UTC,true,-
115,44.8730245,-0.6780603,Pharmacie de la Mairie,"","164 Avenue Pasteur, 33185 Haillan, France",2013-06-19 21:31:12 UTC,2013-06-19 21:31:12 UTC,true,-
116,44.82169,-0.6071601,Moineaux Sabine,"","11 Rue de Bethmann, 33600 Pessac, France",2013-06-19 21:36:08 UTC,2013-06-19 21:36:08 UTC,true,-
117,44.8098461,-0.6222692,Pharmacie des Echoppes,"","73 Avenue Jean Jaurès, 33600 Pessac, France",2013-06-19 21:38:29 UTC,2013-06-19 21:38:29 UTC,true,-
118,44.8022919,-0.6253444,Laffly Dolati Joelle,"","43 Avenue de Gradignan, 33600 Pessac, France",2013-06-19 21:39:57 UTC,2013-06-19 21:39:57 UTC,true,-
120,44.8065675,-0.5794121,Pharmacie Nour,"","254 Rue Frédéric Sevene, 33400 Talence, France",2013-06-19 21:43:47 UTC,2013-06-19 21:43:47 UTC,true,0
121,44.8232981,-0.5858353,Pharmacie Boulevard George V,"","138 Boulevard George V, 33000 Bordeaux, France",2013-06-19 21:46:32 UTC,2013-06-19 21:46:32 UTC,true,-
122,44.8521475,-0.6554557,Pharmacie Robinson,"","74 Avenue des Frères Robinson, 33700 Mérignac, France",2013-06-21 16:56:42 UTC,2013-06-21 16:56:42 UTC,true,-
123,44.8616152,-0.6431944,Pharmacie du Grand Louis,"","75 Avenue de Saint-Médard, 33320 Eysines, France",2013-06-21 16:58:18 UTC,2013-06-21 16:58:18 UTC,true,-
130,44.8234205,-0.6244301,Sahagun Sylvie,"","20 Avenue Victor Hugo, 33700 Mérignac, France",2013-06-21 17:12:12 UTC,2013-06-21 17:12:12 UTC,true,-
131,44.8527855,-0.619786,Pharmacie de Lestonnat,"","5 Rue Cerey, 33000 Bordeaux, France",2013-06-21 17:13:57 UTC,2013-06-21 17:13:57 UTC,true,-
175,53.6317878,10.0070807,Aéroport de Hambourg,http://damln.s3.amazonaws.com/upload%2Fcondomatix%2F9cb7b103-b346-48a2-8a9d-b064c78429a1,"Flughafenstraße 200, Aéroport de Hambourg (HAM), 22335 Hambourg, Allemagne",2014-06-30 08:59:49 UTC,2014-06-30 08:59:49 UTC,true,5
176,52.3053019,4.7668269,Schiphol Amsterdam Airport,http://damln.s3.amazonaws.com/upload%2Fcondomatix%2F22420582-5ad8-4616-a7f9-5ffdd48b161d,"Randweg A, Schiphol Amsterdam Airport, 1118 Aéroport d'Amsterdam-Schiphol, Pays-Bas",2014-07-17 17:48:58 UTC,2014-07-17 17:48:58 UTC,true,5
124,44.8584655,-0.6239117,Sci Gloris,"","353 Avenue du Maréchal de Lattre de Tassigny, 33200 Bordeaux, France",2013-06-21 17:00:51 UTC,2013-06-21 17:00:51 UTC,true,-
125,44.8564197,-0.6287169,Pharmacie de Monséjour,"","93 Rue Stéhélin, 33000 Bordeaux, France",2013-06-21 17:02:31 UTC,2013-06-21 17:02:31 UTC,true,-
126,44.8461721,-0.6330995,Pharmacie Clos Montesquieu,"","49 Centre Commercial Montesquieu, 33700 Mérignac, France",2013-06-21 17:04:48 UTC,2013-06-21 17:04:48 UTC,true,-
127,44.8405899,-0.6510168,Pharmacie Paquier,"","28 Rue Richard Wagner, 33700 Mérignac, France",2013-06-21 17:06:03 UTC,2013-06-21 17:06:03 UTC,true,-
128,44.8367682,-0.6211872,Pharmacie de la Glacière,"","42 Avenue de la Marne, 33700 Mérignac, France",2013-06-21 17:07:31 UTC,2013-06-21 17:07:31 UTC,true,2
129,44.8378985,-0.6163949,Pharmacie du Rond Point Mondésir,"","8 Avenue du Maréchal Gallieni, 33700 Mérignac, France",2013-06-21 17:10:49 UTC,2013-06-21 17:10:49 UTC,true,-
132,44.8403302,-0.5590667,Pharmacie Bastidienne,"","1 Avenue Thiers, 33100 Bordeaux, France",2013-06-21 17:15:19 UTC,2013-06-21 17:15:19 UTC,true,-
133,44.83921,-0.584124,Pharmacie Mériadeck,"","Rue Père Dieuzaide, 33 000 Bordeaux, France",2013-06-21 17:21:50 UTC,2013-06-21 17:21:50 UTC,true,-
135,44.8168975,-0.5462638,Pharmacie Brun,"","16 Rue Hippolyte Tandonnet, 33130 Bègles, France",2013-06-22 15:27:59 UTC,2013-06-22 15:27:59 UTC,true,-
136,44.8077655,-0.5534623,Snc Societe Marechal,"","79 Rue Léon Gambetta, 33130 Bègles, France",2013-06-22 15:29:32 UTC,2013-06-22 15:29:32 UTC,true,-
137,44.81748,-0.585434,Pharmacie Barbe,http://damln.s3.amazonaws.com/upload%2Fcondomatix%2Fpharmacie-barbe.png,1 Rue René Balloux 33400 Talence,2013-06-23 22:41:11 UTC,2013-06-23 22:41:11 UTC,true,5
119,44.814188,-0.5888382,Pharmacie Morga,http://damln.s3.amazonaws.com/upload%2Fcondomatix%2Fmorga.png,"213 Cours Gambetta, 33400 Talence, France",2013-06-19 21:41:43 UTC,2013-06-23 22:51:56 UTC,true,0
139,43.2985886530395,-0.370663061565377,Rue Montpensier,http://damln.s3.amazonaws.com/upload%2Fcondomatix%2F0bf2a4a0-6483-414a-8270-57492ed25c44,"1 Rue Montpensier, 64000 Pau, France",2013-07-13 14:58:28 UTC,2013-07-13 14:58:28 UTC,true,2
140,43.6109856997654,3.87594265896519,Rue Massilian,http://damln.s3.amazonaws.com/upload%2Fcondomatix%2Fbbdf4919-7271-456c-874b-a6397206f56f,"1 Rue Massilian, 34000 Montpellier, France",2013-07-21 12:09:34 UTC,2013-07-21 12:09:34 UTC,true,5
141,44.8565692020564,-0.574637073282841,Avenue Emile Counord,http://damln.s3.amazonaws.com/upload%2Fcondomatix%2Fab89293c-542e-473a-9e95-396c00f719f4,"48-54 Avenue Emile Counord, 33300 Bordeaux, France",2013-07-25 09:33:43 UTC,2013-07-25 09:33:43 UTC,true,0
143,43.3875256541669,-1.66125129858479,Avenue Joachim Labrouche,http://damln.s3.amazonaws.com/upload%2Fcondomatix%2F4ad5440f-5135-4d08-aab9-84a1b5b1bd50,"15-17 Avenue Joachim Labrouche, 64500 Saint-Jean-de-Luz, France",2013-08-14 13:19:57 UTC,2013-08-14 13:19:57 UTC,true,0
144,43.3901617308168,-1.65921726192645,Rue Michel Etchegaray,http://damln.s3.amazonaws.com/upload%2Fcondomatix%2F0f982b3c-4b61-4c46-a13f-07420c0150d6,"8-16 Rue Michel Etchegaray, 64500 Saint-Jean-de-Luz, France",2013-08-14 15:48:34 UTC,2013-08-14 15:48:34 UTC,true,0
145,43.3886340042693,-1.66101791889509,Place du Collège,http://damln.s3.amazonaws.com/upload%2Fcondomatix%2Fd0deeebd-d13a-40ad-afea-bee6bd3a7a9d,"1 Place du Collège, 64500 Saint-Jean-de-Luz, France",2013-08-14 17:37:36 UTC,2013-08-14 17:37:36 UTC,true,0
148,44.8377026548484,-0.574880026118689,Cours d'Alsace Lorraine,http://damln.s3.amazonaws.com/upload%2Fcondomatix%2Febcf323d-8a94-474f-bb76-345d593ebead,"87 Cours d'Alsace Lorraine, 33000 Bordeaux, France",2013-09-12 23:50:01 UTC,2013-09-12 23:50:01 UTC,true,3
149,45.7696741671282,4.83567971324596,Rue des Capucins,http://damln.s3.amazonaws.com/upload%2Fcondomatix%2F811862dd-bfe2-4ef8-8d5a-33eb0f650451,"29 Rue des Capucins, 69001 Lyon, France",2013-09-30 18:18:52 UTC,2013-09-30 18:18:52 UTC,true,0
150,45.7576284695607,4.8360848373175,Rue de la Barre,http://damln.s3.amazonaws.com/upload%2Fcondomatix%2Fda40b79f-7d83-4442-9c56-d859cd336bb9,"11 Rue de la Barre, 69002 Lyon, France",2013-10-01 22:56:15 UTC,2013-10-01 22:56:15 UTC,true,0
151,45.763476201908,4.83547969227405,Rue Grenette,http://damln.s3.amazonaws.com/upload%2Fcondomatix%2Fbc16f209-c7de-449b-93ae-7d3860bc44a0,"34-36 Rue Grenette, 69002 Lyon, France",2013-10-02 18:40:03 UTC,2013-10-02 18:40:03 UTC,true,5
152,45.764699263957,4.83336822261484,Rue Pleney,http://damln.s3.amazonaws.com/upload%2Fcondomatix%2F9d9658c8-c816-4788-9144-c640ddc6ec49,"7 Rue Pleney, 69001 Lyon, France",2013-10-02 21:52:52 UTC,2013-10-02 21:52:52 UTC,true,5
153,45.7659687452531,4.83309342530409,Rue Paul Chenavard,http://damln.s3.amazonaws.com/upload%2Fcondomatix%2F94451194-1238-4057-8def-dc4524f1096a,"27 Rue Paul Chenavard, 69001 Lyon, France",2013-10-02 21:56:24 UTC,2013-10-02 21:56:24 UTC,true,5
154,45.763538107526,4.8357482457585,Rue de la République,http://damln.s3.amazonaws.com/upload%2Fcondomatix%2F2d7883eb-a31a-4fb3-b8aa-2da28fd99aa5,"20 Rue de la République, 69002 Lyon, France",2013-10-03 11:02:36 UTC,2013-10-03 11:02:36 UTC,true,5
155,45.7604259592099,4.8360481062799,Rue Stella,http://damln.s3.amazonaws.com/upload%2Fcondomatix%2F0710ea24-e16d-434a-a2d1-e7e6065e74a3,"00004 Rue Stella, 69002 Lyon, France",2013-10-03 11:09:57 UTC,2013-10-03 11:09:57 UTC,true,5
156,45.7602927956202,4.8361564178133,Rue Stella,http://damln.s3.amazonaws.com/upload%2Fcondomatix%2F1cabc67b-b2e2-441e-bfa1-321ee3b7539b,"1-5 Rue Stella, 69002 Lyon, France",2013-10-03 11:11:42 UTC,2013-10-03 11:11:42 UTC,true,5
157,45.7207787,5.0794407,Aéroport de Lyon-Saint Éxupéry,http://damln.s3.amazonaws.com/upload%2Fcondomatix%2Ff198a42e-6f52-426f-a650-65f0e22a9b12,"Aéroport Lyon Saint-Exupéry, Aéroport de Lyon-Saint Éxupéry, 69125 Colombier-Saugnieu, France",2013-10-03 13:12:19 UTC,2013-10-03 13:12:19 UTC,true,5
158,45.7210812063061,5.07808094150143,Aéroport de Lyon-Saint Éxupéry,http://damln.s3.amazonaws.com/upload%2Fcondomatix%2F5377ab8d-a3f7-460d-88c3-24362236ad1b,"Aéroport Lyon Saint-Exupéry, Aéroport de Lyon-Saint Éxupéry, 69125 Colombier-Saugnieu, France",2013-10-03 13:13:37 UTC,2013-10-03 13:13:37 UTC,true,5
159,44.8094424968635,-0.774333752023459,Avenue de Bordeaux,http://damln.s3.amazonaws.com/upload%2Fcondomatix%2Fca6cfe40-80d2-4c5a-836b-24f00e7f3b00,"550 Avenue de Bordeaux, 33127 Saint-Jean-d'Illac, France",2013-10-05 10:20:00 UTC,2013-10-05 10:20:00 UTC,true,0
160,43.6050198442444,1.44786047469639,Place du Président Thomas Wilson,http://damln.s3.amazonaws.com/upload%2Fcondomatix%2F464f4999-b34a-4cdf-bd9e-3d0f77576168,"19-20 Place du Président Thomas Wilson, 31000 Toulouse, France",2013-10-05 12:56:45 UTC,2013-10-05 12:56:45 UTC,true,0
161,43.6071914204021,1.45135665854328,Rue Bachelier,http://damln.s3.amazonaws.com/upload%2Fcondomatix%2F2a3233f7-7f66-4390-a38d-b6918051d91c,"32 Rue Bachelier, 31000 Toulouse, France",2013-10-06 12:37:07 UTC,2013-10-06 12:37:07 UTC,true,5
162,43.6045594306885,1.44675318083291,Rue Lapeyrouse,http://damln.s3.amazonaws.com/upload%2Fcondomatix%2Ff47be3dd-9e38-433b-b375-7156d3742b74,"8 Rue Lapeyrouse, 31000 Toulouse, France",2013-10-06 12:44:36 UTC,2013-10-06 12:44:36 UTC,true,5
163,43.600138604601,1.44326813617046,Rue des Marchands,http://damln.s3.amazonaws.com/upload%2Fcondomatix%2F13a1448a-8b62-4157-968a-2d55a3f8043f,"33-39 Rue des Marchands, 31000 Toulouse, France",2013-10-06 12:54:56 UTC,2013-10-06 12:54:56 UTC,true,5
164,43.5984881644607,1.4341434908034,Place Olivier,http://damln.s3.amazonaws.com/upload%2Fcondomatix%2F89b7573c-e99f-40df-8fd6-ec25f3e9edcb,"17-19 Place Olivier, 31300 Toulouse, France",2013-10-06 13:06:53 UTC,2013-10-06 13:06:53 UTC,true,5
165,43.5980494492944,1.43218224115336,Rue de la République,http://damln.s3.amazonaws.com/upload%2Fcondomatix%2F3070996d-9548-42a7-8e85-08aae857bae0,"70 Rue de la République, 31300 Toulouse, France",2013-10-06 13:10:17 UTC,2013-10-06 13:10:17 UTC,true,5
166,43.6048749130773,1.44221167917472,Rue des Lois,http://damln.s3.amazonaws.com/upload%2Fcondomatix%2Fb50dddfa-363b-4fca-9a84-0ecfeebc7e5f,"8 Rue des Lois, 31000 Toulouse, France",2013-10-06 14:09:21 UTC,2013-10-06 14:09:21 UTC,true,5
167,43.6048390126053,1.44280028154466,Rue du Taur,http://damln.s3.amazonaws.com/upload%2Fcondomatix%2Fbf246dc4-7d1b-40ab-9fed-7d1290199b1b,"3 Rue du Taur, 31000 Toulouse, France",2013-10-06 14:11:11 UTC,2013-10-06 14:11:11 UTC,true,5
169,44.85254186,-0.53950985,Avenue Thiers,http://damln.s3.amazonaws.com/upload%2Fcondomatix%2F8f54fce6-88ac-4fae-8711-915e0805cdce,"365 Bis Avenue Thiers, 33100 Bordeaux, France",2013-12-21 14:19:28 UTC,2013-12-21 14:19:28 UTC,true,2
170,44.84048818,-0.55883433,Place de Stalingrad,http://damln.s3.amazonaws.com/upload%2Fcondomatix%2Ff09e79ac-a1c2-4a31-a67c-f9bcaf6073a4,"19 Place de Stalingrad, 33100 Bordeaux, France",2013-12-21 15:20:34 UTC,2013-12-21 15:20:34 UTC,true,0
