X,Y,FID,categori,nom,type,capacite,etat,adresse,gestionn,tranche_ag,hjrs_ouver,source,export
339358.2541,7689358.4452,1,Crèche collective,Les Jacarandas - Ilet aux grands,Etablissement Associatif,29,Actuel,6 Rue du Bois de Nèfles - 97400 Saint-Denis,association babyland,2 mois à 6 ans,Du lundi au vendredi de 7h15 à 17h40,Centre Communal d'action Sociale (CCAS) Distribuée par la Direction Patrimoine Foncier /  Plan & SIG - Mairie de Saint-Denis,08/12/2020
339601.9717,7688810.6881,2,Crèche collective,Soeur Colette,Etablissement municipal,60,Actuel,14 Rue Jules Verne - 97400 Saint-Denis,C.C.A.S. de Saint Denis,2 mois et demi à 4 ans,Du lundi au vendredi de 7h30 à 16h00,Centre Communal d'action Sociale (CCAS) Distribuée par la Direction Patrimoine Foncier /  Plan & SIG - Mairie de Saint-Denis,08/12/2020
343407.0288,7685363.7437,3,Micro crèche,Les Babas,Etablissement Associatif,10,Actuel,252 Route Gabriel Macé - 97490 Sainte-Clotilde,Ass les babies,3 mois à 3 ans,Du lundi au vendredi de 7h00 à 18h00,Centre Communal d'action Sociale (CCAS) Distribuée par la Direction Patrimoine Foncier /  Plan & SIG - Mairie de Saint-Denis,08/12/2020
341689.9645,7689131.1728,4,Crèche collective,Les P tits Mounes,Etablissement Associatif,30,Actuel,15 Rue Pitel - 97490 Sainte-Clotilde,Ass les Ptits Mounes,3 mois à 4 ans,Du lundi au vendredi de 7h30 à 17h30,Centre Communal d'action Sociale (CCAS) Distribuée par la Direction Patrimoine Foncier /  Plan & SIG - Mairie de Saint-Denis,08/12/2020
340751.42,7688104.79,5,Micro crèche,Pinarello,Etablissement Privé,10,Actuel,21 Rue du Stade - 97400 Saint-Denis,Crèche And Go,3 mois à 4 ans,Du lundi au vendredi de 7h30 à 18h00,Centre Communal d'action Sociale (CCAS) Distribuée par la Direction Patrimoine Foncier /  Plan & SIG - Mairie de Saint-Denis,08/12/2020
338323.15,7689592.68,6,Micro crèche,Leroy 1,Etablissement Privé,10,Actuel,3 Impasse Adolphe Leroy - 97400 Saint-Denis,Crèche And Go,3 mois à 4 ans,Du lundi au vendredi de 7h30 à 18h00,Centre Communal d'action Sociale (CCAS) Distribuée par la Direction Patrimoine Foncier /  Plan & SIG - Mairie de Saint-Denis,08/12/2020
341480.3503,7688142.0771,7,Micro crèche,Les Petites Lucioles 2,Etablissement Associatif,10,Actuel,132 Route de Bois de Nèfles - 97490 Sainte-Clotilde,association babyland,18 mois à 6 ans,Du lundi au vendredi de 6h00 à 20h00,Centre Communal d'action Sociale (CCAS) Distribuée par la Direction Patrimoine Foncier /  Plan & SIG - Mairie de Saint-Denis,08/12/2020
343446.0174,7684993.6138,8,Micro crèche,Funny Bees,Etablissement Privé,10,Actuel,133 bis Rue Monseigneur Lagavant- 97490 Sainte-Clotilde,Scic Ecsper,3 mois à 4 ans,Du lundi au vendredi de 7h00 à 18h00,Centre Communal d'action Sociale (CCAS) Distribuée par la Direction Patrimoine Foncier /  Plan & SIG - Mairie de Saint-Denis,08/12/2020
341472.579,7688140.9669,9,Micro crèche,Les Petites Lucioles 1,Etablissement Associatif,10,Actuel,132 Route de Bois de Nèfles - 97490 Sainte-Clotilde,association babyland,3 mois à 2 ans,Du lundi au vendredi de 6h00 à 20h00,Centre Communal d'action Sociale (CCAS) Distribuée par la Direction Patrimoine Foncier /  Plan & SIG - Mairie de Saint-Denis,08/12/2020
341662.7962,7689140.3378,10,Centre multi accueil,Colombine,Etablissement Associatif,35,Actuel,13 Rue Pitel - 97490 Sainte-Clotilde,Ass Colombine,2 mois à 6 ans,Du lundi au vendredi de 7h30 à 17h30,Centre Communal d'action Sociale (CCAS) Distribuée par la Direction Patrimoine Foncier /  Plan & SIG - Mairie de Saint-Denis,08/12/2020
339397.97,7689316.96,11,Crèche collective,Les Jacarandas - Ilet aux petits,Etablissement Associatif,60,Actuel,6 Ruelle Camp Calixte - 97400 Saint-Denis,association babyland,10 semaines à 4 ans,Du lundi au vendredi de 7h00 à 17h30,Centre Communal d'action Sociale (CCAS) Distribuée par la Direction Patrimoine Foncier /  Plan & SIG - Mairie de Saint-Denis,08/12/2020
344563.431,7687032.1432,12,Crèche collective,Jardin Le Coin des Bout Choux,Etablissement Associatif,32,Actuel,5 Impasse Paille en queue - 97490 Sainte-Clotilde,Ass les Bout'choux,18 mois à 6 ans,Du lundi au vendredi de 7h00 à 17h00,Centre Communal d'action Sociale (CCAS) Distribuée par la Direction Patrimoine Foncier /  Plan & SIG - Mairie de Saint-Denis,08/12/2020
339165.76,7689632.85,13,Micro crèche,La Source des Petits Anges,Etablissement Privé,10,Actuel,23 Rue Suffren - 97400 Saint-Denis,EURL La Source des P,2 mois à 4 ans,Du lundi au vendredi de 6h30 à 18h00,Centre Communal d'action Sociale (CCAS) Distribuée par la Direction Patrimoine Foncier /  Plan & SIG - Mairie de Saint-Denis,08/12/2020
338901.6956,7690905.0015,14,Crèche collective,Les Alamandas,Etablissement Associatif,45,En travaux,10 Rue des Sables - 97400 Saint-Denis,association babyland,10 semaines à 6 ans,Du lundi au vendredi de 7h00 à 17h30,Centre Communal d'action Sociale (CCAS) Distribuée par la Direction Patrimoine Foncier /  Plan & SIG - Mairie de Saint-Denis,08/12/2020
342386.3573,7686416.0866,15,Centre multi accueil,Les tulipiers,Etablissement Municipal,44,Actuel,14 Chemin de la Source - 97490 Sainte-Clotilde,C.C.A.S. de Saint Denis,3 mois à 4 ans,Du lundi au vendredi de 7h30 à 16h00,Centre Communal d'action Sociale (CCAS) Distribuée par la Direction Patrimoine Foncier /  Plan & SIG - Mairie de Saint-Denis,08/12/2020
339564.8134,7688308.3631,16,Micro crèche,Les Lauriers I,Etablissement Privé,10,Actuel,31 Rue des Lauriers - 97400 Saint-Denis,Crèche And Go,3 mois à 4 ans,Du lundi au vendredi de 7h30 à 18h00,Centre Communal d'action Sociale (CCAS) Distribuée par la Direction Patrimoine Foncier /  Plan & SIG - Mairie de Saint-Denis,08/12/2020
339561.659,7688310.5816,17,Micro crèche,Les Lauriers II,Etablissement Privé,10, ,31 Rue des Lauriers - 97400 Saint-Denis,Crèche And Go,3 mois à 4 ans,Du lundi au vendredi de 7h30 à 18h00,Centre Communal d'action Sociale (CCAS) Distribuée par la Direction Patrimoine Foncier /  Plan & SIG - Mairie de Saint-Denis,08/12/2020
343453.2055,7685008.2513,18,Micro crèche,Ti Caz Ecolo,Etablissement Privé,10,Actuel,133 bis Rue Monseigneur Lagavant -97490 Sainte-Clotilde,Scic Ecsper,15 mois à 4 ans,Du lundi au vendredi de 7h00 à 18h00,Centre Communal d'action Sociale (CCAS) Distribuée par la Direction Patrimoine Foncier /  Plan & SIG - Mairie de Saint-Denis,08/12/2020
338392.41,7688551.55,19,Micro crèche,Le Manège Enchanté 2,Etablissement Associatif,10,Actuel,"42, Allée des Topazes - 97400 Saint-Denis",Asso le Manège Encha,3 mois à 4 ans,Du lundi au vendredi de 7h00 à 18h00,Centre Communal d'action Sociale (CCAS) Distribuée par la Direction Patrimoine Foncier /  Plan & SIG - Mairie de Saint-Denis,08/12/2020
338063.1,7690414.4,20,Micro crèche,L'îlot Vert,Etablissement Privé,10,Actuel,10 Place Monseigneur Armand-René Maupoint - 97400 Saint-Denis,SARL Ilot vert,2 mois à 6 ans,Du lundi au vendredi de 7h15 à 17h45,Centre Communal d'action Sociale (CCAS) Distribuée par la Direction Patrimoine Foncier /  Plan & SIG - Mairie de Saint-Denis,08/12/2020
339491.03,7689323.03,21,Micro crèche,La Caz Des Petits Anges,Etablissement Associatif,10,Actuel,1 bis Ruelle Samat - 97400 Saint-Denis,La Caz des pts Anges,2 mois à 4 ans,Du lundi au vendredi de 6h30 à 18h00,Centre Communal d'action Sociale (CCAS) Distribuée par la Direction Patrimoine Foncier /  Plan & SIG - Mairie de Saint-Denis,08/12/2020
338368.905,7688564.7512,22,Micro crèche,Le Manège Enchanté,Etablissement Associatif,10,Actuel,40 Allée des Topazes - 97400 Saint-Denis,Asso le Manège Encha,3 mois à 4 ans,Du lundi au vendredi de 7h00 à 18h00,Centre Communal d'action Sociale (CCAS) Distribuée par la Direction Patrimoine Foncier /  Plan & SIG - Mairie de Saint-Denis,08/12/2020
339834.9619,7690082.3277,23,Crèche collective,Ilot Saint Jacques Grands,Etablissement Associatif,33,Actuel,145 Rue Roland Garros - 97400 Saint-Denis,association babyland,2 à 6 ans,Du lundi au vendredi de 7h00 à 17h30,Centre Communal d'action Sociale (CCAS) Distribuée par la Direction Patrimoine Foncier /  Plan & SIG - Mairie de Saint-Denis,08/12/2020
341526.6,7688147.97,24,Micro crèche,Micro-Line 1,Etablissement Associatif,10,Actuel,111 Route du Bois de Nèfles - 97490 Sainte-Clotilde,association babyland,3 mois à 2 ans,Du lundi au vendredi de 6h00 à 20h00,Centre Communal d'action Sociale (CCAS) Distribuée par la Direction Patrimoine Foncier /  Plan & SIG - Mairie de Saint-Denis,08/12/2020
341048.1841,7688160.0511,25,Micro crèche,Les petits papangues,Etablissement Privé,10,Actuel,49b Rue de la Vierge - 97400 Saint Denis,SARL les Petits Pas,3 mois à 4 ans,Du lundi au vendredi de 7h30 à 17h30,Centre Communal d'action Sociale (CCAS) Distribuée par la Direction Patrimoine Foncier /  Plan & SIG - Mairie de Saint-Denis,08/12/2020
340679.6075,7688582.321,26,Centre multi accueil,Canebie,Etablissement Associatif,15,Actuel,4 Rue des Poivriers - 97400 Saint-Denis,Ass Canebie,2 mois et demi à 4 ans,Du lundi au vendredi de 7h15 à 17h30,Centre Communal d'action Sociale (CCAS) Distribuée par la Direction Patrimoine Foncier /  Plan & SIG - Mairie de Saint-Denis,08/12/2020
340679.0558,7688585.4115,27,Centre multi accueil,La Caze Zouzou,Etablissement Associatif,40,Actuel,4 Rue des Poivriers - 97400 Saint-Denis,Association la Case,14 mois à 4 ans,Du lundi au vendredi de 7h15 à 17h30,Centre Communal d'action Sociale (CCAS) Distribuée par la Direction Patrimoine Foncier /  Plan & SIG - Mairie de Saint-Denis,08/12/2020
338559.207,7689631.9676,28,Centre multi accueil,La Maison de Ben,Etablissement Associatif,60,Actuel,15 Rue Milius - 97400 Saint-Denis,Association Case Marmailles de Saint-Denis,3 mois à 6 ans,Du lundi au vendredi de 7h00 à 18h00,Centre Communal d'action Sociale (CCAS) Distribuée par la Direction Patrimoine Foncier /  Plan & SIG - Mairie de Saint-Denis,08/12/2020
341711.2136,7689131.6131,29,Centre multi accueil,Les Jonquilles,Etablissement Associatif,35,Actuel,13 bis Rue Pitel - 97490 Sainte-Clotilde,Ass Colombine,3 mois à 6 ans,Du lundi au vendredi de 7h30 à 17h30,Centre Communal d'action Sociale (CCAS) Distribuée par la Direction Patrimoine Foncier /  Plan & SIG - Mairie de Saint-Denis,08/12/2020
342066.5417,7688747.08,30,Micro crèche,Poucet Poucette,Etablissement Associatif,10,Actuel,36 Rue Lory-Les-Hauts - 97490 Sainte-Clotilde,Ass de Poucélina,2 mois à 4 ans,Du lundi au vendredi de 7h00 à 18h15,Centre Communal d'action Sociale (CCAS) Distribuée par la Direction Patrimoine Foncier /  Plan & SIG - Mairie de Saint-Denis,08/12/2020
342245.1244,7688471.476,31,Crèche collective,Mini Club,Etablissement Privé,35,Actuel,36 Rue des Goyaves - 97490 Sainte-Clotilde,Mini-Club,3 mois à 6 ans,Du lundi au vendredi de 7h00 à 17h00,Centre Communal d'action Sociale (CCAS) Distribuée par la Direction Patrimoine Foncier /  Plan & SIG - Mairie de Saint-Denis,08/12/2020
339846.55,7690110.67,32,Centre multi accueil,Ilot Saint Jacques Petits,Etablissement Associatif,43,Actuel,145 Rue Roland Garros - 97400 Saint-Denis,association babyland,3 mois à 4 ans,Du lundi au vendredi de 7h00 à 17h30,Centre Communal d'action Sociale (CCAS) Distribuée par la Direction Patrimoine Foncier /  Plan & SIG - Mairie de Saint-Denis,08/12/2020
341520.095,7688149.6263,33,Micro crèche,Micro-Line 2,Etablissement Associatif,10,Actuel,111 Route de Bois de Nèfles - 97490 Sainte-Clotilde,association babyland,14 mois à 6 ans,Du lundi au vendredi de 6h00 à 20h00,Centre Communal d'action Sociale (CCAS) Distribuée par la Direction Patrimoine Foncier /  Plan & SIG - Mairie de Saint-Denis,08/12/2020
338961.4093,7688914.9346,34,Micro crèche,Le Manège Enchanté 3,Etablissement Associatif,10, ,5 Allée des Onyx - 97400 Saint Denis,Asso le Manège Encha,2 mois et demi à 4 ans,Du lundi au vendredi de 7h00 à 18h00,Centre Communal d'action Sociale (CCAS) Distribuée par la Direction Patrimoine Foncier /  Plan & SIG - Mairie de Saint-Denis,08/12/2020
342185.6501,7687200.8826,35,Micro crèche,Les Bisounours,Etablissement Associatif,10,Actuel,24 Boulevard Mahatma Gandhi - 97490 Sainte-Clotilde,Ass Flamboyant,2 mois et demi à 3 ans,Du lundi au vendredi de 7h00 à 18h00,Centre Communal d'action Sociale (CCAS) Distribuée par la Direction Patrimoine Foncier /  Plan & SIG - Mairie de Saint-Denis,08/12/2020
341917.5805,7688522.2431,36,Micro crèche,Koté Marmay,Etablissement Privé,10,Actuel,3 Bis Impasse Bois de Chandelle - 97490 Sainte-Clotilde,Association le Manège Enchanté,2 mois et demi à 6 ans,Du lundi au vendredi de 7h00 à 17h30,Centre Communal d'action Sociale (CCAS) Distribuée par la Direction Patrimoine Foncier /  Plan & SIG - Mairie de Saint-Denis,08/12/2020
343218.7875,7685902.2133,37,Centre multi accueil,Les Babies,Etablissement Associatif,20,Actuel,13 bis Chemin Bois Rouge - 97490 Sainte-Clotilde,Ass les babies,de la marche à 6 ans,Du lundi au vendredi de 7h00 à 18h00,Centre Communal d'action Sociale (CCAS) Distribuée par la Direction Patrimoine Foncier /  Plan & SIG - Mairie de Saint-Denis,08/12/2020
339192.45,7688891.98,38,Crèche collective,Les Chérubins,Etablissement Associatif,48,Actuel,33 Ruelle Ave Maria - 97400 Saint-Denis,Association Notre Dame des Enfants,15 mois à 6 ans,Du lundi au vendredi de 7h00 à 17h30,Centre Communal d'action Sociale (CCAS) Distribuée par la Direction Patrimoine Foncier /  Plan & SIG - Mairie de Saint-Denis,08/12/2020
338633.111,7689495.1613,39,Crèche collective,Les petits princes Conseil Général,Etablissement Associatif,60,Actuel,35 Rue Bertin - 97400 Saint-Denis,Conseil départemental La Réunion,3 mois à 3 ans,Du lundi au vendredi de 7h30 à 18h00,Centre Communal d'action Sociale (CCAS) Distribuée par la Direction Patrimoine Foncier /  Plan & SIG - Mairie de Saint-Denis,08/12/2020
339189.85,7688878.91,40,Crèche collective,Les Petits Anges,Etablissement Associatif,40,Actuel,33 Ruelle Ave Maria - 97400 Saint-Denis,Association Notre Dame des Enfants,3 mois à 4 ans,Du lundi au vendredi de 7h00 à 17h30,Centre Communal d'action Sociale (CCAS) Distribuée par la Direction Patrimoine Foncier /  Plan & SIG - Mairie de Saint-Denis,08/12/2020
344108.3762,7688085.75,41,Crèche collective,Les Hortensias,Etablissement Associatif,53,Actuel,17B Route de la Rivière des Pluies Résidence La Tonnelle - 97490 Sainte-Clotilde,association babyland,10 semaines à 6 ans,Du lundi au vendredi de 7h00 à 17h30,Centre Communal d'action Sociale (CCAS) Distribuée par la Direction Patrimoine Foncier /  Plan & SIG - Mairie de Saint-Denis,08/12/2020
341936.7712,7687611.1907,42,Lieu d'Accueil,Relais Assistante Maternelle (RAM),Etablissement municipal, ,Actuel,11 Rue Pierre de Coubertin - 97490 Sainte-Clotilde,C.C.A.S. de Saint Denis, , ,Centre Communal d'action Sociale (CCAS) Distribuée par la Direction Patrimoine Foncier /  Plan & SIG - Mairie de Saint-Denis,08/12/2020
341550.8295,7688520.8908,43,Centre multi accueil,Poucelina II - Jardin d'enfants,Etablissement Associatif,30,Actuel,51 Rue du Muscadier - 97490 Sainte-Clotilde,Ass de Poucélina,2 mois à 6 ans,Du lundi au vendredi de 7h00 à 18h15,Centre Communal d'action Sociale (CCAS) Distribuée par la Direction Patrimoine Foncier /  Plan & SIG - Mairie de Saint-Denis,08/12/2020
341539.62,7688529.38,44,Centre multi accueil,Poucelina II,Etablissement Associatif,60,Actuel,51 Rue du Muscadier - 97490 Sainte-Clotilde,Ass de Poucélina,2 mois à 6 ans,Du lundi au vendredi de 7h00 à 18h15,Centre Communal d'action Sociale (CCAS) Distribuée par la Direction Patrimoine Foncier /  Plan & SIG - Mairie de Saint-Denis,08/12/2020
342655.45,7686957.08,45,Micro crèche,Les Doudous,Etablissement Associatif,10,Actuel,11 Rue de la Chapelle - 97490 Sainte-Clotilde,Asso le Manège Encha,2 mois et demi à 3 ans,Du lundi au vendredi de 7h00 à 18h00,Centre Communal d'action Sociale (CCAS) Distribuée par la Direction Patrimoine Foncier /  Plan & SIG - Mairie de Saint-Denis,08/12/2020
341878.86,7686131.56,46,Micro crèche,Pazapas,Etablissement Associatif,10,Actuel,112 route des Ananas - 97490 Sainte-Clotilde,Asso Pazapas,2 mois à 6 ans,Du lundi au vendredi de 7h30 à 17h30,Centre Communal d'action Sociale (CCAS) Distribuée par la Direction Patrimoine Foncier /  Plan & SIG - Mairie de Saint-Denis,08/12/2020
338244.6,7689786.75,47,Micro crèche,Ylang ylang,Etablissement Associatif,10,Actuel,1 Rampes Ozoux - 97400 Saint-Denis,Asso Ogestras,2 mois à 4 ans,Du lundi au vendredi de 7h15 à 17h30,Centre Communal d'action Sociale (CCAS) Distribuée par la Direction Patrimoine Foncier /  Plan & SIG - Mairie de Saint-Denis,08/12/2020
344567.2577,7686992.0545,48,Micro crèche,Le Coin des Bout Choux,Etablissement Associatif,10,Actuel,1 Impasse Paille en Queue - 97490 Sainte-Clotilde,Ass les Bout'choux,3 mois à 3 ans,Du lundi au vendredi de 7h00 à 17h00,Centre Communal d'action Sociale (CCAS) Distribuée par la Direction Patrimoine Foncier /  Plan & SIG - Mairie de Saint-Denis,08/12/2020
336023.63,7689454.77,49,Crèche collective,La Montagne,Etablissement Municipal,44,Actuel,12 Chemin Bailly - 97417 La Montagne,C.C.A.S. de Saint Denis,2 mois à 4 ans,Du lundi au vendredi de 7h30 à 16h00,Centre Communal d'action Sociale (CCAS) Distribuée par la Direction Patrimoine Foncier /  Plan & SIG - Mairie de Saint-Denis,08/12/2020
338191.5034,7688969.3882,50,Micro crèche,Bellepierre I,Etablissement Privé,10,Actuel,53 Allée des Topazes - 97400 Saint-Denis,Crèche And Go,3 mois à 4 ans,Du lundi au vendredi de 7h30 à 18h00,Centre Communal d'action Sociale (CCAS) Distribuée par la Direction Patrimoine Foncier /  Plan & SIG - Mairie de Saint-Denis,08/12/2020
338187.3862,7688963.123,51,Micro crèche,Bellepierre II,Etablissement Privé,10,Actuel,53 Allée des Topazes - 97400 Saint-Denis,Crèche And Go,3 mois à 4 ans,Du lundi au vendredi de 7h30 à 18h00,Centre Communal d'action Sociale (CCAS) Distribuée par la Direction Patrimoine Foncier /  Plan & SIG - Mairie de Saint-Denis,08/12/2020
342290.9005,7689109.0707,52,Micro crèche,Les P'tites Canailles,Etablissement Associatif,10,Actuel,63 Rue Emile Grimaud - 97490 Sainte-Clotilde,Asso le Manège Encha,2 mois et demi à 3 ans,Du lundi au vendredi de 7h00 à 18h00,Centre Communal d'action Sociale (CCAS) Distribuée par la Direction Patrimoine Foncier /  Plan & SIG - Mairie de Saint-Denis,08/12/2020
342432.18,7689082.68,53,Lieu d'accueil Enfant Parent,LAEP,Etablissement municipal, ,Actuel,6 Rue Indiana Chaudron - 97490 Sainte-Clotilde, , , ,Centre Communal d'action Sociale (CCAS) Distribuée par la Direction Patrimoine Foncier /  Plan & SIG - Mairie de Saint-Denis,08/12/2020
339227.41,7689980.66,54,Crèche collective,Perles à Pinpins,Etablissement Associatif,48,Actuel,130 Rue Jules Auber - 97400 Saint-Denis,association babyland,10 semaines à 5 ans,Du lundi au vendredi de 7h00 à 17h30,Centre Communal d'action Sociale (CCAS) Distribuée par la Direction Patrimoine Foncier /  Plan & SIG - Mairie de Saint-Denis,08/12/2020
339768.0427,7686363.633,55,Micro crèche,Les Ptits Papillons,Etablissement Associatif,10,Actuel,127 Route de Saint Francois - 97400 Saint-Denis,Asso les Flamboyants,2 mois et demi à 3 ans,Du lundi au vendredi de 7h00 à 18h00,Centre Communal d'action Sociale (CCAS) Distribuée par la Direction Patrimoine Foncier /  Plan & SIG - Mairie de Saint-Denis,08/12/2020
335952.9926,7689301.456,56,Micro crèche,Poterne 1,Etablissement Privé,10,Actuel,3 Chemin Bailly 97417 - La Montagne,Crèche And Go,3 mois à 4 ans,Du lundi au vendredi de 7h30 à 18h00,Centre Communal d'action Sociale (CCAS) Distribuée par la Direction Patrimoine Foncier /  Plan & SIG - Mairie de Saint-Denis,08/12/2020
335936.7875,7689301.0348,57,Micro crèche,Creche and go Poterne 2,Etablissement Privé,10,Actuel,3 Chemin Bailly 97417 - La Montagne,Crèche And Go,3 mois à 4 ans,Du lundi au vendredi de 7h30 à 18h00,Centre Communal d'action Sociale (CCAS) Distribuée par la Direction Patrimoine Foncier /  Plan & SIG - Mairie de Saint-Denis,08/12/2020
344345.963,7687675.7635,58,Micro crèche,Pierrot,Etablissement Associatif,10,Actuel,7 Rue Henry Cornu Rodrigues II Zone Technor - 97490 Sainte-Clotilde,Asso Pierrot,2 mois à 6 ans,Du lundi au vendredi de 7h00 à 18h00,Centre Communal d'action Sociale (CCAS) Distribuée par la Direction Patrimoine Foncier /  Plan & SIG - Mairie de Saint-Denis,08/12/2020
339642.4604,7689575.4954,59,Centre multi accueil,Les Zinnias,Etablissement Associatif,29,Actuel,30 Rue d'Après - 97400 Saint-Denis,association babyland,de la marche à 5 ans,Du lundi au vendredi de 7h00 à 17h30,Centre Communal d'action Sociale (CCAS) Distribuée par la Direction Patrimoine Foncier /  Plan & SIG - Mairie de Saint-Denis,08/12/2020
342795.5695,7688812.1369,60,Centre multi accueil,Léonel Payet,Etablissement Municipal,63,Actuel,6 Rue Jacob de Cordemoy - 97490 Sainte-Clotilde,C.C.A.S. de Saint Denis,2 mois et demi à 6 ans,Du lundi au vendredi de 7h30 à 16h00,Centre Communal d'action Sociale (CCAS) Distribuée par la Direction Patrimoine Foncier /  Plan & SIG - Mairie de Saint-Denis,08/12/2020
339015.3362,7689894.7041,61,Centre multi accueil,Paul Demange,Etablissement Municipal,58,En travaux,13bis Rue Monseigneur de Beaumont -  97400 Saint-Denis,C.C.A.S. de Saint Denis,- de 3 ans,Du lundi au vendredi de 7h30 à 16h00,Centre Communal d'action Sociale (CCAS) Distribuée par la Direction Patrimoine Foncier /  Plan & SIG - Mairie de Saint-Denis,08/12/2020
341175.1969,7685249.5302,62,Centre multi accueil,Canebie 2,Etablissement Associatif,20,Actuel,61 chemin des Eucalyptus - 97490 Sainte-Clotilde,Ass. Canebie,2 mois et demi à 6 ans,Du lundi au vendredi de 7h00 à 18h00,Centre Communal d'action Sociale (CCAS) Distribuée par la Direction Patrimoine Foncier /  Plan & SIG - Mairie de Saint-Denis,08/12/2020
342825.5189,7688824.6612,63,Crèche collective,Léonel Payet,Etablissement Municipal,70,Actuel,6 Rue Jacob de Cordemoy - 97490 Sainte-Clotilde,C.C.A.S. de Saint Denis,2 mois et demi à 2 ans,Du lundi au vendredi de 7h30 à 16h00,Centre Communal d'action Sociale (CCAS) Distribuée par la Direction Patrimoine Foncier /  Plan & SIG - Mairie de Saint-Denis,08/12/2020
342261.3916,7688579.4158,64,Micro crèche,Les Goyaves,Etablissement associatif,10,Actuel,24 rue des Goyaves - 97490 Sainte-Clotilde,Asso Ogestras,2 mois à 4 ans,Du lundi au vendredi de 7h15 à 17h30,Centre Communal d'action Sociale (CCAS) Distribuée par la Direction Patrimoine Foncier /  Plan & SIG - Mairie de Saint-Denis,08/12/2020
343469.3711,7685058.2715,65,Micro crèche,Lé Kalou,Etablissement Privé,10,Actuel,96 Rue Monseigneur Langavant - 97490 Sainte-Clotilde,Scic Ecsper,15 mois à 4 ans,Du lundi au vendredi de 7h00 à 18h00,Centre Communal d'action Sociale (CCAS) Distribuée par la Direction Patrimoine Foncier /  Plan & SIG - Mairie de Saint-Denis,08/12/2020
344269.8929,7687393.5542,66,Crèche collective,Séquoia,Etablissement Privé,60,Actuel,Rue Boyer de la Giroday - 97400 Saint-Denis,Crèche And Go,2 mois à 6 ans,Du lundi au vendredi de 7h30 à 18h00,Centre Communal d'action Sociale (CCAS) Distribuée par la Direction Patrimoine Foncier /  Plan & SIG - Mairie de Saint-Denis,08/12/2020
343446.7081,7685068.8406,67,Micro crèche,Ladybirds,Etablissement Privé,10,Actuel,98 Rue Monseigneur Langavant - 97490 Sainte-Clotilde,Scic Ecsper,15 mois à 4 ans,Du lundi au vendredi de 7h00 à 18h00,Centre Communal d'action Sociale (CCAS) Distribuée par la Direction Patrimoine Foncier /  Plan & SIG - Mairie de Saint-Denis,08/12/2020
343459.6335,7685060.8491,68,Micro crèche,Ti baba écolo,Etablissement Privé,10,Actuel,96 Rue Monseigneur Langavant - 97490 Sainte-Clotilde,Scic Ecsper,3 mois à 14 mois,Du lundi au vendredi de 7h00 à 18h00,Centre Communal d'action Sociale (CCAS) Distribuée par la Direction Patrimoine Foncier /  Plan & SIG - Mairie de Saint-Denis,08/12/2020
342116.3492,7688352.5917,69,Micro crèche,Tamarins 1,Etablissement Associatif,10,Actuel,80 Rue de la Croix - 97490 Sainte-Clotilde,Ass. Les Babies,3 mois à 3 ans,Du lundi au vendredi de 7h00 à 18h00,Centre Communal d'action Sociale (CCAS) Distribuée par la Direction Patrimoine Foncier /  Plan & SIG - Mairie de Saint-Denis,08/12/2020
342116.9313,7688344.4426,70,Micro crèche,Tamarins 2,Etablissement Associatif,10,Actuel,78 Rue de la Croix - 97490 Sainte-Clotilde,Ass. Les Babies,3 mois à 3 ans,Du lundi au vendredi de 7h00 à 18h00,Centre Communal d'action Sociale (CCAS) Distribuée par la Direction Patrimoine Foncier /  Plan & SIG - Mairie de Saint-Denis,08/12/2020
338316.16,7689574.32,71,Micro crèche,Leroy 2,Etablissement Privé,10,Actuel,7 Impasse Adolphe Leroy - 97400 Saint-Denis,Crèche And Go,3 mois à 4 ans,Du lundi au vendredi de 7h30 à 18h00,Centre Communal d'action Sociale (CCAS) Distribuée par la Direction Patrimoine Foncier /  Plan & SIG - Mairie de Saint-Denis,08/12/2020
337836.32,7690482.66,72,Halte garderie,Halte garderie Lambert,Etablissement Privé,14,Actuel,Avenue du chef de Bataillon Lambert Villa 1801 - 97400 Saint-Denis,IGESA,3 mois à 6 ans,Du lundi au vendredi de 8h00 à 15h30,Centre Communal d'action Sociale (CCAS) Distribuée par la Direction Patrimoine Foncier /  Plan & SIG - Mairie de Saint-Denis,08/12/2020
338992.877,7688883.3251,73,Centre multi accueil,Les Onyx,Etablissement Privé,40,Actuel,7 Allée des Onyx - 97400 Saint-Denis,DSAP,1 à 4 ans,Du lundi au vendredi de 7h15 à 18h00,Centre Communal d'action Sociale (CCAS) Distribuée par la Direction Patrimoine Foncier /  Plan & SIG - Mairie de Saint-Denis,08/12/2020
342210.71,7688697.74,74,Jardin d'enfants,Le Jardin de Poucelina,Etablissement Associatif,25,Actuel,9 Rue Méziaire Guignard - 97490 Sainte-Clotilde,Ass de Poucélina,2 mois à 6 ans,Du lundi au vendredi de 7h00 à 18h15,Centre Communal d'action Sociale (CCAS) Distribuée par la Direction Patrimoine Foncier /  Plan & SIG - Mairie de Saint-Denis,08/12/2020
336261.9554,7689125.2962,75,Crèche collective,Les Poinsettias,Etablissement Associatif,43,Actuel,Route des Palmiers 16 Chemin de l'IME - 97417 La Montagne,association babyland,10 semaines à 4 ans,Du lundi au vendredi de 7h00 à 17h30,Centre Communal d'action Sociale (CCAS) Distribuée par la Direction Patrimoine Foncier /  Plan & SIG - Mairie de Saint-Denis,08/12/2020
