Site,Code,Libellé DP,adresse,Numéro interne,Politique publique,Catégorie de sites,Date création,Statut,latitude,longitude
ARTIGUES-PRES-BORDEAUX MPS,S0218,ARTIGUES-PRES-BORDEAUX MPS S0218,24 Avenue Virecourt 33370 Artigues-près-Bordeaux,9150,06 Performance de collectivité,8-ADMINISTRATIONS DIVERSES,13/07/1999,propriétaire,44.854845,-0.499042
IZON PORT FRAYCHE,S0614,IZON PORT FRAYCHE S0614,Chemin Vert 33450 Izon,97341,05 Mobilité,9-INFRASTRUCTURES ET TRANSPORTS,09/11/2000,propriétaire,44.92524,-0.36321
BRAUD-ET-ST-LOUIS FOYER,S1571,BRAUD-ET-ST-LOUIS FOYER S1571,42 Avenue de la République 33820 Braud-et-Saint-Louis,773192,08 Solidarité autonomie et santé,6-SOLIDARITE LOGEMENT SOCIAL,21/11/2003,propriétaire,45.249953,-0.625126
LACANAU ENS RIVES-DE-L'ETANG,S0635,LACANAU ENS RIVES-DE-L'ETANG S0635,Batejin 33680 Lacanau,97411,07 Protection valorisation environnement,5-ENVIRONNEMENT,09/02/2001,propriétaire,44.935141,-1.127044
CAVIGNAC PERM,S0611,CAVIGNAC PERM S0611,61 Avenue de Paris 33620 Cavignac,97347,08 Solidarité autonomie et santé,6-SOLIDARITE LOGEMENT SOCIAL,17/11/2000,locataire,45.100151,-0.389614
BIGANOS AS,S0621,BIGANOS AS S0621,1 Rue Jean Zay 33380 Biganos,97356,08 Solidarité autonomie et santé,6-SOLIDARITE LOGEMENT SOCIAL,11/12/2000,locataire,44.642335,-0.976279
BORDEAUX MDSI CANIHAC,S1585,BORDEAUX MDSI CANIHAC S1585,18 Rue Canihac 33000 Bordeaux,773778,08 Solidarité autonomie et santé,6-SOLIDARITE LOGEMENT SOCIAL,20/02/2004,propriétaire,44.834071,-0.574378
LACANAU FORET BORDES,S0831,LACANAU FORET BORDES S0831,Les As 33680 Lacanau,97626,07 Protection valorisation environnement,5-ENVIRONNEMENT,18/07/2001,propriétaire,45.000428,-1.183289
MOULON ENS PALUS-DE-DORDOGNE,S0793,MOULON ENS PALUS-DE-DORDOGNE S0793,Ninon 33420 Moulon,97526,07 Protection valorisation environnement,5-ENVIRONNEMENT,19/04/2001,propriétaire,44.848904,-0.220865
AUDENGE PORT CENTRE,S0779,AUDENGE PORT CENTRE S0779,Rue Arago 33980 Audenge,97547,05 Mobilité,9-INFRASTRUCTURES ET TRANSPORTS,20/04/2001,propriétaire,44.6815,-1.006267
BAZAS DFCI,S0630,BAZAS DFCI S0630,Route de Sauviac 33430 Bazas,97495,07 Protection valorisation environnement,5-ENVIRONNEMENT,23/03/2001,propriétaire,44.422549,-0.206717
PESSAC CLG NOÈS,S0107,PESSAC CLG NOÈS S0107,8 Avenue de Noës 33600 Pessac,87170,03 Collège et éducation,2-EDUCATION,16/06/2000,propriétaire,44.812596,-0.636227
CENON MDSI LA-MARÈGUE,S0215,CENON MDSI LA-MARÈGUE S0215,2 Rue Pauline Kergomard 33150 Cenon,87212,08 Solidarité autonomie et santé,6-SOLIDARITE LOGEMENT SOCIAL,16/06/2000,propriétaire,44.849597,-0.507173
BAZAS CLG AUSONE,S0286,BAZAS CLG AUSONE S0286,5 Avenue Franck Cazenave 33430 Bazas,87241,03 Collège et éducation,2-EDUCATION,16/06/2000,propriétaire,44.426896,-0.219328
PAUILLAC AS,S0481,PAUILLAC AS S0481,CITE CANTERANNE 33250 Pauillac,87521,08 Solidarité autonomie et santé,6-SOLIDARITE LOGEMENT SOCIAL,16/06/2000,locataire,45.202235,-0.75502
AMBES ENS PALUS-DU-BEC-D'AMBES,S0224,AMBES ENS PALUS-DU-BEC-D'AMBES S0224,Cante Loup 33810 Ambès,88031,07 Protection valorisation environnement,5-ENVIRONNEMENT,16/06/2000,propriétaire,44.998537,-0.519861
MERIGNAC CDDP,S0076,MERIGNAC CDDP S0076,Avenue du Président René Coty 33700 Mérignac,88079,03 Collège et éducation,2-EDUCATION,16/06/2000,propriétaire,44.839234,-0.652088
COUTRAS CRD-CE,S0186,COUTRAS CRD-CE S0186,"68 Zone Industrielle Eygreteau, ZI EYGRETEAU 33230 Coutras",88118,05 Mobilité,9-INFRASTRUCTURES ET TRANSPORTS,16/06/2000,propriétaire,45.036982,-0.099067
AUROS GIE,S0284,AUROS GIE S0284,Route de Grignols 33124 Auros,88141,06 Performance de collectivité,8-ADMINISTRATIONS DIVERSES,16/06/2000,propriétaire,44.492015,-0.140659
EYRANS CRD-AIRE,S1631,EYRANS CRD-AIRE S1631,,802757,05 Mobilité,9-INFRASTRUCTURES ET TRANSPORTS,30/09/2005,propriétaire,,
BLAYE EXUTOIRE,S1591,BLAYE EXUTOIRE S1591,,774144,05 Mobilité,9-INFRASTRUCTURES ET TRANSPORTS,30/03/2004,locataire,,
ABZAC CRD-AIRE,S1693,ABZAC CRD-AIRE S1693,,989053,05 Mobilité,9-INFRASTRUCTURES ET TRANSPORTS,09/09/2008,locataire,,
MARTILLAC FORET MIGELANE,S1658,MARTILLAC FORET MIGELANE S1658,,963560,07 Protection valorisation environnement,5-ENVIRONNEMENT,09/05/2007,propriétaire,,
CESSAC CRD-AIRE,S1684,CESSAC CRD-AIRE S1684,Route de Hauteroque 33760 Cessac,978257,05 Mobilité,9-INFRASTRUCTURES ET TRANSPORTS,02/10/2007,locataire,44.732772,-0.173171
MONTUSSAN CRD-AIRE,S1679,MONTUSSAN CRD-AIRE S1679,,978259,05 Mobilité,9-INFRASTRUCTURES ET TRANSPORTS,02/10/2007,locataire,,
LATRESNE ENS BOIS-DU-GRAND-PARC,S1681,LATRESNE ENS BOIS-DU-GRAND-PARC S1681,Route de Latresne 33360 Carignan-de-Bordeaux,978265,07 Protection valorisation environnement,5-ENVIRONNEMENT,05/10/2007,propriétaire,44.80616,-0.479755
EYNESSE CRD-AIRE,S1667,EYNESSE CRD-AIRE S1667,,977756,05 Mobilité,9-INFRASTRUCTURES ET TRANSPORTS,14/09/2007,locataire,,
ST-ANDRE-ET-APPELLES CRD-AIRE,S1669,ST-ANDRE-ET-APPELLES CRD-AIRE S1669,,977758,05 Mobilité,9-INFRASTRUCTURES ET TRANSPORTS,18/09/2007,locataire,,
STE-RADEGONDE CRD-AIRE,S1672,STE-RADEGONDE CRD-AIRE S1672,,977779,05 Mobilité,9-INFRASTRUCTURES ET TRANSPORTS,18/09/2007,locataire,,
NAUJAC CRD-AIRE,S1674,NAUJAC CRD-AIRE S1674,Route de la Gare 33990 Naujac-sur-Mer,977797,05 Mobilité,9-INFRASTRUCTURES ET TRANSPORTS,19/09/2007,propriétaire,45.262286,-1.045265
LAVAZAN CRD-AIRE,S1675,LAVAZAN CRD-AIRE S1675,Rolin 33690 Lavazan,977817,05 Mobilité,9-INFRASTRUCTURES ET TRANSPORTS,20/09/2007,locataire,44.383476,-0.115549
BRUGES CLG,S1710,BRUGES CLG S1710,57 Rue Jean Claudeville 33520 Bruges,998932,03 Collège et éducation,2-EDUCATION,04/02/2009,propriétaire,44.873297,-0.587669
VILLENAVE-D'ORNON LABO-VEGETAL,S1738,VILLENAVE-D'ORNON LABO-VEGETAL S1738,71 Avenue Édouard Bourlaux 33140 Villenave-d'Ornon,1008101,06 Performance de collectivité,8-ADMINISTRATIONS DIVERSES,04/06/2009,locataire,44.785477,-0.576522
CAUDROT PERM,S1787,CAUDROT PERM S1787,15 Place des Tilleuls 33490 Caudrot,1342773,08 Solidarité autonomie et santé,6-SOLIDARITE LOGEMENT SOCIAL,09/10/2013,locataire,44.576757,-0.143041
GRIGNOLS GIE,,GRIGNOLS GIE ,,1373354,,,16/06/2000,,,
ESPIET CRD-AIRE,,ESPIET CRD-AIRE ,,1381766,,,21/05/2002,,,
MERIGNAC CRD-SIEGE,,MERIGNAC CRD-SIEGE ,,1379223,,,16/06/2000,,,
CADILLAC CRD-CE,,CADILLAC CRD-CE ,,1379226,,,16/06/2000,,,
CIVRAC-DE-BLAYE CONDUITE-EAU-BLAYAIS,S0803,CIVRAC-DE-BLAYE CONDUITE-EAU-BLAYAIS S0803,Nodeau 33920 Civrac-de-Blaye,97565,05 Mobilité,,22/05/2001,locataire,45.101136,-0.470459
SAUGON CONDUITE-EAU-BLAYAIS,S0809,SAUGON CONDUITE-EAU-BLAYAIS S0809,La Croix 33920 Saugon,97571,05 Mobilité,,22/05/2001,locataire,45.176468,-0.509978
LES-BILLAUX ENS PALUS-DE-L'ISLE,S0673,LES-BILLAUX ENS PALUS-DE-L'ISLE S0673,Les Billaux,97487,07 Protection valorisation environnement,,12/02/2001,propriétaire,44.951792,-0.237995
BLAYE DFCI,S0743,BLAYE DFCI S0743,23 Rue Joseph Taillasson 33390 Blaye,97498,07 Protection valorisation environnement,,23/03/2001,propriétaire,45.133964,-0.664263
GRIGNOLS EX-CRD-CE,S0744,GRIGNOLS EX-CRD-CE S0744,La Tuilerie 33690 Grignols,97504,05 Mobilité,,10/04/2001,propriétaire,44.389178,-0.061742
LACANAU DFCI,S0753,LACANAU DFCI S0753,24 Avenue du Lac 33680 Lacanau,97513,07 Protection valorisation environnement,,10/04/2001,propriétaire,44.978209,-1.08277
ST-LAURENT-DU-MEDOC DFCI,S0755,ST-LAURENT-DU-MEDOC DFCI S0755,1 Rue Claude Chein 33112 Saint-Laurent-Médoc,97515,07 Protection valorisation environnement,,10/04/2001,propriétaire,45.150679,-0.827553
BORDEAUX CLG EDOUARD-VAILLANT,S0001,BORDEAUX CLG EDOUARD-VAILLANT S0001,,87132,03 Collège et éducation,,16/06/2000,propriétaire,,
SOULAC-SUR-MER CLG GEORGES-MANDEL,S0035,SOULAC-SUR-MER CLG GEORGES-MANDEL S0035,27 Rue Georges Mandel 33780 Soulac-sur-Mer,87141,03 Collège et éducation,,16/06/2000,propriétaire,45.505694,-1.122645
BORDEAUX CLG CASSIGNOL,S0050,BORDEAUX CLG CASSIGNOL S0050,62 Rue Laroche 33000 Bordeaux,87148,06 Performance de collectivité,,16/06/2000,propriétaire,44.852214,-0.585127
MERIGNAC CLG CAPEYRON,S0069,MERIGNAC CLG CAPEYRON S0069,50 Avenue de Bedat 33700 Mérignac,87152,03 Collège et éducation,,16/06/2000,propriétaire,44.84956,-0.647461
LEGE-CAP-FERRET CLG G.POMPIDOU,S0114,LEGE-CAP-FERRET CLG G.POMPIDOU S0114,52 BIS Avenue de la Mairie 33950 Lège-Cap-Ferret,87176,03 Collège et éducation,,16/06/2000,propriétaire,44.792627,-1.146411
GRADIGNAN MDSI,S0138,GRADIGNAN MDSI S0138,6 Avenue Jean Larrieu 33170 Gradignan,87183,08 Solidarité autonomie et santé,,16/06/2000,propriétaire,44.773537,-0.615768
BOURG-SUR-GIRONDE CLG JACQUES-PRÉVERT,S0161,BOURG-SUR-GIRONDE CLG JACQUES-PRÉVERT S0161,La Clote Nord 33710 Bourg,87191,03 Collège et éducation,,16/06/2000,propriétaire,45.042318,-0.554438
ST-CIERS-SUR-GIRONDE CLG JEAN-MONNET,S0173,ST-CIERS-SUR-GIRONDE CLG JEAN-MONNET S0173,10 Rue des Droits de l'Homme 33820 Saint-Ciers-sur-Gironde,87196,03 Collège et éducation,,16/06/2000,propriétaire,45.293816,-0.612541
CASTILLON-LA-BATAILLE CLG ALIÉNOR-D'AQUITAINE,S0183,CASTILLON-LA-BATAILLE CLG ALIÉNOR-D'AQUITAINE S0183,3 Rue Jean Monnet 33350 Castillon-la-Bataille,87199,03 Collège et éducation,,16/06/2000,propriétaire,44.850693,-0.051429
CENON CLG JEAN-ZAY,S0217,CENON CLG JEAN-ZAY S0217,,87214,03 Collège et éducation,,16/06/2000,propriétaire,,
BORDEAUX EX-MDSI BASTIDE,S0232,BORDEAUX EX-MDSI BASTIDE S0232,23 Rue Leyronneire 33100 Bordeaux,87222,06 Performance de collectivité,,16/06/2000,propriétaire,44.844051,-0.549349
LATRESNE CLG CAMILLE-CLAUDEL,S0238,LATRESNE CLG CAMILLE-CLAUDEL S0238,6 Chemin du Stade 33360 Latresne,87225,03 Collège et éducation,,16/06/2000,propriétaire,44.786346,-0.492574
CADILLAC MDSI,S0252,CADILLAC MDSI S0252,21 Route de Sauveterre 33410 Cadillac,87230,08 Solidarité autonomie et santé,,16/06/2000,proprietaire et bailleur,44.636493,-0.315872
STE-FOY-LA-GRANDE CLG ELIE-FAURE,S0278,STE-FOY-LA-GRANDE CLG ELIE-FAURE S0278,La Grace 33220 Port-Sainte-Foy-et-Ponchapt,87239,03 Collège et éducation,,16/06/2000,propriétaire,44.836761,0.180146
LANGON CLG JULES-FERRY,S0305,LANGON CLG JULES-FERRY S0305,22 Rue Jules Ferry 33210 Langon,87245,03 Collège et éducation,,16/06/2000,propriétaire,44.549058,-0.252896
LE-PIAN-SUR-GARONNE CLG,S0346,LE-PIAN-SUR-GARONNE CLG S0346,Lalieyre Nord 33490 Le Pian-sur-Garonne,87255,03 Collège et éducation,,16/06/2000,propriétaire,44.570257,-0.228972
BORDEAUX MDSI ST-AUGUSTIN,S0474,BORDEAUX MDSI ST-AUGUSTIN S0474,72 BIS Rue Guillaume Leblanc 33000 Bordeaux,87265,08 Solidarité autonomie et santé,,16/06/2000,locataire,44.832842,-0.59136
COUTRAS MDSI,S0476,COUTRAS MDSI S0476,1 Rue Denis Cordonnier 33230 Coutras,87267,08 Solidarité autonomie et santé,,16/06/2000,locataire,45.04077,-0.123177
LORMONT MDSI,S0552,LORMONT MDSI S0552,,87316,08 Solidarité autonomie et santé,,16/06/2000,locataire,,
CASTILLON-LA-BATAILLE AS,S0182,CASTILLON-LA-BATAILLE AS S0182,27 Rue Antoune 33350 Castillon-la-Bataille,87516,08 Solidarité autonomie et santé,,16/06/2000,propriétaire,44.854375,-0.047685
BORDEAUX BASTIDE-EN-VILLE,S0490,BORDEAUX BASTIDE-EN-VILLE S0490,1 Rue Étobon Chenebier 33100 Bordeaux,87530,08 Solidarité autonomie et santé,,16/06/2000,proprietaire et bailleur,44.841729,-0.552651
MARCHEPRIME AS,S0504,MARCHEPRIME AS S0504,14 Rue Jacques Blieck 33380 Marcheprime,87544,08 Solidarité autonomie et santé,,16/06/2000,locataire,44.693019,-0.851372
MONSEGUR AS,S0505,MONSEGUR AS S0505,Place des Tilleuls 33580 Monségur,87545,08 Solidarité autonomie et santé,,16/06/2000,locataire,44.648822,0.077312
STE-EULALIE AS,S0516,STE-EULALIE AS S0516,7 Rue Laroque 33560 Sainte-Eulalie,87555,08 Solidarité autonomie et santé,,16/06/2000,locataire,44.903084,-0.483164
BAZAS MDSI REPUBLIQUE,S0287,BAZAS MDSI REPUBLIQUE S0287,14 Avenue de la République 33430 Bazas,87975,08 Solidarité autonomie et santé,,16/06/2000,propriétaire,44.433779,-0.22585
ETAULIERS GIE,S0174,ETAULIERS GIE S0174,9 Route de Saint-Savin 33820 Étauliers,87980,06 Performance de collectivité,,16/06/2000,propriétaire,45.220903,-0.571954
GRIGNOLS GIE,S0296,GRIGNOLS GIE S0296,33 Route de Casteljaloux 33690 Grignols,87982,06 Performance de collectivité,,16/06/2000,propriétaire,44.385754,-0.041638
LATRESNE GIE,S0246,LATRESNE GIE S0246,9 Chemin du Stade 33360 Latresne,87989,06 Performance de collectivité,,16/06/2000,proprietaire et bailleur,44.787046,-0.491569
LEGE-CAP-FERRET GIE,S0123,LEGE-CAP-FERRET GIE S0123,28 Route de Bordeaux 33950 Lège-Cap-Ferret,87990,06 Performance de collectivité,,16/06/2000,propriétaire,44.723622,-1.203353
LIBOURNE GIE,S0203,LIBOURNE GIE S0203,46 Avenue de Verdun 33500 Libourne,87993,06 Performance de collectivité,,16/06/2000,propriétaire,44.909098,-0.236097
MERIGNAC POLE-SOLIDARITE,S0072,MERIGNAC POLE-SOLIDARITE S0072,419 Avenue de Verdun 33700 Mérignac,87996,08 Solidarité autonomie et santé,,16/06/2000,propriétaire,44.840733,-0.641543
PODENSAC GIE,S0315,PODENSAC GIE S0315,23 Cours du Mal Foch 33720 Podensac,88001,06 Performance de collectivité,,16/06/2000,propriétaire,44.651832,-0.357159
ST-MACAIRE GIE,S0276,ST-MACAIRE GIE S0276,3 Place Tourny 33490 Saint-Macaire,88007,06 Performance de collectivité,,16/06/2000,propriétaire,44.563723,-0.228777
BORDEAUX CDEF SAFE,S0058,BORDEAUX CDEF SAFE S0058,49 Place des Martyrs de la Résistance 33200 Bordeaux,88020,08 Solidarité autonomie et santé,,16/06/2000,propriétaire,44.842257,-0.585736
BORDEAUX SOLIDARITE,S0060,BORDEAUX SOLIDARITE S0060,,88041,06 Performance de collectivité,,16/06/2000,propriétaire,,
BORDEAUX MDSPORTS DAVID-JOHNSTON,S0360,BORDEAUX MDSPORTS DAVID-JOHNSTON S0360,153 Rue David Johnston 33000 Bordeaux,88045,02 Cohésion vie sociale et épanouissement,,16/06/2000,propriétaire,44.852524,-0.589672
BORDEAUX UDAF,S0464,BORDEAUX UDAF S0464,25 Rue Francis Martin 33000 Bordeaux,88053,08 Solidarité autonomie et santé,,16/06/2000,propriétaire,44.849677,-0.58229
MERIGNAC CENTRE-D'ANIMATION BEAUDESERT,S0089,MERIGNAC CENTRE-D'ANIMATION BEAUDESERT S0089,102 Allée de l'Envol 33700 Mérignac,88080,08 Solidarité autonomie et santé,,16/06/2000,locataire,44.845624,-0.683481
ST-VIVIEN-DE-MEDOC DESSERTE,S0469,ST-VIVIEN-DE-MEDOC DESSERTE S0469,Saint-Vivien-de-Médoc,88095,05 Mobilité,,16/06/2000,propriétaire,45.429637,-1.036538
LOUCHATS ENS JAUMOT,S0535,LOUCHATS ENS JAUMOT S0535,"Avenue des Acacias, JORDIS 33125 Louchats",88105,07 Protection valorisation environnement,,16/06/2000,propriétaire,44.517572,-0.590291
CADILLAC CRD-CE,S0254,CADILLAC CRD-CE S0254,Avenue Joseph Caussil 33410 Cadillac,88113,05 Mobilité,,16/06/2000,propriétaire,44.635307,-0.312018
CARBON-BLANC ETAT,S0211,CARBON-BLANC ETAT S0211,,88115,06 Performance de collectivité,,16/06/2000,propriétaire,,
LA-REOLE CRD-CE,S0259,LA-REOLE CRD-CE S0259,Chemin de Peyreffite 33190 La Réole,88128,05 Mobilité,,16/06/2000,locataire,44.587721,-0.039788
LA-BREDE CRD-CE,S0299,LA-BREDE CRD-CE S0299,"9000 Allée de la Gare, A L'ESPERANCE 33650 La Brède",88135,05 Mobilité,,16/06/2000,propriétaire,44.680714,-0.521993
AMBARES-ET-LAGRAVE GIE,S0212,AMBARES-ET-LAGRAVE GIE S0212,42 Avenue Jules Ferry 33440 Ambarès-et-Lagrave,88138,06 Performance de collectivité,,16/06/2000,propriétaire,44.93212,-0.502695
ANDERNOS-LES-BAINS GIE,S0120,ANDERNOS-LES-BAINS GIE S0120,9 Avenue d'Ares 33510 Andernos-les-Bains,88139,06 Performance de collectivité,,16/06/2000,propriétaire,44.750202,-1.108305
CESTAS GIE,S0351,CESTAS GIE S0351,3 Avenue du 19 Mars 1962 33610 Cestas,88159,06 Performance de collectivité,,16/06/2000,propriétaire,44.742328,-0.683623
HOURTIN ENS PALU-DE-MOLUA,S0582,HOURTIN ENS PALU-DE-MOLUA S0582,Rue de Parancan 33990 Hourtin,88309,07 Protection valorisation environnement,,19/09/2000,propriétaire,45.182953,-1.058356
BLAYE CDL ILE-NOUVELLE,S0587,BLAYE CDL ILE-NOUVELLE S0587,Rue Brun 33390 Blaye,88313,07 Protection valorisation environnement,,19/09/2000,proprietaire et bailleur,45.127405,-0.660784
BELIN-BELIET CRD-AIRE,S0607,BELIN-BELIET CRD-AIRE S0607,Perron 33830 Belin-Béliet,88469,05 Mobilité,,27/10/2000,propriétaire,44.486961,-0.771002
BORDEAUX ETAT RUE-LIVRAN,S0594,BORDEAUX ETAT RUE-LIVRAN S0594,7 Rue du Livran 33000 Bordeaux,88474,06 Performance de collectivité,,27/10/2000,propriétaire,44.830427,-0.590894
SILLAS CRD-AIRE,S1806,SILLAS CRD-AIRE S1806,Le Jougla-Nord 33690 Marions,1367387,05 Mobilité,,13/01/2015,propriétaire,44.378403,-0.071363
CAZAUGITAT CRD-AIRE,S1779,CAZAUGITAT CRD-AIRE S1779,Merlet 33790 Cazaugitat,1330501,05 Mobilité,,24/05/2013,propriétaire,44.696474,0.016534
BORDEAUX AS RUE-DES-3-CONILS,S1614,BORDEAUX AS RUE-DES-3-CONILS S1614,6 Rue des 3 Conils 33000 Bordeaux,784960,08 Solidarité autonomie et santé,,19/01/2005,locataire,44.83882,-0.574737
ST-CHRISTOLY-DE-BLAYE CONDUITE-EAU,S1612,ST-CHRISTOLY-DE-BLAYE CONDUITE-EAU S1612,Hervé 33920 Saint-Christoly-de-Blaye,784655,05 Mobilité,,07/12/2004,propriétaire,45.12134,-0.496692
LIGNAN GARE,S1496,LIGNAN GARE S1496,1 Chemin du Bon Coin 33360 Lignan-de-Bordeaux,254015,06 Performance de collectivité,,29/01/2002,propriétaire,44.797154,-0.427393
LE-PORGE GARE,S1507,LE-PORGE GARE S1507,LE PORGE OCEAN 33680 Le Porge,254026,06 Performance de collectivité,,29/01/2002,propriétaire,44.892963,-1.212631
HOSTENS MAISON-GAILLARDAN,S1807,HOSTENS MAISON-GAILLARDAN S1807,Gaillardan 33125 Hostens,1367708,06 Performance de collectivité,,14/04/2015,propriétaire,44.492962,-0.645551
ESPIET CRD-AIRE,S1513,ESPIET CRD-AIRE S1513,La Grangeotte 33420 Espiet,401709,05 Mobilité,,21/05/2002,propriétaire,44.798372,-0.253094
LIBOURNE CLG ATELIER-RELAIS,S1643,LIBOURNE CLG ATELIER-RELAIS S1643,10 Avenue de l'Épinette 33500 Libourne,886417,03 Collège et éducation,,20/06/2006,locataire,44.911488,-0.235191
LEGE-CAP-FERRET CRD-CE PONT-DE-BREDOUILLE,S1630,LEGE-CAP-FERRET CRD-CE PONT-DE-BREDOUILLE S1630,85 Avenue de la Presqu'Île 33950 Lège-Cap-Ferret,802735,05 Mobilité,,29/09/2005,propriétaire,44.789227,-1.161683
BOURG-SUR-GIRONDE CRD-AIRE,S1635,BOURG-SUR-GIRONDE CRD-AIRE S1635,Rebeymont 33710 Bourg,802775,05 Mobilité,,03/10/2005,propriétaire,45.043623,-0.552367
ARVEYRES CRD-AIRE,S1636,ARVEYRES CRD-AIRE S1636,Impasse des Gabarres 33500 Arveyres,802779,05 Mobilité,,05/10/2005,propriétaire,44.912154,-0.252379
BORDEAUX AS ALSACE-LORRAINE,S1522,BORDEAUX AS ALSACE-LORRAINE S1522,76 Cours d'Alsace et Lorraine 33000 Bordeaux,633373,08 Solidarité autonomie et santé,,27/09/2002,locataire,44.837634,-0.572107
ST-MARTIN-DU-PUY PYLONE,S1788,ST-MARTIN-DU-PUY PYLONE S1788,Castelmoron 33540 Saint-Martin-du-Puy,1342872,05 Mobilité,,18/10/2013,propriétaire,44.680533,-0.013297
MAZERES MECS GARDERA,S1532,MAZERES MECS GARDERA S1532,Lagrue 33210 Mazères,654766,08 Solidarité autonomie et santé,,15/11/2002,propriétaire,44.519933,-0.249241
LUGON-ET-L'ILE-DU-CARNEY CRD-AIRE,S1552,LUGON-ET-L'ILE-DU-CARNEY CRD-AIRE S1552,Mourey 33240 Lugon-et-l'Île-du-Carnay,706101,05 Mobilité,,13/03/2003,propriétaire,44.955007,-0.330706
LACANAU DIVERS MISTRE,S1600,LACANAU DIVERS MISTRE S1600,Les As 33680 Lacanau,774998,05 Mobilité,,18/05/2004,propriétaire,45.000428,-1.183289
ST-ANDRE-DE-CUBZAC GIE,S1604,ST-ANDRE-DE-CUBZAC GIE S1604,1455 Avenue Jules Ferry 33240 Saint-André-de-Cubzac,781575,06 Performance de collectivité,,17/06/2004,propriétaire,45.003491,-0.430862
ST-DENIS-DE-PILE BDP RELAIS-DE-PRÊT,S1654,ST-DENIS-DE-PILE BDP RELAIS-DE-PRÊT S1654,,893464,02 Cohésion vie sociale et épanouissement,,09/10/2006,locataire,,
SOULAC-SUR-MER PERM,S1815,SOULAC-SUR-MER PERM S1815,Rue de l'Escouarte 33380 Mios,1379461,08 Solidarité autonomie et santé,,15/03/2016,locataire,44.664474,-0.849179
ST-MEDARD-EN-JALLES CLG HASTIGNAN,S0084,ST-MEDARD-EN-JALLES CLG HASTIGNAN S0084,,7943,03 Collège et éducation,,25/06/1999,propriétaire,,
LANGON SOUS-PREFECTURE,S0615,LANGON SOUS-PREFECTURE S0615,19 Cours des Fosses 33210 Langon,97336,06 Performance de collectivité,,09/11/2000,propriétaire,44.555616,-0.248397
LIBOURNE TGI,S0617,LIBOURNE TGI S0617,20 Rue Thiers 33500 Libourne,97338,06 Performance de collectivité,,09/11/2000,propriétaire,44.913972,-0.244625
LIBOURNE SOUS-PREFECTURE,S0618,LIBOURNE SOUS-PREFECTURE S0618,44 Rue Thiers 33500 Libourne,97339,06 Performance de collectivité,,09/11/2000,propriétaire,44.913127,-0.243827
LIBOURNE MECS FRANCOIS-CONSTANT,S1562,LIBOURNE MECS FRANCOIS-CONSTANT S1562,Rue François Constant 33500 Libourne,772165,08 Solidarité autonomie et santé,,22/08/2003,proprietaire et bailleur,44.911427,-0.238718
ST-AUBIN-DE-MEDOC CLG LEONARD-DE-VINCI,S1563,ST-AUBIN-DE-MEDOC CLG LEONARD-DE-VINCI S1563,,772239,03 Collège et éducation,,19/09/2003,propriétaire,,
LA-TESTE-DE-BUCH ENS CANAL-DES-LANDES,S0716,LA-TESTE-DE-BUCH ENS CANAL-DES-LANDES S0716,La Teste-de-Buch,97440,07 Protection valorisation environnement,,12/02/2001,propriétaire,44.632214,-1.146050
ARES ENS DES-PRES-SALES,S0735,ARES ENS DES-PRES-SALES S0735,Rue Coste 33740 Arès,97419,07 Protection valorisation environnement,,09/02/2001,propriétaire,44.762522,-1.138294
BIGANOS CDL PORT-DES-TUILES,S0733,BIGANOS CDL PORT-DES-TUILES S0733,,97426,07 Protection valorisation environnement,,09/02/2001,locataire,,
GUJAN-MESTRAS ENS COULEE-VERTE-CANTERANNE,S0726,GUJAN-MESTRAS ENS COULEE-VERTE-CANTERANNE S0726,Golf de Gujan Mestras 33470 Gujan-Mestras,97432,07 Protection valorisation environnement,,12/02/2001,propriétaire,44.603579,-1.092333
LACANAU CDL ETANG-DE-COUSSEAU,S0689,LACANAU CDL ETANG-DE-COUSSEAU S0689,Les As 33680 Lacanau,97435,07 Protection valorisation environnement,,12/02/2001,locataire,45.000428,-1.183289
LE-VERDON-SUR-MER ENS TOUR-DU-MARAIS-DU-LOGIS,S0678,LE-VERDON-SUR-MER ENS TOUR-DU-MARAIS-DU-LOGIS S0678,Le Verdon-sur-Mer,97381,07 Protection valorisation environnement,,08/02/2001,propriétaire,45.545943,-1.061689
HOURTIN ENS ETANG-DE-HOURTIN-CARCANS,S0719,HOURTIN ENS ETANG-DE-HOURTIN-CARCANS S0719,Rue de Parancan 33990 Hourtin,97384,07 Protection valorisation environnement,,09/02/2001,propriétaire,45.182953,-1.058356
CADAUJAC CLG,S1582,CADAUJAC CLG S1582,250 Chemin du Château 33140 Cadaujac,773720,03 Collège et éducation,,18/02/2004,propriétaire,44.750127,-0.52818
BORDEAUX ARCHIVES QUAI-DE-BRAZZA,S1588,BORDEAUX ARCHIVES QUAI-DE-BRAZZA S1588,87 Quai des Chartrons 33000 Bordeaux,773926,02 Cohésion vie sociale et épanouissement,,16/03/2004,locataire,44.853986,-0.566378
LACANAU FORET BAGANNAIS-NORD,S0829,LACANAU FORET BAGANNAIS-NORD S0829,Les As 33680 Lacanau,97628,07 Protection valorisation environnement,,18/07/2001,propriétaire,45.000428,-1.183289
ST-LAURENT-DU-MEDOC ENS STATION-BOTANIQUE,S0768,ST-LAURENT-DU-MEDOC ENS STATION-BOTANIQUE S0768,Saint-Laurent-Médoc,97525,07 Protection valorisation environnement,,19/04/2001,propriétaire,45.149562,-0.822638
ORDONNAC ENS FERME-DE-MOURTAGNE,S0766,ORDONNAC ENS FERME-DE-MOURTAGNE S0766,Route d'Ordonnac 33340 Ordonnac,97528,07 Protection valorisation environnement,,19/04/2001,propriétaire,45.306374,-0.850121
LOUCHATS ENS LAGUNES-DU-GAT-MORT,S0765,LOUCHATS ENS LAGUNES-DU-GAT-MORT S0765,Janic 33125 Louchats,97529,07 Protection valorisation environnement,,19/04/2001,propriétaire,44.505425,-0.586522
LA-TESTE-DE-BUCH PORT ROCHER,S0785,LA-TESTE-DE-BUCH PORT ROCHER S0785,La Teste-de-Buch,97539,05 Mobilité,,20/04/2001,propriétaire,44.632214,-1.146050
GUJAN-MESTRAS PORT MEYRAN,S0789,GUJAN-MESTRAS PORT MEYRAN S0789,Allée de Verdalle 33470 Gujan-Mestras,97541,05 Mobilité,,20/04/2001,propriétaire,44.641405,-1.110022
GUJAN-MESTRAS PORT BARBOTIERE,S0778,GUJAN-MESTRAS PORT BARBOTIERE S0778,Golf de Gujan Mestras 33470 Gujan-Mestras,97545,05 Mobilité,,20/04/2001,propriétaire,44.603579,-1.092333
LANTON PORT CASSY,S0775,LANTON PORT CASSY S0775,BLAGON 33138 Lanton,97548,05 Mobilité,,20/04/2001,propriétaire,44.784522,-0.934588
ARES PORT CENTRE,S0780,ARES PORT CENTRE S0780,Rue Coste 33740 Arès,97551,05 Mobilité,,20/04/2001,propriétaire,44.762522,-1.138294
LIBOURNE PORT PRINCIPAL,S0773,LIBOURNE PORT PRINCIPAL S0773,,97557,05 Mobilité,,20/04/2001,propriétaire,,
GALGON CONDUITE-EAU-BLAYAIS,S0805,GALGON CONDUITE-EAU-BLAYAIS S0805,Roche 33133 Galgon,97567,05 Mobilité,,22/05/2001,locataire,44.976694,-0.254798
MARSAS CONDUITE-EAU-BLAYAIS,S0808,MARSAS CONDUITE-EAU-BLAYAIS S0808,Le Grand Champ Ouest 33620 Marsas,97570,05 Mobilité,,22/05/2001,locataire,45.069756,-0.392291
BIGANOS DFCI,S0742,BIGANOS DFCI S0742,149 BIS Avenue de la Libération 33380 Biganos,97497,07 Protection valorisation environnement,,23/03/2001,propriétaire,44.646586,-0.983793
LE-TEICH CDL FLEURY,S0629,LE-TEICH CDL FLEURY S0629,Rue les Prés Fleuris 33470 Le Teich,49014,07 Protection valorisation environnement,,30/07/1999,proprietaire et bailleur,44.631637,-1.022093
BORDEAUX CLG BLANQUI,S0002,BORDEAUX CLG BLANQUI S0002,75 Rue Charles Martin 33300 Bordeaux,87133,03 Collège et éducation,,16/06/2000,propriétaire,44.874037,-0.54996
BORDEAUX MDSI CENTRE,S0057,BORDEAUX MDSI CENTRE S0057,14 Rue Poitevin 33000 Bordeaux,87149,08 Solidarité autonomie et santé,,16/06/2000,propriétaire,44.845726,-0.583339
BORDEAUX CLG ALAIN-FOURNIER,S0090,BORDEAUX CLG ALAIN-FOURNIER S0090,,87160,03 Collège et éducation,,16/06/2000,propriétaire,,
AUDENGE CLG JEAN-VERDIER,S0112,AUDENGE CLG JEAN-VERDIER S0112,Rue des Cigales 33980 Audenge,87174,03 Collège et éducation,,16/06/2000,propriétaire,44.686273,-1.00553
BORDEAUX MDSI ST-JEAN,S0136,BORDEAUX MDSI ST-JEAN S0136,15 Rue Belle Étoile 33800 Bordeaux,87181,08 Solidarité autonomie et santé,,16/06/2000,propriétaire,44.828697,-0.559191
COUTRAS CLG HENRI-DE-NAVARRE,S0185,COUTRAS CLG HENRI-DE-NAVARRE S0185,9 Rue Jean Zay 33230 Coutras,87200,03 Collège et éducation,,16/06/2000,propriétaire,45.041559,-0.118575
GUITRES CLG JEAN-AVIOTTE,S0188,GUITRES CLG JEAN-AVIOTTE S0188,8 Grand-Rue 33230 Guîtres,87201,03 Collège et éducation,,16/06/2000,propriétaire,45.040903,-0.186015
CENON CLG JEAN-JAURÉS,S0216,CENON CLG JEAN-JAURÉS S0216,,87213,03 Collège et éducation,,16/06/2000,propriétaire,,
CREON CLG FRANÇOIS-MITTERRAND,S0237,CREON CLG FRANÇOIS-MITTERRAND S0237,24 Boulevard de Verdun 33670 Créon,87224,03 Collège et éducation,,16/06/2000,propriétaire,44.772995,-0.350559
PELLEGRUE CLG CHAMP-D'EYMET,S0267,PELLEGRUE CLG CHAMP-D'EYMET S0267,8 Rue des Écoles 33790 Pellegrue,87235,03 Collège et éducation,,16/06/2000,propriétaire,44.743415,0.07393
LEOGNAN CLG FRANÇOIS-MAURIAC,S0298,LEOGNAN CLG FRANÇOIS-MAURIAC S0298,Rue de la Ferme de Richemont 33850 Léognan,87243,03 Collège et éducation,,16/06/2000,propriétaire,44.728789,-0.592136
BORDEAUX MDSI LAC,S0473,BORDEAUX MDSI LAC S0473,47 Rue Charles Tournemire 33300 Bordeaux,87264,08 Solidarité autonomie et santé,,16/06/2000,locataire,44.873219,-0.571414
GENSAC GIE,S0270,GENSAC GIE S0270,13 Cours de la Viguerie 33890 Gensac,87981,06 Performance de collectivité,,16/06/2000,propriétaire,44.803758,0.071706
LACANAU GIE,S0017,LACANAU GIE S0017,27 Avenue de la Libération 33680 Lacanau,87987,06 Performance de collectivité,,16/06/2000,propriétaire,44.978077,-1.076416
BLAYE MECS ROLLAND,S0159,BLAYE MECS ROLLAND S0159,9 Rue Roland 33390 Blaye,88019,08 Solidarité autonomie et santé,,16/06/2000,propriétaire,45.131477,-0.661925
EYSINES CDEF FOYER-EYSINOFF,S0044,EYSINES CDEF FOYER-EYSINOFF S0044,21 Avenue de l'Hippodrome 33320 Eysines,88021,08 Solidarité autonomie et santé,,16/06/2000,propriétaire,44.871561,-0.635149
BORDEAUX TOUR-2000,S0529,BORDEAUX TOUR-2000 S0529,1 Terrasse Front du Médoc 33000 Bordeaux,88048,06 Performance de collectivité,,16/06/2000,proprietaire et bailleur,44.838128,-0.588362
BORDEAUX LOGT 55-CROIX-DE-SEGUEY,S0541,BORDEAUX LOGT 55-CROIX-DE-SEGUEY S0541,55 Rue de la Croix de Seguey 33000 Bordeaux,88097,06 Performance de collectivité,,16/06/2000,proprietaire et bailleur,44.850955,-0.588058
CREON CRD-SIEGE,S0240,CREON CRD-SIEGE S0240,2 Chemin Peyrouney 33670 Créon,88119,05 Mobilité,,16/06/2000,propriétaire,44.779879,-0.352254
PODENSAC CRD-CE,S0312,PODENSAC CRD-CE S0312,6 Rue Salans 33720 Podensac,88129,05 Mobilité,,16/06/2000,propriétaire,44.65314,-0.35591
ST-SAVIN-DE-BLAYE CRD-CE,S0177,ST-SAVIN-DE-BLAYE CRD-CE S0177,21 Rue Paul Petit 33920 Saint-Savin,88132,05 Mobilité,,16/06/2000,propriétaire,45.141546,-0.44441
AUDENGE CDL DOMAINE-DE-GRAVEYRON,S0581,AUDENGE CDL DOMAINE-DE-GRAVEYRON S0581,Rue Arago 33980 Audenge,88305,07 Protection valorisation environnement,,19/09/2000,proprietaire et bailleur,44.6815,-1.006267
HOURTIN ENS LAGUNE-DE-CONTAUT,S0576,HOURTIN ENS LAGUNE-DE-CONTAUT S0576,Rue de Parancan 33990 Hourtin,88310,07 Protection valorisation environnement,,19/09/2000,propriétaire,45.182953,-1.058356
BORDEAUX HOTEL-PREFECTORAL,S0603,BORDEAUX HOTEL-PREFECTORAL S0603,17 BIS Rue Vital Carles 33000 Bordeaux,88475,06 Performance de collectivité,,27/10/2000,propriétaire,44.84052,-0.578414
BORDEAUX CLG MAYAUDON,S1795,BORDEAUX CLG MAYAUDON S1795,6 Rue Édouard Larroque 33000 Bordeaux,1363691,03 Collège et éducation,,30/09/2014,propriétaire,44.831838,-0.600731
BORDEAUX LOGT 51-COURS-PASTEUR,S1772,BORDEAUX LOGT 51-COURS-PASTEUR S1772,51 Cours Pasteur 33000 Bordeaux,1261926,06 Performance de collectivité,,13/06/2012,proprietaire et bailleur,44.834037,-0.574639
ST-SYMPHORIEN ATELIERS-VFIL,S1501,ST-SYMPHORIEN ATELIERS-VFIL S1501,Résidence les Mûriers I 33113 Saint-Symphorien,254020,02 Cohésion vie sociale et épanouissement,,29/01/2002,propriétaire,44.42587,-0.486443
CENON FOYER,S1594,CENON FOYER S1594,,774311,08 Solidarité autonomie et santé,,20/04/2004,propriétaire,,
PERISSAC CONDUITE-EAU-BLAYAIS,S1602,PERISSAC CONDUITE-EAU-BLAYAIS S1602,Froin 33240 Périssac,781466,05 Mobilité,,04/06/2004,locataire,45.038345,-0.321986
MAZERES RELAIS-DE-PRÊT-BDP,S1606,MAZERES RELAIS-DE-PRÊT-BDP S1606,7 Le Bourg 33210 Mazères,782082,02 Cohésion vie sociale et épanouissement,,29/07/2004,locataire,44.495042,-0.258645
SABLONS CRD-AIRE,S1694,SABLONS CRD-AIRE S1694,Le Port de Guîtres 33910 Sablons,989054,05 Mobilité,,09/09/2008,propriétaire,45.037221,-0.185215
LORMONT AS GAROSSES,S1697,LORMONT AS GAROSSES S1697,1 Rue des Garosses 33310 Lormont,989147,08 Solidarité autonomie et santé,,23/09/2008,locataire,44.876869,-0.521547
SAUCATS ENS RESERVE-NATURELLE-GEOLOGIQUE,S1711,SAUCATS ENS RESERVE-NATURELLE-GEOLOGIQUE S1711,GIEU 33650 Saucats,985615,07 Protection valorisation environnement,,14/04/2008,propriétaire,44.655878,-0.587479
LANGON ADMIN-DDTM,S1708,LANGON ADMIN-DDTM S1708,15 BIS Cours des Fosses 33210 Langon,995234,06 Performance de collectivité,,20/01/2009,propriétaire,44.554943,-0.247336
ST-LOUIS-DE-MONTERRAND ENS PALUS,S1736,ST-LOUIS-DE-MONTERRAND ENS PALUS S1736,,1008117,07 Protection valorisation environnement,,04/06/2009,propriétaire,,
BORDEAUX PRE ARMAGNAC,S1773,BORDEAUX PRE ARMAGNAC S1773,60 Rue d'Armagnac 33800 Bordeaux,1262061,08 Solidarité autonomie et santé,,28/06/2012,propriétaire,44.820942,-0.550146
ST-MORILLON BDP RELAIS-DE-PRÊT,S1746,ST-MORILLON BDP RELAIS-DE-PRÊT S1746,,1174248,02 Cohésion vie sociale et épanouissement,,28/07/2010,locataire,,
ST-AVIT-ST-NAZAIRE CRD-CE,S1809,ST-AVIT-ST-NAZAIRE CRD-CE S1809,LA GUERENNE 33220 Saint-Avit-Saint-Nazaire,1367954,05 Mobilité,,19/05/2015,propriétaire,44.841813,0.252235
BEAUTIRAN ENS ARTIGUES-DE-FRAYCHE,S1792,BEAUTIRAN ENS ARTIGUES-DE-FRAYCHE S1792,Rue Crabey 33640 Beautiran,1354012,07 Protection valorisation environnement,,18/02/2014,propriétaire,44.705101,-0.452031
LANGOIRAN MECS GARDERA,,LANGOIRAN MECS GARDERA ,,1381663,,,15/11/2002,,,
LIGNAN GARE,,LIGNAN GARE ,,1373360,,,29/01/2002,,,
LA-SAUVE GARE,,LA-SAUVE GARE ,,1379236,,,29/01/2002,,,
BEGLES CLG PABLO-NÉRUDA,,BEGLES CLG PABLO-NÉRUDA ,,1378437,,,16/06/2000,,,
GUJAN-MESTRAS PORT MOLLE,S0788,GUJAN-MESTRAS PORT MOLLE S0788,,97546,05 Mobilité,,20/04/2001,propriétaire,,
ANDERNOS-LES-BAINS PORT CENTRE,S0782,ANDERNOS-LES-BAINS PORT CENTRE S0782,Andernos-les-Bains,97550,05 Mobilité,,20/04/2001,propriétaire,44.742448,-1.090931
JAU-DIGNAC-LOIRAC PORT RICHARD,S0787,JAU-DIGNAC-LOIRAC PORT RICHARD S0787,Meric 33590 Jau-Dignac-et-Loirac,97554,05 Mobilité,,20/04/2001,propriétaire,45.40933,-0.998178
MARCENAIS CONDUITE-EAU-BLAYAIS,S0807,MARCENAIS CONDUITE-EAU-BLAYAIS S0807,Favereau 33620 Marcenais,97569,05 Mobilité,,22/05/2001,locataire,45.060028,-0.336026
LATRESNE GARE CASTERA,S0828,LATRESNE GARE CASTERA S0828,8 Avenue de la Libération 33360 Latresne,97587,06 Performance de collectivité,,22/06/2001,propriétaire,44.783321,-0.495988
PRIGNAC-MARCAMPS ENS PALUS-DU-MORON,S0657,PRIGNAC-MARCAMPS ENS PALUS-DU-MORON S0657,Prignac-et-Marcamps,97481,07 Protection valorisation environnement,,12/02/2001,propriétaire,45.032351,-0.494302
CAPTIEUX DFCI,S0748,CAPTIEUX DFCI S0748,Rue de la Gare 33840 Captieux,97508,07 Protection valorisation environnement,,10/04/2001,propriétaire,44.291817,-0.258879
CESTAS DFCI,S0750,CESTAS DFCI S0750,2 Chemin de la Croix d'Hins 33610 Cestas,97510,07 Protection valorisation environnement,,10/04/2001,propriétaire,44.743428,-0.688203
ST-SYMPHORIEN DFCI,S0757,ST-SYMPHORIEN DFCI S0757,Rue de l'Église 33113 Saint-Léger-de-Balson,97517,07 Protection valorisation environnement,,10/04/2001,propriétaire,44.433089,-0.466209
VENDAYS DFCI,S0761,VENDAYS DFCI S0761,3 Passage des Pompiers 33930 Vendays-Montalivet,97521,07 Protection valorisation environnement,,10/04/2001,propriétaire,45.354376,-1.05927
LESPARRE-MEDOC CLG LES-LESQUES,S0020,LESPARRE-MEDOC CLG LES-LESQUES S0020,1 Avenue Jean Moulin 33340 Lesparre-Médoc,87139,03 Collège et éducation,,16/06/2000,propriétaire,45.30021,-0.928507
PAREMPUYRE CLG PORTE-DU-MÉDOC,S0042,PAREMPUYRE CLG PORTE-DU-MÉDOC S0042,1 Avenue des Sports 33290 Parempuyre,87145,03 Collège et éducation,,16/06/2000,propriétaire,44.94696,-0.60058
LE-BOUSCAT CLG AUSONE,S0064,LE-BOUSCAT CLG AUSONE S0064,,87150,03 Collège et éducation,,16/06/2000,propriétaire,,
ST-MEDARD-EN-JALLES CLG FRANÇOIS-MAURIAC,S0083,ST-MEDARD-EN-JALLES CLG FRANÇOIS-MAURIAC S0083,131 Avenue Montaigne 33160 Saint-Médard-en-Jalles,87159,03 Collège et éducation,,16/06/2000,propriétaire,44.893863,-0.712014
ARCACHON CLG MARIE-BARTETTE,S0109,ARCACHON CLG MARIE-BARTETTE S0109,9 Avenue Roland Dorgeles 33120 Arcachon,87172,03 Collège et éducation,,16/06/2000,propriétaire,44.650779,-1.16028
GUJAN-MESTRAS CLG CHANTE-CIGALE,S0124,GUJAN-MESTRAS CLG CHANTE-CIGALE S0124,21 Allée Pierre Corneille 33470 Gujan-Mestras,87177,03 Collège et éducation,,16/06/2000,propriétaire,44.621819,-1.060666
LA-TESTE-DE-BUCH CLG HENRI-DHEURLE,S0125,LA-TESTE-DE-BUCH CLG HENRI-DHEURLE S0125,9 Rue Pierre de Coubertin 33260 La Teste-de-Buch,87178,03 Collège et éducation,,16/06/2000,propriétaire,44.63078,-1.135637
TALENCE CLG VICTOR-LOUIS,S0151,TALENCE CLG VICTOR-LOUIS S0151,52 Avenue de Thouars 33400 Talence,87189,03 Collège et éducation,,16/06/2000,propriétaire,44.798953,-0.592376
ST-ANDRE-DE-CUBZAC CLG LA-GAROSSE,S0168,ST-ANDRE-DE-CUBZAC CLG LA-GAROSSE S0168,Allée de la Garosse 33240 Saint-André-de-Cubzac,87195,03 Collège et éducation,,16/06/2000,propriétaire,45.007113,-0.431811
LIBOURNE CLG EUGÈNE-ATGET,S0194,LIBOURNE CLG EUGÈNE-ATGET S0194,,87205,03 Collège et éducation,,16/06/2000,propriétaire,,
LORMONT CLG GEORGES-LAPIERRE,S0222,LORMONT CLG GEORGES-LAPIERRE S0222,,87217,03 Collège et éducation,,16/06/2000,propriétaire,,
BEGLES CLG PABLO-NÉRUDA,S0228,BEGLES CLG PABLO-NÉRUDA S0228,1 Chemin de Mussonville 33130 Bègles,87221,03 Collège et éducation,,16/06/2000,propriétaire,44.794197,-0.562393
CADILLAC CLG ANATOLE-FRANCE,S0253,CADILLAC CLG ANATOLE-FRANCE S0253,Chemin des Baries 33410 Cadillac,87231,03 Collège et éducation,,16/06/2000,propriétaire,44.630632,-0.305943
SAUVETERRE-DE-GUYENNE CLG ROBERT-BARRIÈRE,S0272,SAUVETERRE-DE-GUYENNE CLG ROBERT-BARRIÈRE S0272,Au Closet 33540 Sauveterre-de-Guyenne,87237,03 Collège et éducation,,16/06/2000,propriétaire,44.697062,-0.080888
VILLENAVE-D'ORNON CLG CHAMBÉRY,S0318,VILLENAVE-D'ORNON CLG CHAMBÉRY S0318,,87249,03 Collège et éducation,,16/06/2000,propriétaire,,
STE-FOY-LA-GRANDE GIE,S0281,STE-FOY-LA-GRANDE GIE S0281,22 Avenue de Verdun 33220 Sainte-Foy-la-Grande,88012,06 Performance de collectivité,,16/06/2000,propriétaire,44.838479,0.216206
BORDEAUX ARCHIVES RUE-D'AVIAU,S0052,BORDEAUX ARCHIVES RUE-D'AVIAU S0052,25 Rue d'Aviau 33000 Bordeaux,88016,02 Cohésion vie sociale et épanouissement,,16/06/2000,propriétaire,44.850092,-0.576546
BORDEAUX GARAGE STE-CECILE,S0093,BORDEAUX GARAGE STE-CECILE S0093,31 Rue Sainte-Cécile 33000 Bordeaux,88038,06 Performance de collectivité,,16/06/2000,propriétaire,44.830927,-0.585467
BORDEAUX HOTEL-DU-DEPARTEMENT,S0061,BORDEAUX HOTEL-DU-DEPARTEMENT S0061,Rue Corps Franc Pommies 33000 Bordeaux,88043,06 Performance de collectivité,,16/06/2000,propriétaire,44.836591,-0.586849
BORDEAUX CRISTAL,S0532,BORDEAUX CRISTAL S0532,Esplanade Charles de Gaulle 33000 Bordeaux,88050,06 Performance de collectivité,,16/06/2000,locataire,44.837398,-0.585046
LE-TEICH ENS RELAIS-NATURE-DU-PONT-DE-LAMOTHE,S0127,LE-TEICH ENS RELAIS-NATURE-DU-PONT-DE-LAMOTHE S0127,Avenue de Lamothe 33470 Le Teich,88070,07 Protection valorisation environnement,,16/06/2000,propriétaire,44.62499,-0.999534
LE-VERDON-SUR-MER BACS VILLA-BRISE-LAMES,S0543,LE-VERDON-SUR-MER BACS VILLA-BRISE-LAMES S0543,9 Rue de la Batterie 33123 Le Verdon-sur-Mer,88071,05 Mobilité,,16/06/2000,propriétaire,45.550091,-1.060959
ST-MEDARD-EN-JALLES BDP,S0087,ST-MEDARD-EN-JALLES BDP S0087,Rue Guynemer 33160 Saint-Médard-en-Jalles,88091,02 Cohésion vie sociale et épanouissement,,16/06/2000,locataire,44.883627,-0.739135
LESPARRE-MEDOC CRD-CE,S0022,LESPARRE-MEDOC CRD-CE S0022,,88124,05 Mobilité,,16/06/2000,propriétaire,,
ST-SYMPHORIEN CRD-CE,S0144,ST-SYMPHORIEN CRD-CE S0144,10 Boulevard de la Gare 33113 Saint-Symphorien,88133,05 Mobilité,,16/06/2000,propriétaire,44.425993,-0.488373
SAUVETERRE-DE-GUYENNE CRD-CE,S0273,SAUVETERRE-DE-GUYENNE CRD-CE S0273,42 Boulevard du 11 Novembre 1918 33540 Sauveterre-de-Guyenne,88136,05 Mobilité,,16/06/2000,locataire,44.693601,-0.088835
BEGLES MECS RABA,S0231,BEGLES MECS RABA S0231,13 Avenue Lucien Lerousseau 33130 Bègles,88143,08 Solidarité autonomie et santé,,16/06/2000,propriétaire,44.807804,-0.554571
BLANQUEFORT GIE,S0045,BLANQUEFORT GIE S0045,46 Avenue du Général de Gaulle 33290 Blanquefort,88146,06 Performance de collectivité,,16/06/2000,propriétaire,44.913961,-0.635289
CAPTIEUX GIE,S0293,CAPTIEUX GIE S0293,54 Route de Bazas 33840 Captieux,88153,06 Performance de collectivité,,16/06/2000,propriétaire,44.296481,-0.258865
CASTELNAU-DE-MEDOC GIE,S0016,CASTELNAU-DE-MEDOC GIE S0016,39 Avenue Georges Mandel 33480 Castelnau-de-Médoc,88156,06 Performance de collectivité,,16/06/2000,propriétaire,45.025051,-0.792117
LACANAU ENS ETANG-DE-COUSSEAU,S0577,LACANAU ENS ETANG-DE-COUSSEAU S0577,Les As 33680 Lacanau,88306,07 Protection valorisation environnement,,19/09/2000,proprietaire et bailleur,45.000428,-1.183289
LE-TEICH ENS DELTA-DE-LEYRE,S0590,LE-TEICH ENS DELTA-DE-LEYRE S0590,Nineche 33380 Biganos,88315,07 Protection valorisation environnement,,19/09/2000,proprietaire et bailleur,44.651196,-0.942567
STE-FOY-LA-GRANDE CRD-CE,S0592,STE-FOY-LA-GRANDE CRD-CE S0592,3 Avenue du Maréchal Leclerc 33220 Pineuilh,88362,05 Mobilité,,10/10/2000,propriétaire,44.840274,0.211407
BORDEAUX TGI,S0596,BORDEAUX TGI S0596,74 Cours d'Albret 33000 Bordeaux,88473,06 Performance de collectivité,,27/10/2000,propriétaire,44.835378,-0.58069
LES-SALLES-DE-CASTILLON MEMORIAL,S1553,LES-SALLES-DE-CASTILLON MEMORIAL S1553,Les Clides 33350 Les Salles-de-Castillon,756996,02 Cohésion vie sociale et épanouissement,,02/04/2003,propriétaire,44.915653,0.029814
COUTRAS ANNONCE-DES-CRUES,S1546,COUTRAS ANNONCE-DES-CRUES S1546,Rue Émile Combes 33230 Coutras,697136,05 Mobilité,,22/01/2003,propriétaire,45.041989,-0.131112
ARTIGUES-PRES-BORDEAUX FOYER,S1599,ARTIGUES-PRES-BORDEAUX FOYER S1599,9005 Avenue Descartes 33370 Artigues-près-Bordeaux,774996,08 Solidarité autonomie et santé,,17/05/2004,propriétaire,44.853779,-0.495952
CABANAC-ET-VILLAGRAINS FORET,S1800,CABANAC-ET-VILLAGRAINS FORET S1800,Allée des Mésanges 33650 Cabanac-et-Villagrains,1363946,07 Protection valorisation environnement,,05/11/2014,propriétaire,44.611033,-0.543522
FLOIRAC CLG NELSON-MANDELA,S1768,FLOIRAC CLG NELSON-MANDELA S1768,,1243528,03 Collège et éducation,,30/11/2011,propriétaire,,
CANEJAN PERM,S1816,CANEJAN PERM S1816,,1381703,06 Performance de collectivité,,21/03/2016,locataire,,
ST-CHRISTOPHE-DE-DOUBLE CRD-AIRE,S1692,ST-CHRISTOPHE-DE-DOUBLE CRD-AIRE S1692,La Croix 33230 Saint-Christophe-de-Double,988327,05 Mobilité,,01/08/2008,locataire,45.063204,0.020763
BALIZAC ENS ETANG-DE-LA-FERIERE,S1780,BALIZAC ENS ETANG-DE-LA-FERIERE S1780,La Ferrière 33730 Balizac,1330569,07 Protection valorisation environnement,,29/05/2013,propriétaire,44.472681,-0.424637
BORDEAUX CHÂTEAU-GARDERE,S1556,BORDEAUX CHÂTEAU-GARDERE S1556,8 Rue Théodore Gardère 33000 Bordeaux,771356,06 Performance de collectivité,,06/06/2003,proprietaire et bailleur,44.826915,-0.582187
GUJAN-MESTRAS PORT CANAL,S0777,GUJAN-MESTRAS PORT CANAL S0777,Rue de l'Yser 33470 Gujan-Mestras,97544,05 Mobilité,,20/04/2001,propriétaire,44.641255,-1.067397
FLOIRAC MDSI,S0247,FLOIRAC MDSI S0247,25 Avenue du Président François Mitterrand 33270 Floirac,87226,08 Solidarité autonomie et santé,,16/06/2000,propriétaire,44.832693,-0.523667
BORDEAUX CROIX-DU-PALAIS,S0530,BORDEAUX CROIX-DU-PALAIS S0530,1 Rue Corps Franc Pommies 33000 Bordeaux,88051,06 Performance de collectivité,,16/06/2000,propriétaire,44.837279,-0.586859
BIGANOS GIE,S0122,BIGANOS GIE S0122,,88145,06 Performance de collectivité,,16/06/2000,propriétaire,,
CREON CRD-CE,S1764,CREON CRD-CE S1764,Rue de Trotte Chèvre 33670 Créon,1242371,05 Mobilité,,06/10/2011,locataire,44.781164,-0.349197
LORMONT PERM,S1702,LORMONT PERM S1702,,994803,08 Solidarité autonomie et santé,,12/12/2008,locataire,,
LACANAU CLG,S1714,LACANAU CLG S1714,Allée du Collège 33680 Lacanau,1003956,03 Collège et éducation,,02/04/2009,propriétaire,44.986616,-1.089166
EYSINES CLG ALBERT-CAMUS,S0041,EYSINES CLG ALBERT-CAMUS S0041,3 Rue Lucien Piet 33320 Eysines,87144,03 Collège et éducation,,16/06/2000,propriétaire,44.884648,-0.644176
PESSAC CLG GÉRARD-PHILIPE,S0104,PESSAC CLG GÉRARD-PHILIPE S0104,67 Avenue de Gradignan 33600 Pessac,87168,03 Collège et éducation,,16/06/2000,propriétaire,44.798487,-0.623287
ARVEYRES CLG JEAN-AURIAC,S0192,ARVEYRES CLG JEAN-AURIAC S0192,4 Rue de Peytot 33500 Arveyres,87203,03 Collège et éducation,,16/06/2000,propriétaire,44.883674,-0.284971
PELLEGRUE GIE,S0268,PELLEGRUE GIE S0268,16 Route de Duras 33790 Pellegrue,87999,06 Performance de collectivité,,16/06/2000,propriétaire,44.742309,0.078555
SAUVETERRE-DE-GUYENNE GIE,S0275,SAUVETERRE-DE-GUYENNE GIE S0275,5 Rue du Huit Mai 1945 33540 Sauveterre-de-Guyenne,88013,06 Performance de collectivité,,16/06/2000,propriétaire,44.692185,-0.084534
LIBOURNE GARE ROUTIERE,S0199,LIBOURNE GARE ROUTIERE S0199,9002 Avenue Gallieni 33500 Libourne,88072,05 Mobilité,,16/06/2000,propriétaire,44.91524,-0.237376
HOURTIN CLG JULES-CHAMBRELENT,S1776,HOURTIN CLG JULES-CHAMBRELENT S1776,11 Rue de la Bouaille 33990 Hourtin,1262528,03 Collège et éducation,,16/10/2012,propriétaire,45.190533,-1.057988
BLANQUEFORT HANGAR-DE-STOCKAGE,S1814,BLANQUEFORT HANGAR-DE-STOCKAGE S1814,Rue Antoine de Saint-Exupéry 33290 Blanquefort,1379392,06 Performance de collectivité,,29/02/2016,locataire,44.922914,-0.607251
AMBES DIGUE,S1516,AMBES DIGUE S1516,Larue 33810 Ambès,624690,05 Mobilité,,09/09/2002,propriétaire,45.004799,-0.516888
ANGLADE ENS MARAIS-DE-LA-VERGNE,S0736,ANGLADE ENS MARAIS-DE-LA-VERGNE S0736,Le Pin 33390 Anglade,97451,07 Protection valorisation environnement,,12/02/2001,propriétaire,45.208455,-0.615775
MONSEGUR CLG ELEONORE-DE-PROVENCE,S1584,MONSEGUR CLG ELEONORE-DE-PROVENCE S1584,Le Stade 33580 Monségur,773722,03 Collège et éducation,,18/02/2004,propriétaire,44.64842,0.072005
LA-TESTE-DE-BUCH PORT CENTRE,S0786,LA-TESTE-DE-BUCH PORT CENTRE S0786,Avenue des Pêcheurs 33260 La Teste-de-Buch,97538,05 Mobilité,,20/04/2001,propriétaire,44.642468,-1.14579
TALENCE POLE-SOLIDARITE,S0344,TALENCE POLE-SOLIDARITE S0344,,7945,08 Solidarité autonomie et santé,,25/06/1999,propriétaire,,
GUJAN-MESTRAS ENS PRES-SALES,S0724,GUJAN-MESTRAS ENS PRES-SALES S0724,,97402,07 Protection valorisation environnement,,09/02/2001,propriétaire,,
LE-BOUSCAT MDVAS,S0598,LE-BOUSCAT MDVAS S0598,59 Avenue d'Eysines 33110 Le Bouscat,97355,02 Cohésion vie sociale et épanouissement,,22/11/2000,propriétaire,44.853807,-0.596394
GUJAN-MESTRAS PORT LA-HUME,S0791,GUJAN-MESTRAS PORT LA-HUME S0791,Quai Port de la Hume 33470 Gujan-Mestras,97540,05 Mobilité,,20/04/2001,propriétaire,44.641892,-1.116527
BORDEAUX CLG EMILE-COMBES,S0096,BORDEAUX CLG EMILE-COMBES S0096,76 Rue Émile Combes 33000 Bordeaux,87164,03 Collège et éducation,,16/06/2000,propriétaire,44.834802,-0.609937
BEGLES MDSI,S0226,BEGLES MDSI S0226,13 Rue du Maréchal Joffre 33130 Bègles,87219,08 Solidarité autonomie et santé,,16/06/2000,propriétaire,44.806365,-0.549735
LEOGNAN GIE,S0303,LEOGNAN GIE S0303,9 Avenue de Bordeaux 33850 Léognan,87991,06 Performance de collectivité,,16/06/2000,propriétaire,44.735056,-0.599433
ST-SAVIN-DE-BLAYE GIE,S0180,ST-SAVIN-DE-BLAYE GIE S0180,21 Rue Alphonse Micheau 33920 Saint-Savin,88008,06 Performance de collectivité,,16/06/2000,propriétaire,45.139055,-0.453871
ARVEYRES CRD-CE,S0198,ARVEYRES CRD-CE S0198,5 Avenue du Général de Gaulle 33500 Arveyres,88125,05 Mobilité,,16/06/2000,locataire,44.913551,-0.251505
BRANNE GIE,S0251,BRANNE GIE S0251,32 Rue Fort Bayard 33420 Branne,88151,06 Performance de collectivité,,16/06/2000,propriétaire,44.827358,-0.184561
LANGON CRD-SIEGE,S0606,LANGON CRD-SIEGE S0606,110 Cours de Verdun 33210 Langon,88470,05 Mobilité,,27/10/2000,propriétaire,44.552973,-0.261131
LE-BOUSCAT PERM,S1798,LE-BOUSCAT PERM S1798,8 Rue Condorcet 33110 Le Bouscat,1363826,08 Solidarité autonomie et santé,,16/10/2014,locataire,44.869085,-0.578289
BORDEAUX CRD-CE RIVE-DROITE,S1665,BORDEAUX CRD-CE RIVE-DROITE S1665,121 Quai de la Souys 33100 Bordeaux,977715,05 Mobilité,,12/09/2007,locataire,44.828442,-0.54021
PUJOLS CRD-AIRE,S1668,PUJOLS CRD-AIRE S1668,,977757,05 Mobilité,,18/09/2007,locataire,,
PINEUILH-CAVILLE CRD-AIRE,S1670,PINEUILH-CAVILLE CRD-AIRE S1670,,977778,05 Mobilité,,18/09/2007,locataire,,
AILLAS CRD-AIRE,S1676,AILLAS CRD-AIRE S1676,,977819,05 Mobilité,,20/09/2007,locataire,,
LE-TEICH MDSI,S1734,LE-TEICH MDSI S1734,,1008099,08 Solidarité autonomie et santé,,04/06/2009,propriétaire,,
BRUGES PERM,S1783,BRUGES PERM S1783,87 Avenue Charles de Gaulle 33520 Bruges,1342759,08 Solidarité autonomie et santé,,07/10/2013,locataire,44.881334,-0.61314
ETAULIERS PERM,S1791,ETAULIERS PERM S1791,15 Chemin de Furet 33820 Étauliers,1349839,08 Solidarité autonomie et santé,,10/12/2013,locataire,45.226738,-0.568025
GENERAC CONDUITE-EAU-BLAYAIS,S0806,GENERAC CONDUITE-EAU-BLAYAIS S0806,La Font des Loges 33920 Générac,97568,05 Mobilité,,22/05/2001,locataire,45.180055,-0.527709
LE-TEMPLE DFCI,S0760,LE-TEMPLE DFCI S0760,2 Route du Porge 33680 Le Temple,97520,06 Performance de collectivité,,10/04/2001,propriétaire,44.880236,-0.990278
ARSAC CLG PANCHON,S0006,ARSAC CLG PANCHON S0006,Allée de Panchon 33460 Arsac,87135,03 Collège et éducation,,16/06/2000,propriétaire,44.988941,-0.693781
LE-HAILLAN CLG EMILE-ZOLA,S0082,LE-HAILLAN CLG EMILE-ZOLA S0082,,87158,03 Collège et éducation,,16/06/2000,propriétaire,,
ST-SYMPHORIEN CLG FRANCOIS-MAURIAC,S0143,ST-SYMPHORIEN CLG FRANCOIS-MAURIAC S0143,6 Avenue du Huit Mai 33113 Saint-Symphorien,87187,03 Collège et éducation,,16/06/2000,propriétaire,44.430488,-0.493151
ST-LOUBES MDSI,S0208,ST-LOUBES MDSI S0208,30 Rue du Stade 33450 Saint-Loubès,87209,08 Solidarité autonomie et santé,,16/06/2000,propriétaire,44.913537,-0.426788
BASSENS CLG MANON-CORMIER,S0221,BASSENS CLG MANON-CORMIER S0221,,87216,03 Collège et éducation,,16/06/2000,propriétaire,,
VILLENAVE-D'ORNON MDSI,S0317,VILLENAVE-D'ORNON MDSI S0317,601 BIS Route de Toulouse 33140 Villenave-d'Ornon,87248,08 Solidarité autonomie et santé,,16/06/2000,propriétaire,44.782263,-0.566097
LE-BOUSCAT MDSI,S0472,LE-BOUSCAT MDSI S0472,17 Rue Georges Lafont 33110 Le Bouscat,87263,06 Performance de collectivité,,16/06/2000,locataire,44.866446,-0.597423
BORDEAUX CLG GRATIOLET,S0546,BORDEAUX CLG GRATIOLET S0546,Rue des Augustins 33000 Bordeaux,87310,03 Collège et éducation,,16/06/2000,propriétaire,44.832423,-0.571184
LE-HAILLAN AS,S0499,LE-HAILLAN AS S0499,3 Rue Edmond Rostand 33185 Le Haillan,87539,08 Solidarité autonomie et santé,,16/06/2000,locataire,44.860746,-0.666809
ST-LAURENT-DU-MEDOC AS,S0515,ST-LAURENT-DU-MEDOC AS S0515,4 Rue Pierre Castéra 33112 Saint-Laurent-Médoc,87554,08 Solidarité autonomie et santé,,16/06/2000,propriétaire,45.150339,-0.827941
MERIGNAC CRD-SIEGE,S0055,MERIGNAC CRD-SIEGE S0055,240 Avenue de la Marne 33700 Mérignac,87979,05 Mobilité,,16/06/2000,propriétaire,44.832284,-0.642507
LANGON GIE,S0310,LANGON GIE S0310,23 Rue Jules Ferry 33210 Langon,87988,06 Performance de collectivité,,16/06/2000,propriétaire,44.549984,-0.251765
PAUILLAC GIE,S0026,PAUILLAC GIE S0026,50 Rue du Maréchal Joffre 33250 Pauillac,87998,06 Performance de collectivité,,16/06/2000,propriétaire,45.202991,-0.752541
ST-LAURENT-DU-MEDOC GIE,S0034,ST-LAURENT-DU-MEDOC GIE S0034,2 Rue du Docteur Destouesse 33112 Saint-Laurent-Médoc,88003,06 Performance de collectivité,,16/06/2000,propriétaire,45.148502,-0.822723
ST-VIVIEN-DE-MEDOC GIE,S0038,ST-VIVIEN-DE-MEDOC GIE S0038,22 Cours Georges Mandel 33590 Saint-Vivien-de-Médoc,88010,06 Performance de collectivité,,16/06/2000,propriétaire,45.43463,-1.038944
PESSAC TECHNOPOLE-CONDORCET,S0347,PESSAC TECHNOPOLE-CONDORCET S0347,Avenue de Gradignan 33600 Pessac,88087,04 Economie solidaire,,16/06/2000,propriétaire,44.803067,-0.624978
LE-TAILLAN-MEDOC CRD-CE,S0085,LE-TAILLAN-MEDOC CRD-CE S0085,7 Avenue de la Boétie 33320 Le Taillan-Médoc,88122,05 Mobilité,,16/06/2000,propriétaire,44.909655,-0.671631
SALLES CRD-CE,S0132,SALLES CRD-CE S0132,2 Route de Perrin 33770 Salles,88134,05 Mobilité,,16/06/2000,locataire,44.551476,-0.858244
CARBON-BLANC GIE,S0213,CARBON-BLANC GIE S0213,19 Avenue André Vignau Anglade 33560 Carbon-Blanc,88154,06 Performance de collectivité,,16/06/2000,propriétaire,44.896038,-0.505703
BORDEAUX PARKING DU-8-MAI-1945,S0624,BORDEAUX PARKING DU-8-MAI-1945 S0624,Rue Jean Fleuret 33000 Bordeaux,88444,06 Performance de collectivité,,19/10/2000,locataire,44.836388,-0.584341
PODENSAC MECS,S1534,PODENSAC MECS S1534,4 Rue Toulouse Lautrec 33720 Podensac,691540,08 Solidarité autonomie et santé,,16/12/2002,propriétaire,44.645668,-0.350681
BORDEAUX ANTENNE-ST-FERDINAND,S1625,BORDEAUX ANTENNE-ST-FERDINAND S1625,8 Rue de la Croix de Seguey 33000 Bordeaux,786005,03 Collège et éducation,,27/06/2005,locataire,44.850326,-0.586794
LEOGNAN CRD-CE,S1805,LEOGNAN CRD-CE S1805,"Avenue de Mont de Marsan, LEMBARRA 33850 Léognan",1367349,05 Mobilité,,18/12/2014,propriétaire,44.703262,-0.606384
BORDEAUX CENTRE-SOCIAL GRAND-PARC,S1645,BORDEAUX CENTRE-SOCIAL GRAND-PARC S1645,25 Place de la Victoire 33000 Bordeaux,887526,08 Solidarité autonomie et santé,,24/08/2006,propriétaire,44.831133,-0.573484
LOUPES CRD-CE,S1774,LOUPES CRD-CE S1774,3 Route de l'Église 33370 Loupes,1262257,05 Mobilité,,13/07/2012,propriétaire,44.80817,-0.395369
BORDEAUX ECONOMAT MANON-CORMIER,S1539,BORDEAUX ECONOMAT MANON-CORMIER S1539,15 Rue Manon Cormier 33000 Bordeaux,697065,06 Performance de collectivité,,15/01/2003,locataire,44.832634,-0.588374
LA-TESTE-DE-BUCH AS LES-BOSQUETS,S1796,LA-TESTE-DE-BUCH AS LES-BOSQUETS S1796,55 Impasse du Bosquet 33260 La Teste-de-Buch,1363765,08 Solidarité autonomie et santé,,09/10/2014,locataire,44.616962,-1.13929
BORDEAUX CLG LEONARD-LENOIR,S0234,BORDEAUX CLG LEONARD-LENOIR S0234,,9149,03 Collège et éducation,,13/07/1999,propriétaire,,
LIBOURNE C.I.O.,S1560,LIBOURNE C.I.O. S1560,40 Rue Orbe 33500 Libourne,772163,03 Collège et éducation,,12/08/2003,proprietaire et bailleur,44.917237,-0.243824
MARCHEPRIME CLG GASTON-FLAMENT,S1579,MARCHEPRIME CLG GASTON-FLAMENT S1579,33 Avenue Léon Delagrange 33380 Marcheprime,773717,03 Collège et éducation,,18/02/2004,propriétaire,44.698906,-0.847257
CARBON-BLANC CLG,S1583,CARBON-BLANC CLG S1583,28 Rue des Futaies 33560 Carbon-Blanc,773721,03 Collège et éducation,,18/02/2004,propriétaire,44.909826,-0.498947
TALENCE CLG HENRI-BRISSON,S0150,TALENCE CLG HENRI-BRISSON S0150,16 Rue Henri Brisson 33400 Talence,87188,03 Collège et éducation,,16/06/2000,propriétaire,44.818769,-0.591934
LIBOURNE POLE TERRITORIAL,S0196,LIBOURNE POLE TERRITORIAL S0196,14 Rue Jules Vedrines 33500 Libourne,87207,08 Solidarité autonomie et santé,,16/06/2000,proprietaire et bailleur,44.907755,-0.236425
BRANNE CLG PAUL-EMILE-VICTOR,S0250,BRANNE CLG PAUL-EMILE-VICTOR S0250,Route de Branne 33420 Génissac,87229,03 Collège et éducation,,16/06/2000,propriétaire,44.857084,-0.253452
PODENSAC CLG GEORGES-BRASSENS,S0311,PODENSAC CLG GEORGES-BRASSENS S0311,3 BIS Cours du Mal Joffre 33720 Podensac,87247,03 Collège et éducation,,16/06/2000,propriétaire,44.647739,-0.351659
VILLANDRAUT GIE,S0316,VILLANDRAUT GIE S0316,1 Route Bazas 33730 Villandraut,88014,06 Performance de collectivité,,16/06/2000,propriétaire,44.459947,-0.365824
LORMONT DIVERS ANCIENNE-GIE,S0459,LORMONT DIVERS ANCIENNE-GIE S0459,5 Rue de la République 33310 Lormont,88073,06 Performance de collectivité,,16/06/2000,propriétaire,44.877287,-0.525017
BLAYE GIE,S0160,BLAYE GIE S0160,52 Rue Jaufre Rudel 33390 Blaye,88147,06 Performance de collectivité,,16/06/2000,propriétaire,45.123385,-0.658896
CAVIGNAC GIE,S0179,CAVIGNAC GIE S0179,,88158,06 Performance de collectivité,,16/06/2000,propriétaire,,
LIBOURNE CLG LES-DAGUEYS,S1515,LIBOURNE CLG LES-DAGUEYS S1515,27 Avenue François Mitterrand 33500 Libourne,396862,03 Collège et éducation,,23/04/2002,propriétaire,44.947905,-0.242577
BORDEAUX SGAR,S1535,BORDEAUX SGAR S1535,Esplanade Charles de Gaulle 33000 Bordeaux,697061,06 Performance de collectivité,,15/01/2003,proprietaire et bailleur,44.837398,-0.585046
LE-BARP FORET,S1803,LE-BARP FORET S1803,Chemin de Camp Beil 33114 Le Barp,1364045,07 Protection valorisation environnement,,27/11/2014,propriétaire,44.667122,-0.796777
BORDEAUX PARKING GAMBETTA,S1709,BORDEAUX PARKING GAMBETTA S1709,,998852,06 Performance de collectivité,,23/01/2009,locataire,,
BORDEAUX STOCKAGE MOTTE-PICQUET,S1735,BORDEAUX STOCKAGE MOTTE-PICQUET S1735,5 Rue la Motte Picquet 33300 Bordeaux,1008100,06 Performance de collectivité,,04/06/2009,locataire,44.873065,-0.561382
BLANQUEFORT CLG EMMANUEL-DUPATY,S0040,BLANQUEFORT CLG EMMANUEL-DUPATY S0040,Rue Maréchal de Lattre de Tassigny 33290 Parempuyre,87143,03 Collège et éducation,,16/06/2000,propriétaire,44.957987,-0.60361
MERIGNAC CLG LES-EYQUEMS,S0079,MERIGNAC CLG LES-EYQUEMS S0079,Chemin de la Tour de Veyrines 33700 Mérignac,87157,03 Collège et éducation,,16/06/2000,propriétaire,44.827169,-0.646068
PESSAC MDSI,S0102,PESSAC MDSI S0102,10 Avenue Pierre Wiehn 33600 Pessac,87166,08 Solidarité autonomie et santé,,16/06/2000,propriétaire,44.801866,-0.633294
BIGANOS CLG JEAN-ZAY,S0113,BIGANOS CLG JEAN-ZAY S0113,Avenue de la Côte d'Argent 33380 Biganos,87175,03 Collège et éducation,,16/06/2000,propriétaire,44.639711,-0.963815
GRADIGNAN CLG FONT-DE-MONJOUS,S0141,GRADIGNAN CLG FONT-DE-MONJOUS S0141,,87186,03 Collège et éducation,,16/06/2000,propriétaire,,
ST-YZAN-DE-SOUDIAC CLG VAL-DE-LA-SAYE,S0176,ST-YZAN-DE-SOUDIAC CLG VAL-DE-LA-SAYE S0176,2 Rue du Collège 33920 Saint-Yzan-de-Soudiac,87197,03 Collège et éducation,,16/06/2000,propriétaire,45.139905,-0.410168
LA-BREDE CLG MONTESQUIEU,S0297,LA-BREDE CLG MONTESQUIEU S0297,,87242,03 Collège et éducation,,16/06/2000,propriétaire,,
TALENCE CDEF SAFE,S0152,TALENCE CDEF SAFE S0152,48 Avenue de la Vieille Tour 33400 Talence,88023,08 Solidarité autonomie et santé,,16/06/2000,propriétaire,44.81364,-0.600593
BORDEAUX GIRONDE-et-MAL.-JUIN,S0452,BORDEAUX GIRONDE-et-MAL.-JUIN S0452,,88046,06 Performance de collectivité,,16/06/2000,propriétaire,,
MERIGNAC ATELIER-ARLAC,S0553,MERIGNAC ATELIER-ARLAC S0553,48 Avenue des Eyquems 33700 Mérignac,88078,06 Performance de collectivité,,16/06/2000,locataire,44.828131,-0.619079
LE-VERDON-SUR-MER BACS BUREAUX,S0037,LE-VERDON-SUR-MER BACS BUREAUX S0037,19 Avenue du Phare de Cordouan 33123 Le Verdon-sur-Mer,88108,05 Mobilité,,16/06/2000,proprietaire et bailleur,45.567987,-1.064529
LA-REOLE MDSI,S0256,LA-REOLE MDSI S0256,,87232,08 Solidarité autonomie et santé,,16/06/2000,propriétaire,,
LA-REOLE DIVERS (ex-GIE),S0261,LA-REOLE DIVERS (ex-GIE) S0261,8 Place Albert Rigoulet 33190 La Réole,87985,06 Performance de collectivité,,16/06/2000,propriétaire,44.581636,-0.041977
CASTILLON-LA-BATAILLE CRD-CE,S0184,CASTILLON-LA-BATAILLE CRD-CE S0184,11 Rue Paul Bert 33350 Castillon-la-Bataille,88117,05 Mobilité,,16/06/2000,propriétaire,44.855682,-0.047307
LANGOIRAN MECS GARDERA,S1531,LANGOIRAN MECS GARDERA S1531,Le Gardera 33550 Langoiran,654765,08 Solidarité autonomie et santé,,15/11/2002,propriétaire,44.700893,-0.390083
ARCACHON PORT PRINCIPAL,S0781,ARCACHON PORT PRINCIPAL S0781,53 BIS Boulevard de la Plage 33120 Arcachon,97537,05 Mobilité,,20/04/2001,propriétaire,44.659139,-1.152002
BLAYE BACS BUREAUX,S0463,BLAYE BACS BUREAUX S0463,,88106,05 Mobilité,,16/06/2000,propriétaire,,
CREON GIE,S0245,CREON GIE S0245,,88161,06 Performance de collectivité,,16/06/2000,propriétaire,,
LA-REOLE PERM PMI-CONSULTATIONS,S1652,LA-REOLE PERM PMI-CONSULTATIONS S1652,,893436,08 Solidarité autonomie et santé,,28/09/2006,locataire,,
ST-LOUBES CLG MAX-LINDER,S0210,ST-LOUBES CLG MAX-LINDER S0210,,87211,03 Collège et éducation,,16/06/2000,propriétaire,,
ST-SYMPHORIEN GARE,S0147,ST-SYMPHORIEN GARE S0147,A la Rigade 33113 Saint-Symphorien,88111,06 Performance de collectivité,,16/06/2000,propriétaire,44.395092,-0.510776
ST-DENIS-DE-PILE PERM,S1718,ST-DENIS-DE-PILE PERM S1718,,1007399,08 Solidarité autonomie et santé,,18/05/2009,locataire,,
FLOIRAC CIF,S0364,FLOIRAC CIF S0364,,88058,04 Economie solidaire,,16/06/2000,propriétaire,,
ST-SAVIN-DE-BLAYE PERM,S1704,ST-SAVIN-DE-BLAYE PERM S1704,,994807,08 Solidarité autonomie et santé,,12/12/2008,locataire,,
MARTIGNAS-SUR-JALLE CLG ALIÉNOR-D'AQUITAINE,S0073,MARTIGNAS-SUR-JALLE CLG ALIÉNOR-D'AQUITAINE S0073,77 Avenue des Sapinettes 33127 Martignas-sur-Jalle,87153,03 Collège et éducation,,16/06/2000,propriétaire,44.84582,-0.78139
PELLEGRUE PERM,S0612,PELLEGRUE PERM S0612,,97345,08 Solidarité autonomie et santé,,17/11/2000,locataire,,
MIOS CLG,S1808,MIOS CLG S1808,Route de Lagnet 33380 Mios,1367953,03 Collège et éducation,,19/05/2015,propriétaire,44.608378,-0.889072
EYSINES GIE,S0046,EYSINES GIE S0046,,7946,06 Performance de collectivité,,25/06/1999,propriétaire,,
MERIGNAC PERM,S0597,MERIGNAC PERM S0597,5 Allée Concorde 33700 Mérignac,97343,08 Solidarité autonomie et santé,,17/11/2000,locataire,44.844052,-0.676632
EYSINES MDSI,S0039,EYSINES MDSI S0039,16 Rue des Treytins 33320 Eysines,87142,08 Solidarité autonomie et santé,,16/06/2000,propriétaire,44.881203,-0.631907
TALENCE PERM,S0561,TALENCE PERM S0561,Rue Frédéric Sevene 33400 Talence,87565,08 Solidarité autonomie et santé,,16/06/2000,locataire,44.806064,-0.580384
CESTAS AS,S1660,CESTAS AS S1660,Place de l'Hôtel de Ville 33610 Cestas,972313,08 Solidarité autonomie et santé,,26/06/2007,locataire,44.741229,-0.685325
ST-SULPICE-DE-FALEYRENS CRD-AIRE,S1673,ST-SULPICE-DE-FALEYRENS CRD-AIRE S1673,Saint-Sulpice-de-Faleyrens,977780,05 Mobilité,,18/09/2007,locataire,44.873873,-0.190413
LIBOURNE CLG MARGUERITE-DURAS,S0195,LIBOURNE CLG MARGUERITE-DURAS S0195,,87206,03 Collège et éducation,,16/06/2000,propriétaire,,
CASTELNAU-DE-MEDOC EX-MDSI,S0350,CASTELNAU-DE-MEDOC EX-MDSI S0350,1 Avenue Gambetta 33480 Castelnau-de-Médoc,87257,06 Performance de collectivité,,16/06/2000,propriétaire,45.028431,-0.798684
AUROS CRD-CE,S0283,AUROS CRD-CE S0283,,87974,05 Mobilité,,16/06/2000,propriétaire,,
RAUZAN GIE,S0271,RAUZAN GIE S0271,16 Rue Peyruc 33420 Rauzan,88002,06 Performance de collectivité,,16/06/2000,propriétaire,44.780184,-0.124084
ST-ANDRE-DE-CUBZAC CRD-CE,S0169,ST-ANDRE-DE-CUBZAC CRD-CE S0169,Chemin de Labry 33240 Saint-André-de-Cubzac,88131,05 Mobilité,,16/06/2000,locataire,44.984556,-0.452983
BLAYE SOUS-PREFECTURE,S0605,BLAYE SOUS-PREFECTURE S0605,18 Rue André Lafon 33390 Blaye,88471,06 Performance de collectivité,,27/10/2000,propriétaire,45.126183,-0.659506
BORDEAUX LOGT 88-RUE-CHEVALIER,S1777,BORDEAUX LOGT 88-RUE-CHEVALIER S1777,88 Rue Chevalier 33000 Bordeaux,1262524,06 Performance de collectivité,,07/12/2011,locataire,44.843783,-0.595496
ST-MAGNE-DE-CASTILLON CRD-AIRE,S1634,ST-MAGNE-DE-CASTILLON CRD-AIRE S1634,Chemin de la Besse 33350 Saint-Magne-de-Castillon,802763,05 Mobilité,,30/09/2005,propriétaire,44.847093,-0.069507
GUJAN-MESTRAS FOYER,S1572,GUJAN-MESTRAS FOYER S1572,Allée des Corsaires 33470 Gujan-Mestras,773395,08 Solidarité autonomie et santé,,31/12/2003,propriétaire,44.627339,-1.05816
MERIGNAC PERM CAPEYRON,S0613,MERIGNAC PERM CAPEYRON S0613,Rue Jean Giono 33700 Mérignac,97344,08 Solidarité autonomie et santé,,17/11/2000,locataire,44.852113,-0.64906
SOULAC-SUR-MER FORET-LA-LIMITE,S0834,SOULAC-SUR-MER FORET-LA-LIMITE S0834,Soulac-sur-Mer,97633,07 Protection valorisation environnement,,18/07/2001,propriétaire,45.510244,-1.125761
CARTELEGUE CONDUITE-EAU-BLAYAIS,S0801,CARTELEGUE CONDUITE-EAU-BLAYAIS S0801,Route de la Pointe 33390 Cartelègue,97563,05 Mobilité,,22/05/2001,locataire,45.209442,-0.556029
PESSAC CLG ALOUETTE,S0103,PESSAC CLG ALOUETTE S0103,1 Avenue Pierre de Coubertin 33600 Pessac,87167,03 Collège et éducation,,16/06/2000,propriétaire,44.799841,-0.668643
PODENSAC AS,S0506,PODENSAC AS S0506,14 Rue Salans 33720 Podensac,87546,08 Solidarité autonomie et santé,,16/06/2000,locataire,44.65314,-0.35591
LACANAU UCPA,S0014,LACANAU UCPA S0014,DOMAINE DE L'ARDILOUSE 33680 Lacanau,88067,02 Cohésion vie sociale et épanouissement,,16/06/2000,propriétaire,45.000256,-1.170788
MARTRES ENS CARRIÈRE-DE-JEANDILLON,S0584,MARTRES ENS CARRIÈRE-DE-JEANDILLON S0584,Barral 33760 Martres,88321,07 Protection valorisation environnement,,19/09/2000,propriétaire,44.711309,-0.166545
TALENCE PERM THOUARS,S1523,TALENCE PERM THOUARS S1523,2 Avenue de Thouars 33400 Talence,640079,08 Solidarité autonomie et santé,,02/10/2002,locataire,44.79979,-0.593301
LANTON CRD-SIEGE,S1715,LANTON CRD-SIEGE S1715,,1004015,05 Mobilité,,07/04/2009,locataire,,
LANTON ENS DORTOIR-D'AIGRETTES,S0685,LANTON ENS DORTOIR-D'AIGRETTES S0685,BLAGON 33138 Lanton,97479,07 Protection valorisation environnement,,12/02/2001,propriétaire,44.784522,-0.934588
CASTELNAU-DE-MEDOC CLG CANTERANE,S0007,CASTELNAU-DE-MEDOC CLG CANTERANE S0007,Rue Saint-Gènes 33480 Castelnau-de-Médoc,87136,03 Collège et éducation,,16/06/2000,propriétaire,45.029767,-0.793004
LUSSAC CLG,S0205,LUSSAC CLG S0205,Avenue de Verdun 33570 Lussac,87208,03 Collège et éducation,,16/06/2000,propriétaire,44.949643,-0.098968
CAPTIEUX CRD-CE,S0291,CAPTIEUX CRD-CE S0291,Route de Lucmau 33840 Captieux,88114,05 Mobilité,,16/06/2000,propriétaire,44.295017,-0.267551
LEGE-CAP-FERRET CDL DUNES-DU-CAP-FERRET,S0579,LEGE-CAP-FERRET CDL DUNES-DU-CAP-FERRET S0579,Lège-Cap-Ferret,88311,07 Protection valorisation environnement,,19/09/2000,proprietaire et bailleur,44.792671,-1.146498
LACANAU MAISON-DE-RETRAITE,S1601,LACANAU MAISON-DE-RETRAITE S1601,Rue du Général de Gaulle 33680 Lacanau,781441,06 Performance de collectivité,,02/06/2004,proprietaire et bailleur,44.976494,-1.07639
GUITRES GIE,S0190,GUITRES GIE S0190,60 Avenue de l'Isle 33230 Guîtres,87983,06 Performance de collectivité,,16/06/2000,propriétaire,45.044183,-0.18402
SALAUNES DFCI,S0758,SALAUNES DFCI S0758,Route de Salaunes 33160 Saint-Aubin-de-Médoc,97518,07 Protection valorisation environnement,,10/04/2001,propriétaire,44.932326,-0.766692
LA-TESTE-DE-BUCH ENS DUNE-DU-PILAT,S0589,LA-TESTE-DE-BUCH ENS DUNE-DU-PILAT S0589,La Teste-de-Buch,88319,07 Protection valorisation environnement,,19/09/2000,propriétaire,44.632214,-1.146050
CENON AS,S1575,CENON AS S1575,142 Avenue René Cassagne 33150 Cenon,773713,08 Solidarité autonomie et santé,,18/02/2004,proprietaire et bailleur,44.853195,-0.516795
LORMONT AS GRAVIERES,S0492,LORMONT AS GRAVIERES S0492,171 Rue des Gravières 33310 Lormont,87532,08 Solidarité autonomie et santé,,16/06/2000,locataire,44.871968,-0.518438
LESPARRE-MEDOC SOUS-PREFECTURE,S1564,LESPARRE-MEDOC SOUS-PREFECTURE S1564,2 Allée du 8 Mai 1945 33340 Lesparre-Médoc,772282,06 Performance de collectivité,,25/09/2003,propriétaire,45.307738,-0.938148
PREIGNAC ENS VALLEE-DU-CIRON,S0659,PREIGNAC ENS VALLEE-DU-CIRON S0659,Sahuc 33210 Preignac,97472,07 Protection valorisation environnement,,12/02/2001,propriétaire,44.575233,-0.313749
PESSAC GIE,S0105,PESSAC GIE S0105,31 Rue Roger Vilanova 33600 Pessac,88000,06 Performance de collectivité,,16/06/2000,propriétaire,44.796653,-0.67165
BEGLES PERM,S1760,BEGLES PERM S1760,,1228723,08 Solidarité autonomie et santé,,17/03/2011,locataire,,
COUTRAS CRD-AIRE,S1666,COUTRAS CRD-AIRE S1666,"Chemin du Poteau, CHAMPS DE TROQUEREAU 33230 Coutras",977735,05 Mobilité,,13/09/2007,locataire,45.027549,-0.056147
ST-MEDARD-EN-JALLES MDSI,S0799,ST-MEDARD-EN-JALLES MDSI S0799,2 Rue Firmin Montignac 33160 Saint-Médard-en-Jalles,97560,08 Solidarité autonomie et santé,,14/05/2001,propriétaire,44.89326,-0.718426
LANGON MDSI,S0304,LANGON MDSI S0304,34 BIS Cours du Général Leclerc 33210 Langon,87244,08 Solidarité autonomie et santé,,16/06/2000,locataire,44.555231,-0.251162
ST-ANDRE-DE-CUBZAC POLE-TERRITORIAL,S0172,ST-ANDRE-DE-CUBZAC POLE-TERRITORIAL S0172,49 Rue Henri Groues dit Abbé Pierre 33240 Saint-André-de-Cubzac,88004,08 Solidarité autonomie et santé,,16/06/2000,propriétaire,44.988606,-0.450383
BOURG-SUR-GIRONDE GIE,S0163,BOURG-SUR-GIRONDE GIE S0163,888 Au Mas Nord 33710 Bourg,88150,06 Performance de collectivité,,16/06/2000,propriétaire,45.042827,-0.559473
AUDENGE CRD-AIRE LIOUGEY,S1629,AUDENGE CRD-AIRE LIOUGEY S1629,,802734,05 Mobilité,,29/09/2005,propriétaire,,
BAZAS CRD-CE,S1639,BAZAS CRD-CE S1639,Chemin de Guilleme 33430 Bazas,866487,05 Mobilité,,12/01/2006,propriétaire,44.439692,-0.235983
CARCANS CDL SAINTE-HELENE,S0711,CARCANS CDL SAINTE-HELENE S0711,Troussas 33121 Carcans,97406,07 Protection valorisation environnement,,09/02/2001,proprietaire et bailleur,45.067031,-0.999025
SALLES CLG ALIENOR-D'AQUITAINE,S1580,SALLES CLG ALIENOR-D'AQUITAINE S1580,22 Route du Martinet 33770 Salles,773718,03 Collège et éducation,,18/02/2004,propriétaire,44.547314,-0.881478
BLAYE CRD-SIEGE,S0157,BLAYE CRD-SIEGE S0157,,87978,05 Mobilité,,16/06/2000,propriétaire,,
BAZAS GIE,S0290,BAZAS GIE S0290,8 Route de Sauviac 33430 Bazas,88142,06 Performance de collectivité,,16/06/2000,propriétaire,44.424037,-0.206763
LANTON GARE TAUSSAT,S1745,LANTON GARE TAUSSAT S1745,"Allée du Jasmin, LOTISSEMENT LA FERME DE TAUSSAT 33138 Lanton",1169904,06 Performance de collectivité,,03/06/2010,propriétaire,44.724482,-1.06682
BLAYE EMBARCADERE,S1793,BLAYE EMBARCADERE S1793,Allée Marines 33390 Blaye,1354306,05 Mobilité,,20/02/2014,locataire,45.12365,-0.665183
PESSAC CLG F.MITTERRAND,S0106,PESSAC CLG F.MITTERRAND S0106,11 Rue André Chénier 33600 Pessac,87169,03 Collège et éducation,,16/06/2000,propriétaire,44.791584,-0.64508
RAUZAN CLG PIERRE-MARTIN,S0269,RAUZAN CLG PIERRE-MARTIN S0269,LE FAURE 33420 Rauzan,87236,03 Collège et éducation,,16/06/2000,propriétaire,44.77779,-0.117021
MERIGNAC GYMNASE BOURRAN,S0080,MERIGNAC GYMNASE BOURRAN S0080,153 Avenue de la Marne 33700 Mérignac,88082,03 Collège et éducation,,16/06/2000,propriétaire,44.835685,-0.633627
VILLENAVE-D'ORNON CLG PONT-DE-LA-MAYE,S0319,VILLENAVE-D'ORNON CLG PONT-DE-LA-MAYE S0319,,87250,03 Collège et éducation,,16/06/2000,propriétaire,,
VERAC CLG LEO-DROUYN,S0164,VERAC CLG LEO-DROUYN S0164,1 Tour de Vérac 33240 Vérac,87192,03 Collège et éducation,,16/06/2000,propriétaire,44.992086,-0.339968
STE-FOY-LA-GRANDE MDSI,S0277,STE-FOY-LA-GRANDE MDSI S0277,85 BIS Rue Waldeck Rousseau 33220 Sainte-Foy-la-Grande,87238,08 Solidarité autonomie et santé,,16/06/2000,propriétaire,44.840894,0.219917
LA-REOLE IMPOTS CENTRE,S0260,LA-REOLE IMPOTS CENTRE S0260,10 Place Albert Rigoulet 33190 La Réole,88063,06 Performance de collectivité,,16/06/2000,propriétaire,44.580797,-0.04435
LUSSAC GIE,S0207,LUSSAC GIE S0207,9001 Cours des Girondins 33570 Lussac,87994,06 Performance de collectivité,,16/06/2000,propriétaire,44.950845,-0.097656
BORDEAUX C.I.O,S1559,BORDEAUX C.I.O S1559,39 Cours de Verdun 33000 Bordeaux,772162,03 Collège et éducation,,12/08/2003,proprietaire et bailleur,44.850458,-0.574831
LA-TESTE-DE-BUCH CDL DUNE-DU-PILAT,S0694,LA-TESTE-DE-BUCH CDL DUNE-DU-PILAT S0694,La Teste-de-Buch,97434,07 Protection valorisation environnement,,12/02/2001,locataire,44.632214,-1.146050
BIGANOS CDL ILE-DE-MALPRAT,S0700,BIGANOS CDL ILE-DE-MALPRAT S0700,Ile de Malprat 33380 Biganos,97396,07 Protection valorisation environnement,,09/02/2001,locataire,44.654377,-1.016618
VENSAC FORET LEDE-DE-MONTALIVET,S0835,VENSAC FORET LEDE-DE-MONTALIVET S0835,Gayac 33590 Vensac,97634,07 Protection valorisation environnement,,18/07/2001,propriétaire,45.408115,-1.025622
CEZAC CONDUITE-EAU-BLAYAIS,S0802,CEZAC CONDUITE-EAU-BLAYAIS S0802,Bousquet 33620 Cézac,97564,05 Mobilité,,22/05/2001,locataire,45.077783,-0.380823
SALLES DFCI,S0759,SALLES DFCI S0759,"Au Pas de Pajot, RESIDENCE BEAU SITE 33770 Salles",97519,07 Protection valorisation environnement,,10/04/2001,propriétaire,44.549144,-0.878391
BAZAS EX-MDSI,S0285,BAZAS EX-MDSI S0285,Rue Taillade 33430 Bazas,87240,06 Performance de collectivité,,16/06/2000,propriétaire,44.431941,-0.208365
ARES AS,S0558,ARES AS S0558,,87562,08 Solidarité autonomie et santé,,16/06/2000,locataire,,
ARES GIE,S0121,ARES GIE S0121,36 Avenue de la Gare 33740 Arès,88140,06 Performance de collectivité,,16/06/2000,propriétaire,44.767465,-1.135104
TARGON PERM,S1786,TARGON PERM S1786,20 Rue Grand'Rue 33760 Targon,1342765,08 Solidarité autonomie et santé,,08/10/2013,locataire,44.734117,-0.263718
MIOS GARE,S1682,MIOS GARE S1682,,978710,06 Performance de collectivité,,07/11/2007,propriétaire,,
LES-SALLES-DE-CASTILLON CRD-AIRE,S1671,LES-SALLES-DE-CASTILLON CRD-AIRE S1671,,977777,05 Mobilité,,18/09/2007,propriétaire,,
LANTON POLE TERRITORIAL,S1759,LANTON POLE TERRITORIAL S1759,1 Rue Transversale 33138 Lanton,1179927,08 Solidarité autonomie et santé,,27/10/2010,propriétaire,44.704896,-1.033857
VALEYRAC PORT GOULEE,S0770,VALEYRAC PORT GOULEE S0770,Route de Valeyrac 33340 Valeyrac,97553,05 Mobilité,,20/04/2001,propriétaire,45.387626,-0.904741
BORDEAUX DFCI SDIS,S0746,BORDEAUX DFCI SDIS S0746,22 Boulevard Pierre 1er 33000 Bordeaux,97506,07 Protection valorisation environnement,,10/04/2001,propriétaire,44.854857,-0.592535
HOURTIN DFCI,S0752,HOURTIN DFCI S0752,1 Rue du Château d'Eau 33990 Naujac-sur-Mer,97512,07 Protection valorisation environnement,,10/04/2001,propriétaire,45.251915,-1.029419
BORDEAUX CLG CHEVERUS,S0003,BORDEAUX CLG CHEVERUS S0003,62 Rue Fieffé 33800 Bordeaux,87134,03 Collège et éducation,,16/06/2000,propriétaire,44.823834,-0.561498
MERIGNAC CLG JULES-FERRY,S0077,MERIGNAC CLG JULES-FERRY S0077,,87155,03 Collège et éducation,,16/06/2000,propriétaire,,
GRADIGNAN CLG ALFRED-MAUGUIN,S0140,GRADIGNAN CLG ALFRED-MAUGUIN S0140,,87185,03 Collège et éducation,,16/06/2000,propriétaire,,
BEGLES CLG BERTHELOT,S0227,BEGLES CLG BERTHELOT S0227,25 Rue Berthelot 33130 Bègles,87220,03 Collège et éducation,,16/06/2000,propriétaire,44.807581,-0.566948
LA-REOLE CLG PAUL-ESQUINANCE,S0257,LA-REOLE CLG PAUL-ESQUINANCE S0257,,87233,03 Collège et éducation,,16/06/2000,propriétaire,,
LE-BOUSCAT CLG JEAN-MOULIN,S0471,LE-BOUSCAT CLG JEAN-MOULIN S0471,1 Rue Président Ali Chekkal 33110 Le Bouscat,87262,03 Collège et éducation,,16/06/2000,propriétaire,44.863496,-0.60489
BELIN-BELIET AS,S0130,BELIN-BELIET AS S0130,28 Route de Suzon 33830 Belin-Béliet,87515,08 Solidarité autonomie et santé,,16/06/2000,propriétaire,44.501377,-0.784958
BLANQUEFORT AS LE-CLOS,S0498,BLANQUEFORT AS LE-CLOS S0498,2 Rue Tastet Girard 33290 Blanquefort,87538,08 Solidarité autonomie et santé,,16/06/2000,locataire,44.91008,-0.635182
BELLEBAT CRD-CE,S0371,BELLEBAT CRD-CE S0371,"Route de la Sauve, BASSET 33760 Bellebat",87977,05 Mobilité,,16/06/2000,propriétaire,44.745207,-0.229695
GUJAN-MESTRAS GIE,S0128,GUJAN-MESTRAS GIE S0128,9011 Avenue de Cesarée 33470 Gujan-Mestras,87984,06 Performance de collectivité,,16/06/2000,propriétaire,44.624289,-1.072693
MACAU GIE,S0047,MACAU GIE S0047,37 Avenue du Général de Gaulle 33460 Macau,87995,06 Performance de collectivité,,16/06/2000,propriétaire,45.006205,-0.619561
ST-CIERS-SUR-GIRONDE GIE,S0175,ST-CIERS-SUR-GIRONDE GIE S0175,1 Avenue de la République 33820 Saint-Ciers-sur-Gironde,88005,06 Performance de collectivité,,16/06/2000,propriétaire,45.293816,-0.616865
BLASIMON BASE-SPORTS-ET-LOISIRS,S0274,BLASIMON BASE-SPORTS-ET-LOISIRS S0274,5398 Fillenarde 33540 Blasimon,88035,02 Cohésion vie sociale et épanouissement,,16/06/2000,propriétaire,44.756984,-0.090487
MARTILLAC CENTRE-DE-RESSOURCES,S0301,MARTILLAC CENTRE-DE-RESSOURCES S0301,,88075,04 Economie solidaire,,16/06/2000,propriétaire,,
MONSEGUR CRD-CE,S0263,MONSEGUR CRD-CE S0263,34 Route des Sources 33580 Monségur,88127,05 Mobilité,,16/06/2000,propriétaire,44.642522,0.077673
BORDEAUX GIE JUDAIQUE,S0063,BORDEAUX GIE JUDAIQUE S0063,200 Rue Judaïque 33000 Bordeaux,88148,06 Performance de collectivité,,16/06/2000,propriétaire,44.840509,-0.593846
LA-TESTE-DE-BUCH CDL CAMICAS,S0573,LA-TESTE-DE-BUCH CDL CAMICAS S0573,La Teste-de-Buch,88304,07 Protection valorisation environnement,,19/09/2000,locataire,44.632214,-1.146050
LA-TESTE-DE-BUCH ENS L'EDEN,S0578,LA-TESTE-DE-BUCH ENS L'EDEN S0578,La Teste-de-Buch,88322,07 Protection valorisation environnement,,19/09/2000,proprietaire et bailleur,44.632214,-1.146050
VERDELAIS PERM,S1784,VERDELAIS PERM S1784,3 Place des Allées 33490 Verdelais,1342763,08 Solidarité autonomie et santé,,08/10/2013,locataire,44.588275,-0.249777
STE-FOY-LA-GRANDE HM,S1619,STE-FOY-LA-GRANDE HM S1619,3 Avenue Ithier Gorin 33220 Sainte-Foy-la-Grande,783087,08 Solidarité autonomie et santé,,16/09/2004,proprietaire et bailleur,44.840936,0.212339
BLAYE LOGT 4-CLOS-LAMARTINE,S1769,BLAYE LOGT 4-CLOS-LAMARTINE S1769,4 Clos Lamartine 33390 Blaye,1243584,06 Performance de collectivité,,07/12/2011,locataire,45.130681,-0.658185
SAUVETERRE-DE-GUYENNE PERM,S1797,SAUVETERRE-DE-GUYENNE PERM S1797,4 Rue des Martyrs de la Résistance et de la Déportation 33540 Sauveterre-de-Guyenne,1363825,08 Solidarité autonomie et santé,,16/10/2014,locataire,44.694117,-0.082937
ANDERNOS-LES-BAINS PERM,S1649,ANDERNOS-LES-BAINS PERM S1649,260 Boulevard de la République 33510 Andernos-les-Bains,888376,08 Solidarité autonomie et santé,,11/09/2006,locataire,44.743826,-1.101799
MERIGNAC ESPE BOURRAN,S0071,MERIGNAC ESPE BOURRAN S0071,,9148,03 Collège et éducation,,13/07/1999,propriétaire,,
PLASSAC VILLA-GALLO-ROMAINE,S1565,PLASSAC VILLA-GALLO-ROMAINE S1565,Rue de Chardonnet 33390 Plassac,772453,02 Cohésion vie sociale et épanouissement,,09/10/2003,proprietaire et bailleur,45.102826,-0.646036
VENSAC ENS MARAIS-DU-GUA,S0641,VENSAC ENS MARAIS-DU-GUA S0641,Gayac 33590 Vensac,97443,07 Protection valorisation environnement,,12/02/2001,propriétaire,45.408115,-1.025622
LACANAU CDL MAISON-DU-PONT-DU-CANAL,S0638,LACANAU CDL MAISON-DU-PONT-DU-CANAL S0638,Les As 33680 Lacanau,97410,07 Protection valorisation environnement,,09/02/2001,locataire,45.000428,-1.183289
LE-TEICH CDL DELTA-DE-LA-LEYRE,S0679,LE-TEICH CDL DELTA-DE-LA-LEYRE S0679,Le Teich,97427,07 Protection valorisation environnement,,09/02/2001,locataire,44.633088,-1.024917
BORDEAUX PERM,S0628,BORDEAUX PERM S0628,392 Rue Pasteur 33200 Bordeaux,97346,08 Solidarité autonomie et santé,,17/11/2000,locataire,44.846796,-0.629373
LEGE-CAP-FERRET ENS LE-GRAND-CROHOT,S0676,LEGE-CAP-FERRET ENS LE-GRAND-CROHOT S0676,Lège-Cap-Ferret,97386,07 Protection valorisation environnement,,09/02/2001,propriétaire,44.792671,-1.146498
LACANAU FORET BAGANNAIS-SUD,S0830,LACANAU FORET BAGANNAIS-SUD S0830,Les As 33680 Lacanau,97627,07 Protection valorisation environnement,,18/07/2001,propriétaire,45.000428,-1.183289
VENSAC ENS PRAIRIES-DE-VENSAC,S0783,VENSAC ENS PRAIRIES-DE-VENSAC S0783,Gayac 33590 Vensac,97527,07 Protection valorisation environnement,,19/04/2001,propriétaire,45.408115,-1.025622
LE-VERDON-SUR-MER CDL DUNE-DE-GRAVE,S0797,LE-VERDON-SUR-MER CDL DUNE-DE-GRAVE S0797,Le Verdon-sur-Mer,97536,07 Protection valorisation environnement,,20/04/2001,proprietaire et bailleur,45.545943,-1.061689
ARES DFCI,S0740,ARES DFCI S0740,21 Avenue de Bordeaux 33740 Arès,97492,07 Protection valorisation environnement,,09/03/2001,propriétaire,44.769008,-1.136569
ST-SAVIN-DE-BLAYE DFCI,S0756,ST-SAVIN-DE-BLAYE DFCI S0756,7 Rue du Château d'Eau 33920 Saint-Savin,97516,07 Protection valorisation environnement,,10/04/2001,propriétaire,45.139094,-0.439413
MERIGNAC CLG BOURRAN,S0078,MERIGNAC CLG BOURRAN S0078,Rue Léo Lagrange 33700 Mérignac,87156,03 Collège et éducation,,16/06/2000,propriétaire,44.836709,-0.635195
BLAYE CLG SÉBASTIEN-VAUBAN,S0156,BLAYE CLG SÉBASTIEN-VAUBAN S0156,9 Rue du Docteur Boutin 33390 Blaye,87190,03 Collège et éducation,,16/06/2000,propriétaire,45.124644,-0.658064
LORMONT CLG MICHEL-MONTAIGNE,S0223,LORMONT CLG MICHEL-MONTAIGNE S0223,1 Rue Michel de Montaigne 33310 Lormont,87218,03 Collège et éducation,,16/06/2000,propriétaire,44.871413,-0.516374
PESSAC AS MACEDO,S0503,PESSAC AS MACEDO S0503,,87543,08 Solidarité autonomie et santé,,16/06/2000,locataire,,
ST-EMILION GIE,S0204,ST-EMILION GIE S0204,Avenue de Saint-Émilion 33330 Saint-Sulpice-de-Faleyrens,88006,06 Performance de collectivité,,16/06/2000,propriétaire,44.874731,-0.182174
PESSAC LABO-VETERINAIRE,S0453,PESSAC LABO-VETERINAIRE S0453,33 Avenue du Docteur Albert Schweitzer 33600 Pessac,88086,06 Performance de collectivité,,16/06/2000,locataire,44.805754,-0.608422
CARCANS GIE,S0033,CARCANS GIE S0033,5 Route de Hourtin 33121 Carcans,88155,06 Performance de collectivité,,16/06/2000,propriétaire,45.079104,-1.046154
BORDEAUX PARKING FRONT-DU-MEDOC,S0609,BORDEAUX PARKING FRONT-DU-MEDOC S0609,Rue Robert Lateulade 33000 Bordeaux,88445,06 Performance de collectivité,,19/10/2000,locataire,44.839155,-0.586273
SAUCATS MEMORIAL FERME-RICHEMONT,S1620,SAUCATS MEMORIAL FERME-RICHEMONT S1620,GIEU 33650 Saucats,785596,02 Cohésion vie sociale et épanouissement,,14/04/2005,propriétaire,44.655878,-0.587479
LIBOURNE HM FOCH,S1637,LIBOURNE HM FOCH S1637,Avenue du Maréchal Foch 33500 Libourne,802960,08 Solidarité autonomie et santé,,11/10/2005,locataire,44.923195,-0.240987
MIOS ENS RIVES-DE-LA-LEYRE-ET-DU-LACANAU,S1804,MIOS ENS RIVES-DE-LA-LEYRE-ET-DU-LACANAU S1804,Regues du Magre 33380 Mios,1364065,07 Protection valorisation environnement,,28/11/2014,propriétaire,44.612419,-0.955468
AMBARES-ET-LAGRAVE MDSI,S1733,AMBARES-ET-LAGRAVE MDSI S1733,2 Rue Louis Massina 33440 Ambarès-et-Lagrave,1008098,08 Solidarité autonomie et santé,,04/06/2009,propriétaire,44.927327,-0.487867
BORDEAUX LOGT 40-RUE-DU-BOCAGE,S1741,BORDEAUX LOGT 40-RUE-DU-BOCAGE S1741,40 Rue du Bocage 33200 Bordeaux,1169718,06 Performance de collectivité,,18/05/2010,proprietaire et bailleur,44.852845,-0.599225
LORMONT VERCORS,S1782,LORMONT VERCORS S1782,1 Allée du Vercors 33310 Lormont,1342747,08 Solidarité autonomie et santé,,01/10/2013,locataire,44.875567,-0.51985
ST-CIERS-SUR-GIRONDE PORT CALLONGES,S0772,ST-CIERS-SUR-GIRONDE PORT CALLONGES S0772,Saint-Ciers-sur-Gironde,97556,05 Mobilité,,20/04/2001,propriétaire,45.290007,-0.611345
BELIN-BELIET DFCI,S0741,BELIN-BELIET DFCI S0741,1 Avenue Aliénor 33830 Belin-Béliet,97496,07 Protection valorisation environnement,,23/03/2001,propriétaire,44.492854,-0.791773
ST-JEAN-D'ILLAC DFCI,S0754,ST-JEAN-D'ILLAC DFCI S0754,191 Avenue de Bordeaux 33127 Saint-Jean-d'Illac,97514,07 Protection valorisation environnement,,10/04/2001,propriétaire,44.811055,-0.778277
LE-VERDON-SUR-MER ENS MARAIS-DU-CONSEILLER,S0795,LE-VERDON-SUR-MER ENS MARAIS-DU-CONSEILLER S0795,Le Verdon-sur-Mer,97523,07 Protection valorisation environnement,,19/04/2001,propriétaire,45.545943,-1.061689
BORDEAUX MDSI CAUDERAN,S0095,BORDEAUX MDSI CAUDERAN S0095,88 Rue Bellus Mareilhac 33200 Bordeaux,87163,08 Solidarité autonomie et santé,,16/06/2000,propriétaire,44.855538,-0.619779
PEUJARD CLG EMILE-DURKHEIM,S0167,PEUJARD CLG EMILE-DURKHEIM S0167,6 La Michère 33240 Peujard,87194,03 Collège et éducation,,16/06/2000,propriétaire,45.043746,-0.422177
AMBARES-ET-LAGRAVE CLG CLAUDE-MASSE,S0209,AMBARES-ET-LAGRAVE CLG CLAUDE-MASSE S0209,4 Avenue Pierre Barre 33440 Ambarès-et-Lagrave,87210,03 Collège et éducation,,16/06/2000,propriétaire,44.928319,-0.483032
LANGON CLG TOULOUSE-LAUTREC,S0306,LANGON CLG TOULOUSE-LAUTREC S0306,,87246,03 Collège et éducation,,16/06/2000,propriétaire,,
BORDEAUX ARCHIVES BALGUERIE-POYENNE,S0005,BORDEAUX ARCHIVES BALGUERIE-POYENNE S0005,Impasse Poyenne 33300 Bordeaux,88017,02 Cohésion vie sociale et épanouissement,,16/06/2000,propriétaire,44.856459,-0.566728
HOSTENS BASE-SPORTS-ET-LOISIRS,S0146,HOSTENS BASE-SPORTS-ET-LOISIRS S0146,Retis 33125 Hostens,88059,02 Cohésion vie sociale et épanouissement,,16/06/2000,propriétaire,44.46255,-0.692865
CASTELNAU-DE-MEDOC POLE-TERRITORIAL,S0008,CASTELNAU-DE-MEDOC POLE-TERRITORIAL S0008,1 Rue André Audubert 33480 Castelnau-de-Médoc,88116,08 Solidarité autonomie et santé,,16/06/2000,propriétaire,45.036559,-0.801087
BORDEAUX MDSI THIERS,S0236,BORDEAUX MDSI THIERS S0236,253 Avenue Thiers 33100 Bordeaux,88149,08 Solidarité autonomie et santé,,16/06/2000,propriétaire,44.84821,-0.546662
AUDENGE CDL DOMAINE-DE-CERTES,S0574,AUDENGE CDL DOMAINE-DE-CERTES S0574,47 Avenue de Certes 33980 Audenge,88303,07 Protection valorisation environnement,,19/09/2000,proprietaire et bailleur,44.692598,-1.021606
ANDERNOS-LES-BAINS CDL LE-CIRES,S0583,ANDERNOS-LES-BAINS CDL LE-CIRES S0583,Andernos-les-Bains,88320,07 Protection valorisation environnement,,19/09/2000,proprietaire et bailleur,44.742448,-1.090931
LE-VERDON-SUR-MER BACS ATELIERS-DTM,S1551,LE-VERDON-SUR-MER BACS ATELIERS-DTM S1551,Allée Teulère 33123 Le Verdon-sur-Mer,703087,05 Mobilité,,11/03/2003,propriétaire,45.564262,-1.064713
LESPARRE-MEDOC BDP RELAIS-DE-PRÊT,S1653,LESPARRE-MEDOC BDP RELAIS-DE-PRÊT S1653,Place du Maréchal Foch 33340 Lesparre-Médoc,893463,02 Cohésion vie sociale et épanouissement,,09/10/2006,locataire,45.306272,-0.936756
BLAYE MDSI,S0155,BLAYE MDSI S0155,,10258,08 Solidarité autonomie et santé,,13/07/1999,propriétaire,,
LEOGNAN MDSI,S0363,LEOGNAN MDSI S0363,15 Cours Gambetta 33850 Léognan,87258,08 Solidarité autonomie et santé,,16/06/2000,propriétaire,44.72865,-0.600966
TALAIS ENS-MARAIS DE TALAIS,S1810,TALAIS ENS-MARAIS DE TALAIS S1810,Route de Talais 33590 Grayan-et-l'Hôpital,1369434,07 Protection valorisation environnement,,31/08/2015,propriétaire,45.447306,-1.080429
GAURIAC CDL ILE-DU-NORD,S0707,GAURIAC CDL ILE-DU-NORD S0707,Bone 33710 Gauriac,97471,07 Protection valorisation environnement,,12/02/2001,locataire,45.06769,-0.616382
BORDEAUX AS BACALAN,S0560,BORDEAUX AS BACALAN S0560,211 Rue Naujac 33000 Bordeaux,87564,08 Solidarité autonomie et santé,,16/06/2000,propriétaire,44.850168,-0.593581
CADILLAC GIE,S0255,CADILLAC GIE S0255,,88152,06 Performance de collectivité,,16/06/2000,propriétaire,,
MERIGNAC DIVERS BOURRAN,S0595,MERIGNAC DIVERS BOURRAN S0595,151 Avenue de la Marne 33700 Mérignac,97340,07 Protection valorisation environnement,,09/11/2000,propriétaire,44.835499,-0.633436
LIBOURNE PRUDHOMMES,S0625,LIBOURNE PRUDHOMMES S0625,L'Estey Noir 33500 Arveyres,97337,06 Performance de collectivité,,09/11/2000,propriétaire,44.916624,-0.274707
GRIGNOLS DFCI,S0751,GRIGNOLS DFCI S0751,Route de Casteljaloux 33690 Grignols,97511,07 Protection valorisation environnement,,10/04/2001,propriétaire,44.386253,-0.042718
PAUILLAC MDSI,S0337,PAUILLAC MDSI S0337,5 Place Maréchal de Lattre de Tassigny 33250 Pauillac,87252,08 Solidarité autonomie et santé,,16/06/2000,propriétaire,45.200664,-0.747978
CESTAS FORET,S1801,CESTAS FORET S1801,Allée Combelonge 33610 Cestas,1363965,07 Protection valorisation environnement,,06/11/2014,propriétaire,44.776265,-0.69869
LA-REOLE CLIC,S1712,LA-REOLE CLIC S1712,3 Place Saint-Michel 33190 La Réole,1000675,08 Solidarité autonomie et santé,,20/02/2009,locataire,44.584557,-0.039141
CABANAC-ET-VILLAGRAINS DFCI,S0747,CABANAC-ET-VILLAGRAINS DFCI S0747,Route du Vieux Bourg 33650 Cabanac-et-Villagrains,97507,07 Protection valorisation environnement,,10/04/2001,propriétaire,44.569865,-0.591714
ANDERNOS-LES-BAINS CLG ANDRÉ-LAHAYE,S0111,ANDERNOS-LES-BAINS CLG ANDRÉ-LAHAYE S0111,1 Avenue de l'Espérance 33510 Andernos-les-Bains,87173,03 Collège et éducation,,16/06/2000,propriétaire,44.745953,-1.088021
CREON MDSI,S0372,CREON MDSI S0372,1 Chemin de la Douve 33670 Créon,87260,08 Solidarité autonomie et santé,,16/06/2000,propriétaire,44.775521,-0.35404
CARBON-BLANC AS,S0482,CARBON-BLANC AS S0482,1 Passage de l'École 33560 Carbon-Blanc,87522,08 Solidarité autonomie et santé,,16/06/2000,propriétaire,44.89526,-0.501644
LESPARRE-MEDOC GIE,S0023,LESPARRE-MEDOC GIE S0023,32 Cours Victor Hugo 33340 Lesparre-Médoc,87992,06 Performance de collectivité,,16/06/2000,propriétaire,45.30325,-0.930002
PAUILLAC MECS,S0470,PAUILLAC MECS S0470,Place de la République 33250 Pauillac,88022,08 Solidarité autonomie et santé,,16/06/2000,propriétaire,45.214544,-0.763818
BELIN-BELIET GIE,S0135,BELIN-BELIET GIE S0135,27 Avenue Aliénor 33830 Belin-Béliet,88144,06 Performance de collectivité,,16/06/2000,propriétaire,44.497306,-0.790191
GIRONDE SUR DROPT-RELAIS-BDP,S1813,GIRONDE SUR DROPT-RELAIS-BDP S1813,,1378414,02 Cohésion vie sociale et épanouissement,,30/12/2015,locataire,,
LES-EGLISOTTES CRD-AIRE,S1696,LES-EGLISOTTES CRD-AIRE S1696,La Combe 33230 Les Églisottes-et-Chalaures,989059,05 Mobilité,,10/09/2008,propriétaire,45.087406,-0.05641
BORDEAUX-ST-JEAN AGI MANAGER,S0623,BORDEAUX-ST-JEAN AGI MANAGER S0623,23 Quai de Paludate 33800 Bordeaux,97352,08 Solidarité autonomie et santé,,17/11/2000,locataire,44.829426,-0.555214
BORDEAUX CLG ANNEXE-ALIENOR-AQUITAINE,S0551,BORDEAUX CLG ANNEXE-ALIENOR-AQUITAINE S0551,Place André Meunier dit Mureine 33800 Bordeaux,87315,03 Collège et éducation,,16/06/2000,propriétaire,44.829449,-0.561949
BORDEAUX PARC MATERIEL-SCHINAZI,S0054,BORDEAUX PARC MATERIEL-SCHINAZI S0054,235 Avenue du Docteur Schinazi 33300 Bordeaux,88112,05 Mobilité,,16/06/2000,propriétaire,44.881756,-0.54235
BORDEAUX CLG ALIENOR-D'AQUITAINE,S1756,BORDEAUX CLG ALIENOR-D'AQUITAINE S1756,,1179924,03 Collège et éducation,,27/10/2010,propriétaire,,
BASSENS AS,S0220,BASSENS AS S0220,20 Avenue Lamartine 33530 Bassens,87215,08 Solidarité autonomie et santé,,16/06/2000,propriétaire,44.904406,-0.514696
ST-SYMPHORIEN GIE,S0148,ST-SYMPHORIEN GIE S0148,4 Avenue Jean Jaurès 33113 Saint-Symphorien,88009,06 Performance de collectivité,,16/06/2000,propriétaire,44.429107,-0.483119
ST-LAURENT-DU-MEDOC CRD-CE,S0028,ST-LAURENT-DU-MEDOC CRD-CE S0028,3 Route de Saint-Sauveur 33112 Saint-Laurent-Médoc,88130,05 Mobilité,,16/06/2000,propriétaire,45.156623,-0.816254
PESSAC AS FORMANOIR,S0610,PESSAC AS FORMANOIR S0610,3 Rue des Hortensias 33600 Pessac,97350,08 Solidarité autonomie et santé,,17/11/2000,locataire,44.792256,-0.632141
LAMARQUE PORT PASSAGE-D'EAU,S0784,LAMARQUE PORT PASSAGE-D'EAU S0784,,97552,05 Mobilité,,20/04/2001,propriétaire,,
LE-TEICH CLG,S0369,LE-TEICH CLG S0369,Avenue François Mitterrand 33470 Le Teich,87259,03 Collège et éducation,,16/06/2000,propriétaire,44.623857,-1.02669
MERIGNAC DOMAINE JEAN-SANGO,S0081,MERIGNAC DOMAINE JEAN-SANGO S0081,,88081,06 Performance de collectivité,,16/06/2000,propriétaire,,
ARES CDL RESERVOIRS-D'ARES,S0798,ARES CDL RESERVOIRS-D'ARES S0798,Rue Coste 33740 Arès,97531,07 Protection valorisation environnement,,19/04/2001,propriétaire,44.762522,-1.138294
ROYAN BACS,S1611,ROYAN BACS S1611,Quai des Sabliers 17200 Royan,226258,05 Mobilité,,28/01/2002,locataire,45.617933,-1.030293
LESPARRE-MEDOC MDSI,S0019,LESPARRE-MEDOC MDSI S0019,21 Rue du Palais de Justice 33340 Lesparre-Médoc,87138,08 Solidarité autonomie et santé,,16/06/2000,propriétaire,45.307908,-0.938854
BORDEAUX MDAC,S0094,BORDEAUX MDAC S0094,97 Rue Saint-Gènes 33000 Bordeaux,88052,06 Performance de collectivité,,16/06/2000,propriétaire,44.827172,-0.580337
LOUCHATS FORET,S1802,LOUCHATS FORET S1802,Cournau 33125 Louchats,1364025,07 Protection valorisation environnement,,25/11/2014,propriétaire,44.523918,-0.594719
BLANQUEFORT PERM,S1705,BLANQUEFORT PERM S1705,11 Rue de la République 33290 Blanquefort,994829,08 Solidarité autonomie et santé,,12/12/2008,locataire,44.909445,-0.633923
BORDEAUX AS SON-TAY,S0512,BORDEAUX AS SON-TAY S0512,47 Rue de Son Tay 33800 Bordeaux,87551,08 Solidarité autonomie et santé,,16/06/2000,locataire,44.825055,-0.551832
CANEJAN PERM,S1785,CANEJAN PERM S1785,2 Chemin de Barbicadge 33610 Canéjan,1342764,08 Solidarité autonomie et santé,,08/10/2013,locataire,44.763196,-0.653447
PAUILLAC CLG PIERRE-DE-BELLEYME,S0025,PAUILLAC CLG PIERRE-DE-BELLEYME S0025,Rue Édouard de Pontet 33250 Pauillac,87140,03 Collège et éducation,,16/06/2000,propriétaire,45.201981,-0.749342
ETAULIERS CONDUITE-EAU-BLAYAIS,S0804,ETAULIERS CONDUITE-EAU-BLAYAIS S0804,La Comteau Nord Est 33820 Étauliers,97566,05 Mobilité,,22/05/2001,locataire,45.217874,-0.568629
ST-JEAN-D'ILLAC CLG L'ESTEY,S1581,ST-JEAN-D'ILLAC CLG L'ESTEY S1581,2200 Avenue du Las 33127 Saint-Jean-d'Illac,773719,03 Collège et éducation,,18/02/2004,propriétaire,44.805635,-0.80767
MARCHEPRIME PERM,S1799,MARCHEPRIME PERM S1799,Rue Jacques Blieck 33380 Marcheprime,1363827,08 Solidarité autonomie et santé,,16/10/2014,locataire,44.693146,-0.851316
CESTAS CLG CANTELANDE,S0139,CESTAS CLG CANTELANDE S0139,1 Chemin des Sources 33610 Cestas,87184,03 Collège et éducation,,16/06/2000,propriétaire,44.758089,-0.688267
BORDEAUX CLG MONSÉJOUR,S0097,BORDEAUX CLG MONSÉJOUR S0097,7 Rue du Chanoine André Lacaze 33200 Bordeaux,87165,03 Collège et éducation,,16/06/2000,propriétaire,44.856214,-0.630392
FLOIRAC CLG GEORGES-RAYET,S0248,FLOIRAC CLG GEORGES-RAYET S0248,,87227,03 Collège et éducation,,16/06/2000,propriétaire,,
BORDEAUX MDSI GRAND-PARC,S0048,BORDEAUX MDSI GRAND-PARC S0048,63 Rue Godard Caud 33200 Bordeaux,87146,08 Solidarité autonomie et santé,,16/06/2000,propriétaire,44.855467,-0.606167
BORDEAUX MDPH RAVEZIES,S1642,BORDEAUX MDPH RAVEZIES S1642,,886397,08 Solidarité autonomie et santé,,15/06/2006,proprietaire et bailleur,,
GUJAN-MESTRAS PORT,S0776,GUJAN-MESTRAS PORT S0776,Golf de Gujan Mestras 33470 Gujan-Mestras,97542,05 Mobilité,,20/04/2001,propriétaire,44.603579,-1.092333
CADAUJAC ENS BOCAGE-DE-GARONNE,S0572,CADAUJAC ENS BOCAGE-DE-GARONNE S0572,,88316,07 Protection valorisation environnement,,19/09/2000,propriétaire,,
BRUGES ENS LES-MARAIS-DE-BRUGES,S1789,BRUGES ENS LES-MARAIS-DE-BRUGES S1789,Rue des Écoles 33520 Bruges,1348056,07 Protection valorisation environnement,,13/11/2013,propriétaire,44.880017,-0.588749
BORDEAUX CLG FRANCISCO-GOYA,S0091,BORDEAUX CLG FRANCISCO-GOYA S0091,,87161,03 Collège et éducation,,16/06/2000,propriétaire,,
STE-EULALIE CLG FRANÇOIS-MAURIAC,S0348,STE-EULALIE CLG FRANÇOIS-MAURIAC S0348,33 Rue du Professeur Georges Portmann 33560 Sainte-Eulalie,87256,03 Collège et éducation,,16/06/2000,propriétaire,44.902475,-0.472231
VILLEGOUGE GIE,S0165,VILLEGOUGE GIE S0165,Fourquet 33141 Villegouge,88015,06 Performance de collectivité,,16/06/2000,propriétaire,44.968478,-0.305788
CASTRES-GIRONDE GIE,S0302,CASTRES-GIRONDE GIE S0302,46 Rue du Président Carnot 33640 Castres-Gironde,88157,06 Performance de collectivité,,16/06/2000,propriétaire,44.69619,-0.442705
LANGON AS,S1613,LANGON AS S1613,,784959,08 Solidarité autonomie et santé,,19/01/2005,locataire,,
GREZILLAC CRD-AIRE,S1592,GREZILLAC CRD-AIRE S1592,Chemin Neuf 33420 Grézillac,774145,05 Mobilité,,30/03/2004,locataire,44.828678,-0.194726
LACANAU CDL VIRE-VIEILLE,S0637,LACANAU CDL VIRE-VIEILLE S0637,Les As 33680 Lacanau,97409,07 Protection valorisation environnement,,09/02/2001,locataire,45.000428,-1.183289
GUJAN-MESTRAS PORT LARROS,S0790,GUJAN-MESTRAS PORT LARROS S0790,Golf de Gujan Mestras 33470 Gujan-Mestras,97543,05 Mobilité,,20/04/2001,propriétaire,44.603579,-1.092333
CARCANS DFCI,S0749,CARCANS DFCI S0749,2 Route de Hourtin 33121 Carcans,97509,07 Protection valorisation environnement,,10/04/2001,propriétaire,45.07992,-1.046017
MONSEGUR GIE,S0266,MONSEGUR GIE S0266,1 Rue de l'Hôpital 33580 Monségur,87997,06 Performance de collectivité,,16/06/2000,propriétaire,44.651115,0.083326
LUGOS ENS BRAN-ET-MARTINET,S1641,LUGOS ENS BRAN-ET-MARTINET S1641,Brana 33830 Lugos,801454,07 Protection valorisation environnement,,23/09/2005,propriétaire,44.479667,-0.870562
BRAUD-ET-ST-LOUIS CONDUITE-EAU-BLAYAIS,S0800,BRAUD-ET-ST-LOUIS CONDUITE-EAU-BLAYAIS S0800,Peynaud 33820 Braud-et-Saint-Louis,97562,05 Mobilité,,22/05/2001,locataire,45.248983,-0.620343
LIBOURNE EX-MDSI,S0191,LIBOURNE EX-MDSI S0191,7 Avenue du Maréchal Foch 33500 Libourne,87202,06 Performance de collectivité,,16/06/2000,propriétaire,44.919947,-0.24211
LA-SAUVE CRD-AIRE,S0242,LA-SAUVE CRD-AIRE S0242,Peyrat 33670 La Sauve,88120,05 Mobilité,,16/06/2000,propriétaire,44.77383,-0.302565
BORDEAUX ESPE CAUDERAN,S0602,BORDEAUX ESPE CAUDERAN S0602,49 Rue de l'École Normale 33200 Bordeaux,88476,03 Collège et éducation,,27/10/2000,propriétaire,44.847886,-0.602119
LANTON PORT TAUSSAT,S0774,LANTON PORT TAUSSAT S0774,BLAGON 33138 Lanton,97549,05 Mobilité,,20/04/2001,propriétaire,44.784522,-0.934588
CAPTIEUX ETAT,S1767,CAPTIEUX ETAT S1767,Route de Giscos 33840 Captieux,1243527,06 Performance de collectivité,,30/11/2011,propriétaire,44.292348,-0.251127
COMPS CRD-AIRE,S1716,COMPS CRD-AIRE S1716,,1007395,05 Mobilité,,15/05/2009,propriétaire,,
BORDEAUX CLG GRAND-PARC,S0049,BORDEAUX CLG GRAND-PARC S0049,25 Rue Pierre Trebod 33300 Bordeaux,87147,03 Collège et éducation,,16/06/2000,propriétaire,44.856224,-0.583442
BORDEAUX ALLIANZ,S0531,BORDEAUX ALLIANZ S0531,,88049,06 Performance de collectivité,,16/06/2000,locataire,,
BORDEAUX MDSANTE JULES-FERRY,S0101,BORDEAUX MDSANTE JULES-FERRY S0101,84 Rue Jules Ferry 33200 Bordeaux,88039,08 Solidarité autonomie et santé,,16/06/2000,locataire,44.842434,-0.604591
BLASIMON CRD-AIRE,S1775,BLASIMON CRD-AIRE S1775,3 Monjat 33540 Blasimon,1262261,05 Mobilité,,19/07/2012,locataire,44.734935,-0.068628
BORDEAUX CLG JACQUES-ELLUL,S0233,BORDEAUX CLG JACQUES-ELLUL S0233,,87223,03 Collège et éducation,,16/06/2000,propriétaire,,
LAPOUYADE CRD-AIRE,S1695,LAPOUYADE CRD-AIRE S1695,Lamet 33620 Lapouyade,989057,05 Mobilité,,09/09/2008,propriétaire,45.080748,-0.284403
ST-VIVIEN-DE-MEDOC PORT LA-CANAU-DEU-GUA,S0771,ST-VIVIEN-DE-MEDOC PORT LA-CANAU-DEU-GUA S0771,Saint-Vivien-de-Médoc,97555,05 Mobilité,,20/04/2001,propriétaire,45.429637,-1.036538
BORDEAUX CLG LA-BENATTE,S0342,BORDEAUX CLG LA-BENATTE S0342,51 Rue de la Benatte 33000 Bordeaux,87253,03 Collège et éducation,,16/06/2000,propriétaire,44.844365,-0.593844
BORDEAUX CLG ST-ANDRÉ,S0092,BORDEAUX CLG ST-ANDRÉ S0092,,87162,03 Collège et éducation,,16/06/2000,propriétaire,,
LA-TESTE-DE-BUCH CRD-CE,S0626,LA-TESTE-DE-BUCH CRD-CE S0626,Avenue du Général de Gaulle 33260 La Teste-de-Buch,88468,05 Mobilité,,27/10/2000,locataire,44.640581,-1.192885
