OBJECTID,NOM,ID_IA45,ADRESSE,CODE_INSEE,CODE_POSTAL,COMMUNE,TYPE_ETAB,VALIDITE,PLACEMENT,X,Y,TELEPHONE,SITES_INTERNET
1,Ecole primaire publique Clos Vinot,0450556K,255 rue Frédéric-Chopin,45004,45200,AMILLY,Ecole primaire publique,Juillet 2012,Manuel,682699.5,6763908.9,02 38 28 76 76,http://www.education.gouv.fr/annuaire/45-loiret/amilly/etab/ecole-primaire-publique-clos-vinot.html
2,Ecole primaire publique Les Goths,0450558M,54 Rue du Pont d'Ardan,45004,45200,AMILLY,Ecole primaire publique,Juillet 2012,Géocodage,685498.5,6765179.4,02 38 85 39 78,http://www.education.gouv.fr/annuaire/45-loiret/amilly/etab/ecole-primaire-publique-les-goths.html
3,Ecole primaire publique Viroy,0451536A,160 Rue Aristide Briand,45004,45200,AMILLY,Ecole primaire publique,Juillet 2012,Géocodage,681664.9,6766272.1,02 38 85 36 54,http://www.education.gouv.fr/annuaire/45-loiret/amilly/etab/ecole-primaire-publique-viroy.html
4,Ecole primaire publique Saint-Firmin-des-Vignes,0450923J,68 rue des écoles,45004,45200,AMILLY,Ecole primaire publique,Juillet 2012,Manuel,682699.5,6763908.9,02 38 85 12 44,http://www.education.gouv.fr/annuaire/45-loiret/amilly/etab/ecole-primaire-publique-saint-firmin-des-vignes.html
5,Ecole primaire publique,0450371J,109 Route de la Ferté,45006,45160,ARDON,Ecole primaire publique,Juillet 2012,Manuel,615747.4,6743052.3,02 38 45 85 65,http://www.education.gouv.fr/annuaire/45-loiret/ardon/etab/ecole-primaire-publique.html
6,Ecole primaire publique,0450917C,9 Mail Ouest,45008,45410,ARTENAY,Ecole primaire publique,Juillet 2012,Géocodage,616417.25,6776532.85,02 38 80 00 82,http://www.education.gouv.fr/annuaire/45-loiret/artenay/etab/ecole-primaire-publique.html
7,Ecole primaire publique,0450868Z,31 Grande Rue,45009,45170,ASCHERES LE MARCHE,Ecole primaire publique,Juillet 2012,Géocodage,626186.6,6779064.4,02 38 39 23 61,http://www.education.gouv.fr/annuaire/45-loiret/ascheres-le-marche/etab/ecole-primaire-publique.html
8,Ecole primaire publique,0450646H,30 Rue de la Mi-voie,45010,45300,ASCOUX,Ecole primaire publique,Juillet 2012,Géocodage,644097,6781152.8,02 38 33 01 97,http://www.education.gouv.fr/annuaire/45-loiret/ascoux/etab/ecole-primaire-publique.html
9,Ecole primaire publique,0450632T,9 Rue de la Vallée,45014,45390,AULNAY LA RIVIERE,Ecole primaire publique,Juillet 2012,Géocodage,653835.4,6788535.7,02 38 33 92 38,http://www.education.gouv.fr/annuaire/45-loiret/aulnay-la-riviere/etab/ecole-primaire-publique.html
10,Ecole primaire publique,0451026W,2 Rue des Essarts,45015,45480,AUTRUY SUR JUINE,Ecole primaire publique,Juillet 2012,Géocodage,633198.5,6797659.1,02 38 32 52 16,http://www.education.gouv.fr/annuaire/45-loiret/autruy-sur-juine/etab/ecole-primaire-publique.html
11,Ecole primaire publique Grands,0450195T,Rue de la Mairie,45016,45500,AUTRY LE CHATEL,Ecole primaire publique,Juillet 2012,Géocodage,669942.3,6722548.3,02 38 36 82 62,http://www.education.gouv.fr/annuaire/45-loiret/autry-le-chatel/etab/ecole-primaire-publique-des-grands.html
12,Ecole primaire publique Petits,0450749V,Route de Châtillon,45016,45500,AUTRY LE CHATEL,Ecole primaire publique,Juillet 2012,Manuel,670042.7,6722201.9,02 38 36 81 88,http://www.education.gouv.fr/annuaire/45-loiret/autry-le-chatel/etab/ecole-primaire-publique-des-petits.html
13,Ecole primaire publique,0450378S,113 Rue de Mocquesouris,45019,45130,BACCON,Ecole primaire publique,Juillet 2012,Géocodage,597460.5,6755322.5,02 38 80 78 00,http://www.education.gouv.fr/annuaire/45-loiret/baccon/etab/ecole-primaire-publique.html
14,Ecole primaire publique,0450694K,6 Place de la Mairie,45022,45340,BATILLY EN GATINAIS,Ecole primaire publique,Juillet 2012,Géocodage,653881.8,6774972.9,02 38 33 29 40,http://www.education.gouv.fr/annuaire/45-loiret/batilly-en-gatinais/etab/ecole-primaire-publique.html
15,Ecole primaire publique Les Plésses,0451356E,4 Rue Pierre Gailly,45024,45130,BAULE,Ecole primaire publique,Juillet 2012,Géocodage,600703.15,6746328.45,02 38 44 39 20,http://www.education.gouv.fr/annuaire/45-loiret/baule/etab/ecole-primaire-publique-les-plesses.html
16,Ecole primaire publique,0450920F,2 Rue du Jeu de Paume,45025,45480,BAZOCHES LES GALLERANDES,Ecole primaire publique,Juillet 2012,Géocodage,628919.7,6785400.25,02 38 39 41 08,http://www.education.gouv.fr/annuaire/45-loiret/bazoches-les-gallerandes/etab/ecole-primaire-publique.html
17,Ecole primaire publique,0450567X,8 Rue des Etangs,45026,45210,BAZOCHES SUR LE BETZ,Ecole primaire publique,Juillet 2012,Géocodage,700469.15,6779543.45,02 38 96 81 72,http://www.education.gouv.fr/annuaire/45-loiret/bazoches-sur-le-betz/etab/ecole-primaire-publique.html
18,Ecole primaire privée Notre-Dame,0451543H,15 rue Porte Tavers,45028,45190,BEAUGENCY,Ecole primaire privée,Juillet 2012,Géocodage,597503.1,6742530.7,02 38 46 94 15,http://www.education.gouv.fr/annuaire/45-loiret/beaugency/etab/ecole-primaire-privee-notre-dame.html
19,Ecole primaire publique Du Mail,0450857M,2 Rue Bernasse,45028,45190,BEAUGENCY,Ecole primaire publique,Juillet 2012,Géocodage,597277,6742702.5,02 38 44 55 61,http://www.education.gouv.fr/annuaire/45-loiret/beaugency/etab/ecole-primaire-publique-mail.html
20,Ecole primaire publique Vallée du Rû,0450883R,10 Rue Julie Lour,45028,45190,BEAUGENCY,Ecole primaire publique,Juillet 2012,Géocodage,596940.1,6743558.05,02 38 44 55 38,http://www.education.gouv.fr/annuaire/45-loiret/beaugency/etab/ecole-primaire-publique-de-la-vallee-du-r.html
21,Ecole primaire publique Des Chaussées,0451312G,1 Rue de la Pierre Blanche,45028,45190,BEAUGENCY,Ecole primaire publique,Juillet 2012,Géocodage,596280.1,6743208.2,02 38 44 80 51,http://www.education.gouv.fr/annuaire/45-loiret/beaugency/etab/ecole-primaire-publique-les-chaussees.html
22,Ecole primaire publique,0451398A,15 Route de Châtillon,45029,45630,BEAULIEU SUR LOIRE,Ecole primaire publique,Juillet 2012,Manuel,686232.8,6715869.9,02 38 35 83 06,http://www.education.gouv.fr/annuaire/45-loiret/beaulieu-sur-loire/etab/ecole-primaire-publique.html
23,Ecole primaire publique Maurice Genevoix,0450927N,8 Rue des Roches,45030,45340,BEAUNE LA ROLANDE,Ecole primaire publique,Juillet 2012,Géocodage,658280.35,6774612.75,02 38 33 38 45,http://www.education.gouv.fr/annuaire/45-loiret/beaune-la-rolande/etab/ecole-primaire-publique-maurice-genevoix.html
24,Ecole primaire publique,0451027X,16 rue des Estivaux,45031,45270,BELLEGARDE,Ecole primaire publique,Juillet 2012,Géocodage,658329.9,6765735.55,02 38 90 10 85,http://www.education.gouv.fr/annuaire/45-loiret/bellegarde/etab/ecole-primaire-publique.html
25,Ecole primaire publique,0450633U,5 rue des Déportés,45033,45390,BOESSES,Ecole primaire publique,Juillet 2012,Manuel,658926.4,6783612.1,02 38 33 63 84,http://www.education.gouv.fr/annuaire/45-loiret/boesses/etab/ecole-elementaire-publique.html
26,Ecole primaire publique,0450919E,29 promenade Gasson,45258,45390,PUISEAUX,Ecole primaire publique,Juillet 2012,Géocodage,660526.45,6789578.2,02 38 33 53 74,http://www.education.gouv.fr/annuaire/45-loiret/puiseaux/etab/ecole-primaire-publique.html
27,Ecole primaire publique Montesquieu,0450410B,Place des Ecoles,45034,45760,BOIGNY SUR BIONNE,Ecole primaire publique,Juillet 2012,Manuel,626035.4,6758459.5,02 38 75 23 60,http://www.education.gouv.fr/annuaire/45-loiret/boigny-sur-bionne/etab/ecole-primaire-publique-montesquieu.html
28,Ecole primaire publique,0451149E,2 Mail Est,45035,45340,BOISCOMMUN,Ecole primaire publique,Juillet 2012,Manuel,654005.2,6770946,02 38 33 81 15,http://www.education.gouv.fr/annuaire/45-loiret/boiscommun/etab/ecole-primaire-publique.html
29,Ecole primaire publique,0450210J,Rue de la Mairie,45036,45290,BOISMORAND,Ecole primaire publique,Juillet 2012,Géocodage,679458.35,6742330,02 38 31 81 95,http://www.education.gouv.fr/annuaire/45-loiret/boismorand/etab/ecole-elementaire-publique.html
30,Ecole primaire publique,0450724T,Rue des écoles,45037,45480,BOISSEAUX,Ecole primaire publique,Juillet 2012,Manuel,624812.8,6795608.8,02 38 39 59 36,http://www.education.gouv.fr/annuaire/45-loiret/boisseaux/etab/ecole-primaire-publique.html
31,Ecole primaire publique,0450647J,8 Rue de la Mairie,45038,45300,BONDAROY,Ecole primaire publique,Juillet 2012,Géocodage,645874.128045,6786523.693206,02 38 30 34 89,http://www.education.gouv.fr/annuaire/45-loiret/bondaroy/etab/ecole-primaire-publique.html
32,Ecole primaire publique,0450140H,Place Général Bourdoncle de Saint-Salvy,45039,45460,BONNEE,Ecole primaire publique,Juillet 2012,Manuel,653897.3,6744248,02 38 29 01 10,http://www.education.gouv.fr/annuaire/45-loiret/bonnee/etab/ecole-primaire-publique.html
33,Ecole primaire publique,0450182D,2 Avenue de la Gare,45040,45120,BONNY SUR LOIRE,Ecole primaire publique,Juillet 2012,Géocodage,688097.4,6717726.9,02 38 31 63 57,http://www.education.gouv.fr/annuaire/45-loiret/bonny-sur-loire/etab/ecole-primaire-publique.html
34,Ecole primaire publique,0450411C,7 Place du Bourg,45043,45430,BOU,Ecole primaire publique,Juillet 2012,Géocodage,628737.1,6753108.6,02 38 91 30 51,http://www.education.gouv.fr/annuaire/45-loiret/bou/etab/ecole-primaire-publique.html
35,Ecole primaire publique,0450544X,17 Rue de la Mairie,45049,45460,BOUZY LA FORET,Ecole primaire publique,Juillet 2012,Géocodage,653473.6,6750264,02 38 58 30 07,http://www.education.gouv.fr/annuaire/45-loiret/bouzy-la-foret/etab/ecole-primaire-publique.html
36,Ecole primaire publique,0451119X,5 Route de Barville,45050,45300,BOYNES,Ecole primaire publique,Juillet 2012,Géocodage,652424.27364,6780168.287771,02 38 33 12 09,http://www.education.gouv.fr/annuaire/45-loiret/boynes/etab/ecole-primaire-publique.html
37,Ecole primaire publique,0451302W,Rue des écoles,45051,45460,BRAY EN VAL,Ecole primaire publique,Juillet 2012,Manuel,652502.7,6747819.4,02 38 35 58 18,http://www.education.gouv.fr/annuaire/45-loiret/bray-en-val/etab/ecole-primaire-publique.html
38,Ecole primaire privée Sainte-Anne,0451522K,5 rue des Grands Jardins,45053,45250,BRIARE,Ecole primaire privée,Juillet 2012,Géocodage,680295.675828,6726343.497258,02 38 31 26 48,http://www.education.gouv.fr/annuaire/45-loiret/briare/etab/ecole-primaire-privee-sainte-anne.html
39,Ecole primaire publique Gustave Eiffel,0450178Z,7 Rue de l'Espérance,45053,45250,BRIARE,Ecole primaire publique,Juillet 2012,Géocodage,680726.4,6725691.35,02 38 31 25 34,http://www.education.gouv.fr/annuaire/45-loiret/briare/etab/ecole-primaire-publique-gustave-eiffel.html
40,Ecole primaire publique Centre,0450869A,3 Square Foch,45053,45250,BRIARE,Ecole primaire publique,Juillet 2012,Géocodage,680353.8,6726733,02 38 31 26 49,http://www.education.gouv.fr/annuaire/45-loiret/briare/etab/ecole-primaire-publique-centre.html
41,Ecole primaire publique,0450634V,51 Rue de l'Ecole,45054,45390,BRIARRES SUR ESSONNE,Ecole primaire publique,Juillet 2012,Géocodage,657535.1,6792165.6,02 38 32 10 53,http://www.education.gouv.fr/annuaire/45-loiret/briarres-sur-essonne/etab/ecole-primaire-publique.html
42,Ecole primaire publique,0450912X,30 Rue de l'Orme Creux,45055,45310,BRICY,Ecole primaire publique,Juillet 2012,Géocodage,609096.398862,6767183.301811,02 38 75 32 83,http://www.education.gouv.fr/annuaire/45-loiret/bricy/etab/ecole-primaire-publique.html
43,Ecole primaire publique,0450918D,16 bis Rue de la Gare,45061,45120,CEPOY,Ecole primaire publique,Juillet 2012,Géocodage,681141.5,6771295.5,02 38 85 28 27,http://www.education.gouv.fr/annuaire/45-loiret/cepoy/etab/ecole-primaire-publique.html
44,Ecole primaire publique,0450453Y,Rue Louise Dubel,45062,45520,CERCOTTES,Ecole primaire publique,Juillet 2012,Géocodage,616693.8,6765606.1,02 38 75 40 58,http://www.education.gouv.fr/annuaire/45-loiret/cercottes/etab/ecole-primaire-publique.html
45,Ecole primaire publique,0451448E,21 Rue de Verdun,45063,45620,CERDON,Ecole primaire publique,Juillet 2012,Géocodage,652093.8,6726551.6,02 38 36 04 23,http://www.education.gouv.fr/annuaire/45-loiret/cerdon/etab/ecole-primaire-publique.html
46,Ecole primaire publique,0450127U,Au Bourg,45066,45260,CHAILLY EN GATINAIS,Ecole primaire publique,Juillet 2012,Manuel,665924.9,6760944.4,02 38 96 30 14,http://www.education.gouv.fr/annuaire/45-loiret/chailly-en-gatinais/etab/ecole-primaire-publique.html
47,Ecole primaire publique,0451554V,7 Rue de la Groue,45067,45380,CHAINGY,Ecole primaire publique,Juillet 2012,Géocodage,608434.9,6754561.3,02 38 80 65 79,http://www.education.gouv.fr/annuaire/45-loiret/chaingy/etab/ecole-primaire-publique.html
48,Ecole primaire publique Lancy,0451313H,54 Rue W. Rousseau,45068,45120,CHALETTE SUR LOING,Ecole primaire publique,Juillet 2012,Géocodage,680035.8,6769685.8,02 38 85 44 52,http://www.education.gouv.fr/annuaire/45-loiret/chalette-sur-loing/etab/ecole-primaire-publique-lancy.html
49,Ecole primaire publique Michel Moineau,0450478A,10 Rue Albert Camus,45068,45120,CHALETTE SUR LOING,Ecole primaire publique,Juillet 2012,Géocodage,678658.8,6767482.8,02 38 85 45 49,http://www.education.gouv.fr/annuaire/45-loiret/chalette-sur-loing/etab/ecole-primaire-publique-michel-moineau.html
50,Ecole primaire publique Vesines,0450486J,12 Rue des Ecoles,45068,45120,CHALETTE SUR LOING,Ecole primaire publique,Juillet 2012,Géocodage,678652,6768637.3,02 38 85 42 10,http://www.education.gouv.fr/annuaire/45-loiret/chalette-sur-loing/etab/ecole-primaire-publique-vesines.html
51,Ecole primaire publique Vivier Boutet,0451525N,19 Rue Gambetta,45068,45120,CHALETTE SUR LOING,Ecole primaire publique,Juillet 2012,Géocodage,679965.4,6768028.2,02 38 85 14 39,http://www.education.gouv.fr/annuaire/45-loiret/chalette-sur-loing/etab/ecole-primaire-publique-vivier-boutet.html
52,Ecole primaire publique,0451289G,Chemin des Ecoliers,45072,45400,CHANTEAU,Ecole primaire publique,Juillet 2012,Géocodage,623366.05,6763423.15,02 38 75 07 06,http://www.education.gouv.fr/annuaire/45-loiret/chanteau/etab/ecole-primaire-publique.html
53,Ecole primaire publique,0450679U,2 Route de Moulon,45078,45270,CHAPELON,Ecole primaire publique,Juillet 2012,Géocodage,668516.55,6769910.75,02 38 95 54 40,http://www.education.gouv.fr/annuaire/45-loiret/chapelon/etab/ecole-primaire-publique.html
54,Ecole primaire publique,0450725U,5 Rue Robert Rabaud,45080,45480,CHARMONT EN BEAUCE,Ecole primaire publique,Juillet 2012,Géocodage,633689.7,6792656.8,02 38 39 59 39,http://www.education.gouv.fr/annuaire/45-loiret/charmont-en-beauce/etab/ecole-primaire-publique.html
55,Ecole primaire publique,0451056D,3 Rue du Moulin,45081,45130,CHARSONVILLE,Ecole primaire publique,Juillet 2012,Géocodage,594395.1,6759611.15,02 38 74 28 82,http://www.education.gouv.fr/annuaire/45-loiret/charsonville/etab/ecole-primaire-publique.html
56,Ecole primaire publique Morvant,0450800A,Rue Marius Morin,45082,45110,CHATEAUNEUF SUR LOIRE,Ecole primaire publique,Juillet 2012,Géocodage,642274.2,6751771,02 38 58 44 75,http://www.education.gouv.fr/annuaire/45-loiret/chateauneuf-sur-loire/etab/ecole-primaire-publique-morvant.html
57,Ecole primaire publique Maurice Genevoix,0450545Y,211 rue Maurice Genevoix,45082,45110,CHATEAUNEUF SUR LOIRE,Ecole primaire publique,Juillet 2012,Géocodage,641669,6752142.05,02 38 58 43 20,http://www.education.gouv.fr/annuaire/45-loiret/chateauneuf-sur-loire/etab/ecole-primaire-publique-maurice-genevoix.html
58,Ecole primaire publique L'Odonna,0451124C,525 Route de Châtillon Coligny,45083,45220,CHATEAU RENARD,Ecole primaire publique,Juillet 2012,Géocodage,694771,6758104.7,02 38 95 20 87,http://www.education.gouv.fr/annuaire/45-loiret/chateau-renard/etab/ecole-primaire-publique-de-l-odonna.html
59,Ecole primaire publique,0450595C,2 Rue Eugène Lemaire,45085,45230,CHATILLON COLIGNY,Ecole primaire publique,Juillet 2012,Manuel,688418.6,6747080.3,02 38 92 56 89,http://www.education.gouv.fr/annuaire/45-loiret/chatillon-coligny/etab/ecole-primaire-publique.html
60,Ecole primaire publique,0450881N,Place du Champ de Foire,45087,45360,CHATILLON SUR LOIRE,Ecole primaire publique,Juillet 2012,Géocodage,681221.75,6721238.2,02 38 31 40 74,http://www.education.gouv.fr/annuaire/45-loiret/chatillon-sur-loire/etab/ecole-primaire-publique.html
61,Ecole primaire publique Albert Camus,0451263D,63 Rue de Grainloup,45089,45430,CHECY,Ecole primaire publique,Juillet 2012,Géocodage,627365.872605,6756099.021642,02 38 46 60 67,http://www.education.gouv.fr/annuaire/45-loiret/checy/etab/ecole-primaire-publique-albert-camus.html
62,Ecole primaire publique Jean Beaudouin,0450408Z,18 Rue de la Herpinière,45089,45430,CHECY,Ecole primaire publique,Juillet 2012,Manuel,627159.8,6755012.4,02 38 46 60 65,http://www.education.gouv.fr/annuaire/45-loiret/checy/etab/ecole-primaire-publique-jean-beaudoin.html
63,Ecole primaire publique,0450473V,34 Grande Rue,45092,45700,CHEVILLON SUR HUILLARD,Ecole primaire publique,Juillet 2012,Géocodage,672209.25,6762743,02 38 97 86 85,http://www.education.gouv.fr/annuaire/45-loiret/chevillon-sur-huillard/etab/ecole-primaire-publique.html
64,Ecole primaire publique Alain Fournier,0450870B,13 Rue de Sougy,45093,45520,CHEVILLY,Ecole primaire publique,Juillet 2012,Géocodage,615745.65,6770516.65,02 38 80 11 20,http://www.education.gouv.fr/annuaire/45-loiret/chevilly/etab/ecole-primaire-publique-alain-fournier.html
65,Ecole primaire publique,0451397Z,42 bis Grande Rue,45095,45170,CHILLEURS AUX BOIS,Ecole primaire publique,Juillet 2012,Géocodage,635367.6,6774484.8,02 38 39 88 13,http://www.education.gouv.fr/annuaire/45-loiret/chilleurs-aux-bois/etab/ecole-primaire-publique.html
66,Ecole primaire publique,0450581M,16 rue des écoles,45097,45220,CHUELLES,Ecole primaire publique,Juillet 2012,Géocodage,697410.5,6767109.7,02 38 94 20 90,http://www.education.gouv.fr/annuaire/45-loiret/chuelles/etab/ecole-elementaire-publique.html
67,Ecole primaire privée Notre-Dame,0450954T,2 rue du Cloître,45098,45370,CLERY SAINT ANDRE,Ecole primaire privée,Juillet 2012,Géocodage,606920.4,6747353.1,02 38 45 74 07,http://www.education.gouv.fr/annuaire/45-loiret/clery-saint-andre/etab/ecole-primaire-privee-notre-dame.html
68,Ecole primaire publique Des Bergerets,0451080E,4 Sentier des Murailles,45098,45370,CLERY SAINT ANDRE,Ecole primaire publique,Juillet 2012,Géocodage,606759.835807,6747629.862151,02 38 45 90 93,http://www.education.gouv.fr/annuaire/45-loiret/clery-saint-andre/etab/ecole-primaire-publique-des-bergerets.html
69,Ecole primaire publique,0450412D,53 rue du Cas Rouge,45100,45800,COMBLEUX,Ecole primaire publique,Juillet 2012,Géocodage,624355.4,6755990.3,02 38 21 98 61,http://www.education.gouv.fr/annuaire/45-loiret/combleux/etab/ecole-primaire-publique.html
70,Ecole primaire publique,0451152H,2 rue des écoles,45103,45490,CORBEILLES,Ecole primaire publique,Juillet 2012,Géocodage,666676.3,6774833.6,02 38 96 40 81,http://www.education.gouv.fr/annuaire/45-loiret/corbeilles/etab/ecole-primaire-publique.html
71,Ecole primaire publique,0451181P,2 rue des écoles,45104,45120,CORQUILLEROY,Ecole primaire publique,Juillet 2012,Manuel,677510.6,6771705.8,02 38 85 01 66,http://www.education.gouv.fr/annuaire/45-loiret/corquilleroy/etab/ecole-primaire-publique.html
72,Ecole primaire publique,0451273P,1 rue Cesar-Francois Cassini,45106,45330,COUDRAY,Ecole primaire publique,Juillet 2012,Manuel,653143.4,6797062.9,02 38 34 94 13,http://www.education.gouv.fr/annuaire/45-loiret/coudray/etab/ecole-primaire-publique.html
73,Ecole primaire publique,0451052Z,6 rue Lieutenant Bruneau,45108,45720,COULLONS,Ecole primaire publique,Juillet 2012,Géocodage,661794.8,6724338.8,02 38 29 21 61,http://www.education.gouv.fr/annuaire/45-loiret/coullons/etab/ecole-primaire-publique.html
74,Ecole primaire publique,0450381V,1 rue du 9 Novembre,45109,45130,COULMIERS,Ecole primaire publique,Juillet 2012,Géocodage,600221.5,6759870,02 38 74 28 81,http://www.education.gouv.fr/annuaire/45-loiret/coulmiers/etab/ecole-primaire-publique.html
75,Ecole primaire publique,0451274R,1 place de la Mairie,45114,45490,COURTEMPIERRE,Ecole primaire publique,Juillet 2012,Géocodage,671291.2,6778172.7,02 38 87 44 44,http://www.education.gouv.fr/annuaire/45-loiret/courtempierre/etab/ecole-primaire-publique.html
76,Ecole primaire publique,0450517T,3 rue des Ormes,45115,45320,COURTENAY,Ecole primaire publique,Juillet 2012,Géocodage,703926.4,6770601.85,02 38 97 43 05,http://www.education.gouv.fr/annuaire/45-loiret/courtenay/etab/ecole-primaire-publique.html
77,Ecole primaire publique,0451120Y,2 rue de la Lyre,45116,45190,CRAVANT,Ecole primaire publique,Juillet 2012,Géocodage,593349.898371,6748538.09018,02 38 44 86 30,http://www.education.gouv.fr/annuaire/45-loiret/cravant/etab/ecole-primaire-publique.html
78,Ecole primaire publique,0450658W,93 Route de Pithiviers,45119,45300,DADONVILLE,Ecole primaire publique,Juillet 2012,Manuel,644451.9,6782760.5,02 38 33 01 65,http://www.education.gouv.fr/annuaire/45-loiret/dadonville/etab/ecole-primaire-publique.html
79,Ecole primaire publique,0450145N,Rue de Châtillon,45122,45570,DAMPIERRE EN BURLY,Ecole primaire publique,Juillet 2012,Géocodage,664093.25,6740278.6,02 38 35 66 16,http://www.education.gouv.fr/annuaire/45-loiret/dampierre-en-burly/etab/ecole-primaire-publique.html
80,Ecole primaire publique,0450327L,29 Route d'Orléans,45123,45150,DARVOY,Ecole primaire publique,Juillet 2012,Géocodage,632373.2,6751017.8,02 38 57 20 76,http://www.education.gouv.fr/annuaire/45-loiret/darvoy/etab/ecole-primaire-publique.html
81,Ecole primaire publique Adrienne Boland,0451539D,Rue A Bolland,45126,45450,DONNERY,Ecole primaire publique,Juillet 2012,Géocodage,632480,6757898.5,02 38 59 58 77,http://www.education.gouv.fr/annuaire/45-loiret/donnery/etab/ecole-primaire-publique-adrienne-bolland.html
82,Ecole primaire publique Victor Hugo,0450506F,1 rue Victor Hugo,45127,45680,DORDIVES,Ecole primaire publique,Juillet 2012,Géocodage,682945.05,6782398,02 38 92 84 85,http://www.education.gouv.fr/annuaire/45-loiret/dordives/etab/ecole-primaire-publique-victor-hugo.html
83,Ecole primaire publique,0450925L,40 rue du Gatinais,45129,45220,DOUCHY,Ecole primaire publique,Juillet 2012,Géocodage,703800.5,6760329.6,02 38 87 13 36,http://www.education.gouv.fr/annuaire/45-loiret/douchy/etab/ecole-primaire-publique.html
84,Ecole primaire publique,0450332S,67 place de la Mairie,45130,45370,DRY,Ecole primaire publique,Juillet 2012,Géocodage,603864.65,6744981.75,02 38 45 71 61,http://www.education.gouv.fr/annuaire/45-loiret/dry/etab/ecole-primaire-publique.html
85,Ecole primaire publique,0451487X,27 Grande rue,45131,45390,ECHILLEUSES,Ecole primaire publique,Juillet 2012,Géocodage,658880.3,6784929.4,02 38 33 69 97,http://www.education.gouv.fr/annuaire/45-loiret/echilleuses/etab/ecole-primaire-publique.html
86,Ecole primaire publique,0451389R,17 rue du Colombier,45133,45300,ENGENVILLE,Ecole primaire publique,Juillet 2012,Géocodage,643927.044494,6793139.325479,02 38 32 81 31,http://www.education.gouv.fr/annuaire/45-loiret/engenville/etab/ecole-primaire-publique.html
87,Ecole primaire publique,0450382W,8 rue des Pensees,45134,45130,EPIEDS EN BEAUCE,Ecole primaire publique,Juillet 2012,Géocodage,596999.25,6761817.35,02 38 74 28 92,http://www.education.gouv.fr/annuaire/45-loiret/epieds-en-beauce/etab/ecole-primaire-publique.html
88,Ecole primaire publique,0450659X,Place de la Mairie,45137,45300,ESCRENNES,Ecole primaire publique,Juillet 2012,Manuel,639176.1,6781889.4,02 38 34 00 57,http://www.education.gouv.fr/annuaire/45-loiret/escrennes/etab/ecole-primaire-publique.html
89,Ecole primaire publique,0450661Z,1 place de l'église,45139,45300,ESTOUY,Ecole primaire publique,Juillet 2012,Géocodage,649926.5,6787556.9,02 38 34 21 07,http://www.education.gouv.fr/annuaire/45-loiret/estouy/etab/ecole-primaire-publique.html
90,Ecole primaire publique Pierre Mesples,0451121Z,70 rue de la Bretauche,45142,45450,FAY AUX LOGES,Ecole primaire publique,Juillet 2012,Géocodage,635779.508572,6758740.454417,02 38 59 22 24,http://www.education.gouv.fr/annuaire/45-loiret/fay-aux-loges/etab/ecole-primaire-publique-pierre-mesples.html
91,Ecole primaire publique,0450326K,Route de Sandillon,45144,45150,FEROLLES,Ecole primaire publique,Juillet 2012,Géocodage,631210.65,6748298.8,02 38 59 76 55,http://www.education.gouv.fr/annuaire/45-loiret/ferolles/etab/ecole-primaire-publique.html
92,Ecole primaire publique La Cléry,0451415U,Rue Sainte Apolline,45145,45210,FERRIERES EN GATINAIS,Ecole primaire publique,Juillet 2012,Géocodage,684779.35,6776600.3,02 38 96 53 10,http://www.education.gouv.fr/annuaire/45-loiret/ferrieres-en-gatinais/etab/ecole-primaire-publique-la-clery.html
93,Ecole primaire privée Sainte Thérèse,0450955U,24 rue du Four Banal,45146,45240,LA FERTE SAINT AUBIN,Ecole primaire privée,Juillet 2012,Géocodage,620776.3,6736372.8,02 38 76 61 39,http://www.education.gouv.fr/annuaire/45-loiret/la-ferte-saint-aubin/etab/ecole-primaire-privee-sainte-therese.html
94,Ecole primaire publique Centre,0451083H,2 rue de Rivoli,45146,45240,LA FERTE SAINT AUBIN,Ecole primaire publique,Juillet 2012,Géocodage,620714.35,6736229.85,02 38 76 54 37,http://www.education.gouv.fr/annuaire/45-loiret/la-ferte-saint-aubin/etab/ecole-primaire-publique-centre.html
95,Ecole primaire publique Cheneries,0451085K,Rue Alain Fournier,45146,45240,LA FERTE SAINT AUBIN,Ecole primaire publique,Juillet 2012,Géocodage,620758.6,6735491.9,02 38 76 53 72,http://www.education.gouv.fr/annuaire/45-loiret/la-ferte-saint-aubin/etab/ecole-primaire-publique-cheneries.html
96,Ecole primaire publique Les Sablons,0451414T,471 rue Léon Pinault,45146,45240,LA FERTE SAINT AUBIN,Ecole primaire publique,Juillet 2012,Manuel,620606.3,6736047.5,02 38 76 59 43,http://www.education.gouv.fr/annuaire/45-loiret/la-ferte-saint-aubin/etab/ecole-primaire-publique-les-sablons.html
97,Ecole primaire publique Henri Wallon,0451122A,4 rue Henri Wallon,45147,45400,FLEURY LES AUBRAIS,Ecole primaire publique,Juillet 2012,Géocodage,619334.9,6758704.25,02 38 86 50 61,http://www.education.gouv.fr/annuaire/45-loiret/fleury-les-aubrais/etab/ecole-primaire-publique-henri-wallon.html
98,Ecole primaire publique Jacques Brel,0451355D,95 bis rue Jean Jaurès,45147,45400,FLEURY LES AUBRAIS,Ecole primaire publique,Juillet 2012,Manuel,619409.3,6759564.3,02 38 73 17 04,http://www.education.gouv.fr/annuaire/45-loiret/fleury-les-aubrais/etab/ecole-primaire-publique-jacques-brel.html
99,Ecole primaire publique Jules Ferry,0450872D,151 rue Marcelin Berthelot,45147,45400,FLEURY LES AUBRAIS,Ecole primaire publique,Juillet 2012,Géocodage,619054.224584,6759349.81739,02 38 86 33 89,http://www.education.gouv.fr/annuaire/45-loiret/fleury-les-aubrais/etab/ecole-primaire-publique-jules-ferry.html
100,Ecole primaire publique Louis Aragon,0451473G,39 rue Marcel Proust,45147,45400,FLEURY LES AUBRAIS,Ecole primaire publique,Juillet 2012,Géocodage,620110.2,6760520.4,02 38 84 47 27,http://www.education.gouv.fr/annuaire/45-loiret/fleury-les-aubrais/etab/ecole-primaire-publique-louis-aragon.html
101,Ecole primaire publique Marie Curie,0451212Y,16 avenue de Verdun,45147,45400,FLEURY LES AUBRAIS,Ecole primaire publique,Juillet 2012,Géocodage,618898.4,6759873,02 38 73 76 96,http://www.education.gouv.fr/annuaire/45-loiret/fleury-les-aubrais/etab/ecole-primaire-publique-marie-curie.html
102,Ecole primaire publique Réné Ferragu,0450430Y,Place de la République,45147,45400,FLEURY LES AUBRAIS,Ecole primaire publique,Juillet 2012,Géocodage,619427.6,6759511.75,02 38 86 33 36,http://www.education.gouv.fr/annuaire/45-loiret/fleury-les-aubrais/etab/ecole-primaire-publique-rene-ferragu.html
103,Ecole primaire publique,0450504D,55 chemin du Castel,45148,45210,FONTENAY SUR LOING,Ecole primaire publique,Juillet 2012,Géocodage,683828.9,6777565.7,02 38 95 81 09,http://www.education.gouv.fr/annuaire/45-loiret/fontenay-sur-loing/etab/ecole-primaire-publique.html
104,Ecole primaire publique Grand Clair,0450539S,10 Route de Saint-Benoit/loire,45153,45110,GERMIGNY DES PRES,Ecole primaire publique,Juillet 2012,Géocodage,645129.9,6749724.7,02 38 58 22 69,http://www.education.gouv.fr/annuaire/45-loiret/germigny-des-pres/etab/ecole-primaire-publique-du-grand-clair.html
105,Ecole primaire publique,0450871C,Place Lucien Bourgon,45154,45520,GIDY,Ecole primaire publique,Juillet 2012,Géocodage,613215.6,6766137.25,02 38 75 35 95,http://www.education.gouv.fr/annuaire/45-loiret/gidy/etab/ecole-primaire-publique.html
106,Ecole primaire publique Berry,0450831J,55 rue des Gascons,45155,45500,GIEN,Ecole primaire publique,Juillet 2012,Géocodage,672030.1,6730997.2,02 38 67 69 74,http://www.education.gouv.fr/annuaire/45-loiret/gien/etab/ecole-primaire-publique-berry.html
107,Ecole primaire publique Centre,0451031B,12 rue Clémenceau,45155,45500,GIEN,Ecole primaire publique,Juillet 2012,Manuel,671855.6,6733140.8,02 38 67 69 34,http://www.education.gouv.fr/annuaire/45-loiret/gien/etab/ecole-primaire-publique-centre.html
108,Ecole primaire publique Cuiry,0451506T,Rue Edith Piaf,45155,45500,GIEN,Ecole primaire publique,Juillet 2012,Géocodage,671599.65,6734413,02 38 67 37 99,http://www.education.gouv.fr/annuaire/45-loiret/gien/etab/ecole-primaire-publique-cuiry.html
109,Ecole primaire publique Gare,0450873E,84 avenue de la République,45155,45500,GIEN,Ecole primaire publique,Juillet 2012,Géocodage,672510.2,6732783.4,02 38 67 69 92,http://www.education.gouv.fr/annuaire/45-loiret/gien/etab/ecole-primaire-publique-gare.html
110,Ecole primaire publique Montoires,0451210W,11 rue des Loriots,45155,45500,GIEN,Ecole primaire publique,Juillet 2012,Géocodage,671570.363379,6733428.842013,02 38 67 69 80,http://www.education.gouv.fr/annuaire/45-loiret/gien/etab/ecole-primaire-publique-montoires.html
111,Ecole primaire publique René Cassin,0450988E,12 rue Paulin Enfert,45155,45500,GIEN,Ecole primaire publique,Juillet 2012,Géocodage,673121,6731911.3,02 38 67 69 40,http://www.education.gouv.fr/annuaire/45-loiret/gien/etab/ecole-primaire-publique-rene-cassin.html
112,Ecole primaire publique,0450503C,6 rue du Bourg,45156,45120,GIROLLES,Ecole primaire publique,Juillet 2012,Géocodage,678773.791834,6773631.364649,02 38 98 63 79,http://www.education.gouv.fr/annuaire/45-loiret/girolles/etab/ecole-primaire-publique.html
113,Ecole primaire publique,0450638Z,6 rue des écoles,45159,45390,GRANGERMONT,Ecole primaire publique,Juillet 2012,Manuel,657370,6787840.4,02 38 33 92 09,http://www.education.gouv.fr/annuaire/45-loiret/grangermont/etab/ecole-primaire-publique.html
114,Ecole primaire publique Pierre Bonnin,0450732B,Place des Marronniers,45160,45480,GRENEVILLE EN BEAUCE,Ecole primaire publique,Juillet 2012,Géocodage,633927.95,6787216.2,02 38 39 95 32,http://www.education.gouv.fr/annuaire/45-loiret/greneville-en-beauce/etab/ecole-primaire-publique-pierre-bonnin.html
115,Ecole primaire publique Les Hirondelles,0450501A,2 rue de la Mairie,45161,45210,GRISELLES,Ecole primaire publique,Juillet 2012,Géocodage,687378.15,6775325.85,02 38 26 03 23,http://www.education.gouv.fr/annuaire/45-loiret/griselles/etab/ecole-primaire-publique-les-hirondelles.html
116,Ecole primaire publique,0450663B,7 rue de la Mairie,45162,45300,GUIGNEVILLE,Ecole primaire publique,Juillet 2012,Géocodage,638864.3,6789907.6,02 38 30 19 30,http://www.education.gouv.fr/annuaire/45-loiret/guigneville/etab/ecole-primaire-publique.html
117,Ecole primaire publique,0450155Z,10 rue des écoles,45164,45600,GUILLY,Ecole primaire publique,Juillet 2012,Manuel,645556.5,6745066.8,02 38 58 14 84,http://www.education.gouv.fr/annuaire/45-loiret/guilly/etab/ecole-primaire-publique.html
118,Ecole primaire publique,0450584R,29 rue de Château Renard,45165,45220,GY LES NONAINS,Ecole primaire publique,Juillet 2012,Manuel,688607.2,6760795.3,02 38 94 72 52,http://www.education.gouv.fr/annuaire/45-loiret/gy-les-nonains/etab/ecole-primaire-publique.html
119,Ecole primaire publique,0450459E,20 rue des Tilleuls,45166,45520,HUETRE,Ecole primaire publique,Juillet 2012,Géocodage,610207.64625,6769367.65525,02 38 75 42 85,http://www.education.gouv.fr/annuaire/45-loiret/huetre/etab/ecole-primaire-publique.html
120,Ecole primaire publique,0450385Z,84 rue du Bois de Deure,45167,45130,HUISSEAU SUR MAUVES,Ecole primaire publique,Juillet 2012,Géocodage,603095.738125,6755510.854527,02 38 80 70 70,http://www.education.gouv.fr/annuaire/45-loiret/huisseau-sur-mauves/etab/ecole-primaire-publique.html
121,Ecole primaire publique,0450304L,10 rue de la Mairie,45168,45450,INGRANNES,Ecole primaire publique,Juillet 2012,Géocodage,641177.8,6765904.6,02 38 57 12 02,http://www.education.gouv.fr/annuaire/45-loiret/ingrannes/etab/ecole-primaire-publique.html
122,Ecole primaire publique Moulin Choix,0451505S,66 rue de la Justice,45169,45140,INGRE,Ecole primaire publique,Juillet 2012,Géocodage,613324.5,6759115.5,02 38 74 82 35,http://www.education.gouv.fr/annuaire/45-loiret/ingre/etab/ecole-primaire-publique-moulin-choix.html
123,Ecole primaire publique Victor Hugo,0450434C,8 rue André Foucault,45169,45140,INGRE,Ecole primaire publique,Juillet 2012,Manuel,612646.6,6758570.6,02 38 74 83 49,http://www.education.gouv.fr/annuaire/45-loiret/ingre/etab/ecole-primaire-publique-victor-hugo.html
124,Ecole primaire publique Faubourg Berry Petits,0450328M,2 A rue Serin Moulin,45173,45150,JARGEAU,Ecole primaire publique,Juillet 2012,Géocodage,634251.2,6751784.1,02 38 59 76 73,http://www.education.gouv.fr/annuaire/45-loiret/jargeau/etab/ecole-primaire-publique-faubourg-berry-petits.html
125,Ecole primaire publique Porte Madeleine Grand,0450329N,8 boulevard Porte Madeleine,45173,45150,JARGEAU,Ecole primaire publique,Juillet 2012,Géocodage,634204,6752220,02 38 59 76 34,http://www.education.gouv.fr/annuaire/45-loiret/jargeau/etab/ecole-primaire-publique-porte-madeleine-grands.html
126,Ecole primaire publique Les Raboliots,0450334U,96 place de la Mairie,45175,45370,JOUY LE POTIER,Ecole primaire publique,Juillet 2012,Géocodage,610876.57825,6739178.5865,02 38 45 84 95,http://www.education.gouv.fr/annuaire/45-loiret/jouy-le-potier/etab/ecole-primaire-publique-les-raboliots.html
127,Ecole primaire publique,0451155L,12 rue Lieutenant Thomasset,45178,45270,LADON,Ecole primaire publique,Juillet 2012,Géocodage,664680.85,6767017.15,02 38 95 54 23,http://www.education.gouv.fr/annuaire/45-loiret/ladon/etab/ecole-primaire-publique.html
128,Ecole primaire publique Ravouillères,0451053A,Allée des Ravouillères,45179,45740,LAILLY EN VAL,Ecole primaire publique,Juillet 2012,Géocodage,601713.9,6741705.1,02 38 44 22 47,http://www.education.gouv.fr/annuaire/45-loiret/lailly-en-val/etab/ecole-primaire-publique-ravouilleres.html
129,Ecole primaire publique,0450184F,Rue d'Ouzouer,45060,45230,LA BUSSIERE,Ecole primaire publique,Juillet 2012,Géocodage,682716.9,6736259.85,02 38 35 91 84,http://www.education.gouv.fr/annuaire/45-loiret/la-bussiere/etab/ecole-primaire-publique.html
130,Ecole primaire publique Bel Air,0450822Z,8 Square des Déportés,45075,45380,LA CHAPELLE SAINT MESMIN,Ecole primaire publique,Juillet 2012,Manuel,613323,6754734.6,02 38 72 64 10,http://www.education.gouv.fr/annuaire/45-loiret/la-chapelle-saint-mesmin/etab/ecole-primaire-publique-bel-air.html
131,Ecole primaire publique d'Adon,0450175W,13 Route de la Bussière,45001,45230,ADON,Ecole primaire publique,Juillet 2012,Manuel,684703.4,6740346.3,02 38 35 94 69,http://www.education.gouv.fr/annuaire/45-loiret/adon/etab/ecole-primaire-publique.html
132,Ecole primaire publique Louis petit,0450998R,15 rue du Pont Bordeau,45284,45800,SAINT JEAN DE BRAYE,Ecole primaire publique,Juillet 2012,Géocodage,621871.6,6756875,02 38 86 13 53,http://www.education.gouv.fr/annuaire/45-loiret/saint-jean-de-braye/etab/ecole-primaire-publique-louis-petit.html
133,Ecole primaire publique Louise Michel,0451399B,12 allée Picasso,45284,45800,SAINT JEAN DE BRAYE,Ecole primaire publique,Juillet 2012,Géocodage,622805.1,6757515.2,02 38 55 28 96,http://www.education.gouv.fr/annuaire/45-loiret/saint-jean-de-braye/etab/ecole-primaire-publique-louise-michel.html
134,Ecole primaire publique Paul Langevin,0451100B,214 rue de Fredeville,45284,45800,SAINT JEAN DE BRAYE,Ecole primaire publique,Juillet 2012,Géocodage,624857.369673,6757718.631052,02 38 55 06 94,http://www.education.gouv.fr/annuaire/45-loiret/saint-jean-de-braye/etab/ecole-primaire-publique-paul-langevin.html
135,Ecole primaire publique François Mitterand,0450993K,9 rue Françoise Giroud,45285,45140,SAINT JEAN DE LA RUELLE,Ecole primaire publique,Juillet 2012,Manuel,615899.6,6757525.1,02 38 88 14 06,http://www.education.gouv.fr/annuaire/45-loiret/saint-jean-de-la-ruelle/etab/ecole-primaire-publique-francois-mitterrand.html
136,Ecole primaire publique Jean Moulin,0451102D,15 rue des Diamants,45285,45140,SAINT JEAN DE LA RUELLE,Ecole primaire publique,Juillet 2012,Géocodage,616114.1,6758486.1,02 38 88 34 24,http://www.education.gouv.fr/annuaire/45-loiret/saint-jean-de-la-ruelle/etab/ecole-primaire-publique-jean-moulin.html
137,Ecole primaire publique Jules Lenormand,0451164W,2 rue Jules Lenormand,45285,45140,SAINT JEAN DE LA RUELLE,Ecole primaire publique,Juillet 2012,Géocodage,615830.6,6757540.5,02 38 88 11 63,http://www.education.gouv.fr/annuaire/45-loiret/saint-jean-de-la-ruelle/etab/ecole-primaire-publique-jules-lenormand.html
138,Ecole primaire publique Louis Aragon,0451271M,Rue des Perles,45285,45140,SAINT JEAN DE LA RUELLE,Ecole primaire publique,Juillet 2012,Géocodage,616484.85,6758459.35,02 38 88 49 33,http://www.education.gouv.fr/annuaire/45-loiret/saint-jean-de-la-ruelle/etab/ecole-primaire-publique-louis-aragon.html
139,Ecole primaire publique Paul Bert,0451163V,13 rue des écoles,45285,45140,SAINT JEAN DE LA RUELLE,Ecole primaire publique,Juillet 2012,Manuel,615899.6,6757525.1,02 38 43 26 58,http://www.education.gouv.fr/annuaire/45-loiret/saint-jean-de-la-ruelle/etab/ecole-primaire-publique-paul-bert.html
140,Ecole primaire publique Paul Doumer,0451162U,26 ter rue Raymond Gaudry,45285,45140,SAINT JEAN DE LA RUELLE,Ecole primaire publique,Juillet 2012,Manuel,615899.6,6757525.1,02 38 43 26 14,http://www.education.gouv.fr/annuaire/45-loiret/saint-jean-de-la-ruelle/etab/ecole-primaire-publique-paul-doumer.html
141,Ecole primaire publique Charles Jeune PetitS,0450341B,2 ter rue Demay,45286,45650,SAINT JEAN LE BLANC,Ecole primaire publique,Juillet 2012,Manuel,618967.8,6755296.9,02 38 66 38 38,http://www.education.gouv.fr/annuaire/45-loiret/saint-jean-le-blanc/etab/ecole-primaire-publique-charles-jeune-petits.html
142,Ecole primaire publique Demay-Vignier-grands,0450340A,8 rue des Capucins,45286,45650,SAINT JEAN LE BLANC,Ecole primaire publique,Juillet 2012,Géocodage,619065.8,6755390.8,02 38 66 29 65,http://www.education.gouv.fr/annuaire/45-loiret/saint-jean-le-blanc/etab/ecole-primaire-publique-demay-vignier-grands.html
143,Ecole primaire publique Jean Bonnet,0451203N,131 bis rue Demay,45286,45650,SAINT JEAN LE BLANC,Ecole primaire publique,Juillet 2012,Géocodage,619997.2,6753866.3,02 38 66 42 70,http://www.education.gouv.fr/annuaire/45-loiret/saint-jean-le-blanc/etab/ecole-primaire-publique-jean-bonnet.html
144,Ecole primaire publique Les Capucins,0450915A,4 rue des Capucins,45286,45650,SAINT JEAN LE BLANC,Ecole primaire publique,Juillet 2012,Géocodage,619050.2,6755325.1,02 38 66 09 17,http://www.education.gouv.fr/annuaire/45-loiret/saint-jean-le-blanc/etab/ecole-primaire-speciale-publique-les-capucins.html
145,Ecole primaire publique,0450309S,Chemin du Grillon,45289,45170,SAINT LYE LA FORET,Ecole primaire publique,Juillet 2012,Géocodage,623943.5,6771672.2,02 38 91 83 75,http://www.education.gouv.fr/annuaire/45-loiret/saint-lye-la-foret/etab/ecole-primaire-publique.html
146,Ecole primaire publique,0450534L,1 place de la Mairie,45290,45110,SAINT MARTIN D'ABBAT,Ecole primaire publique,Juillet 2012,Géocodage,645155.35,6750928.5,02 38 58 21 52,http://www.education.gouv.fr/annuaire/45-loiret/saint-martin-d-abbat/etab/ecole-primaire-publique.html
147,Ecole primaire publique,0450222X,145 rue du Puits,45291,45500,SAINT MARTIN SUR OCRE,Ecole primaire publique,Juillet 2012,Géocodage,674220.01505,6728611.036919,02 38 36 75 25,http://www.education.gouv.fr/annuaire/45-loiret/saint-martin-sur-ocre/etab/ecole-primaire-publique.html
148,Ecole primaire publique,0451184T,Route de Charny,45292,45230,SAINT MAURICE SUR AVEYRON,Ecole primaire publique,Juillet 2012,Géocodage,694608.4,6750227.6,02 38 97 16 11,http://www.education.gouv.fr/annuaire/45-loiret/saint-maurice-sur-aveyron/etab/ecole-primaire-publique.html
149,Ecole primaire publique,0451185U,5 impasse de l'Ecole,45293,45700,SAINT MAURICE SUR FESSARD,Ecole primaire publique,Juillet 2012,Géocodage,671776.8,6765786.6,02 38 97 85 34,http://www.education.gouv.fr/annuaire/45-loiret/saint-maurice-sur-fessard/etab/ecole-primaire-publique.html
150,Ecole primaire publique,0450403U,36 Route d'Orléans,45296,45310,SAINT PERAVY LA COLOMBE,Ecole primaire publique,Juillet 2012,Manuel,603010.6,6767461.2,02 38 80 91 77,http://www.education.gouv.fr/annuaire/45-loiret/saint-peravy-la-colombe/etab/ecole-primaire-publique.html
151,Ecole primaire publique,0450161F,3 rue des écoles,45297,45600,SAINT PERE SUR LOIRE,Ecole primaire publique,Juillet 2012,Manuel,652899.9,6741705.5,02 38 36 35 96,http://www.education.gouv.fr/annuaire/45-loiret/saint-pere-sur-loire/etab/ecole-primaire-publique.html
152,Ecole primaire publique Hervé Bazin,0450339Z,4 rue Hervé Bazin,45298,45750,SAINT PRYVE SAINT MESMIN,Ecole primaire publique,Juillet 2012,Manuel,615345.4,6753999.1,02 38 22 63 66,http://www.education.gouv.fr/annuaire/45-loiret/saint-pryve-saint-mesmin/etab/ecole-primaire-publique-herve-bazin.html
153,Ecole primaire publique Les Sablons,0450338Y,Place de la Belle Arche,45298,45750,SAINT PRYVE SAINT MESMIN,Ecole primaire publique,Juillet 2012,Géocodage,615650.05,6754353.85,02 38 56 42 46,http://www.education.gouv.fr/annuaire/45-loiret/saint-pryve-saint-mesmin/etab/ecole-primaire-publique-les-sablons.html
154,Ecole primaire publique,0450163H,1 Route de Villemurlin,45336,45600,VIGLAIN,Ecole primaire publique,Juillet 2012,Géocodage,647660,6736615.5,02 38 37 23 64,http://www.education.gouv.fr/annuaire/45-loiret/viglain/etab/ecole-primaire-publique.html
155,Ecole primaire publique Catalpas Pts,0450564U,15 bis rue Henri Chaintreau,45338,45700,VILLEMANDEUR,Ecole primaire publique,Juillet 2012,Géocodage,678248.7,6765489.8,02 38 85 42 79,http://www.education.gouv.fr/annuaire/45-loiret/villemandeur/etab/ecole-primaire-publique-des-catalpas-pts.html
156,Ecole primaire publique Buisson Gds,0450565V,1 avenue de la Libération,45338,45700,VILLEMANDEUR,Ecole primaire publique,Juillet 2012,Géocodage,678434.142003,6765641.422968,02 38 98 50 65,http://www.education.gouv.fr/annuaire/45-loiret/villemandeur/etab/ecole-primaire-publique-du-buisson-gds.html
157,Ecole primaire publique,0450164J,21 rue de la gare,45340,45600,VILLEMURLIN,Ecole primaire publique,Juillet 2012,Géocodage,650178.3,6731969.6,02 38 36 31 33,http://www.education.gouv.fr/annuaire/45-loiret/villemurlin/etab/ecole-primaire-publique.html
158,Ecole primaire publique,0450315Y,11 rue Meslée,45342,45170,VILLEREAU,Ecole primaire publique,Juillet 2012,Géocodage,624669.5,6774812.8,02 38 75 50 95,http://www.education.gouv.fr/annuaire/45-loiret/villereau/etab/ecole-primaire-publique.html
159,Ecole primaire publique,0451315K,23 Grande rue,45345,45700,VIMORY,Ecole primaire publique,Juillet 2012,Géocodage,676684.784093,6760895.034116,02 38 98 76 15,http://www.education.gouv.fr/annuaire/45-loiret/vimory/etab/ecole-primaire-publique.html
160,Ecole primaire publique,0450530G,19 rue des Moulins,45346,45530,VITRY AUX LOGES,Ecole primaire publique,Juillet 2012,Géocodage,645353.7,6760185.5,02 38 59 33 75,http://www.education.gouv.fr/annuaire/45-loiret/vitry-aux-loges/etab/ecole-primaire-publique.html
161,Ecole primaire publique,0450671K,14 rue des écoles,45347,45300,VRIGNY,Ecole primaire publique,Juillet 2012,Manuel,643689.4,6776092.3,02 38 34 17 09,http://www.education.gouv.fr/annuaire/45-loiret/vrigny/etab/ecole-primaire-publique.html
162,Ecole primaire publique,0450672L,Rue de Secval,45348,45300,YEVRE LA VILLE,Ecole primaire publique,Juillet 2012,Géocodage,649847.5,6783078.6,02 38 34 23 38,http://www.education.gouv.fr/annuaire/45-loiret/yevre-la-ville/etab/ecole-primaire-publique.html
163,Ecole primaire publique,0451268J,311 Route d'Orléans,45300,45640,SANDILLON,Ecole primaire publique,Juillet 2012,Géocodage,627365.4,6749945.5,02 38 41 10 20,http://www.education.gouv.fr/annuaire/45-loiret/sandillon/etab/ecole-primaire-publique.html
164,Ecole primaire publique,0450669H,8 rue de la Laiterie,45301,45170,SANTEAU,Ecole primaire publique,Juillet 2012,Géocodage,636228.8,6778537.2,02 38 39 86 51,http://www.education.gouv.fr/annuaire/45-loiret/santeau/etab/ecole-primaire-publique.html
165,Ecole primaire publique Bourg,0451165X,300 rue de la Fontaine,45302,45770,SARAN,Ecole primaire publique,Juillet 2012,Géocodage,616115.76287,6761880.683414,02 38 80 35 42,http://www.education.gouv.fr/annuaire/45-loiret/saran/etab/ecole-primaire-publique-bourg.html
166,Ecole primaire publique Chêne Maillard,0451166Y,511 rue du chêne Maillard,45302,45770,SARAN,Ecole primaire publique,Juillet 2012,Géocodage,617967.7,6761491.3,02 38 80 35 47,http://www.education.gouv.fr/annuaire/45-loiret/saran/etab/ecole-primaire-publique-chene-maillard.html
167,Ecole primaire publique Les Sablonnières,0451180N,392 rue des Sablonnières,45302,45770,SARAN,Ecole primaire publique,Juillet 2012,Géocodage,616804.4,6759495.3,02 38 80 35 45,http://www.education.gouv.fr/annuaire/45-loiret/saran/etab/ecole-primaire-publique-les-sablonnieres.html
168,Ecole primaire publique,0450494T,6 rue de l'église,45303,45490,SCEAUX DU GATINAIS,Ecole primaire publique,Juillet 2012,Manuel,669868,6778377.3,02 38 87 41 38,http://www.education.gouv.fr/annuaire/45-loiret/sceaux-du-gatinais/etab/ecole-primaire-publique.html
169,Ecole primaire publique,0450585S,4 rue Verte,45306,45210,LA SELLE EN HERMOY,Ecole primaire publique,Juillet 2012,Géocodage,692031.3,6768140.9,02 38 92 00 41,http://www.education.gouv.fr/annuaire/45-loiret/sceaux-du-gatinais/etab/ecole-primaire-publique.html
170,Ecole primaire publique,0450578J,Impasse des Landes,45307,45210,LA SELLE SUR LE BIED,Ecole primaire publique,Juillet 2012,Géocodage,692086.55,6773704.95,02 38 87 33 81,http://www.education.gouv.fr/annuaire/45-loiret/la-selle-sur-le-bied/etab/ecole-primaire-publique.html
171,Ecole primaire publique,0451127F,Rue du Champ Luneau,45308,45400,SEMOY,Ecole primaire publique,Juillet 2012,Géocodage,621460.95,6759730.9,02 38 84 64 94,http://www.education.gouv.fr/annuaire/45-loiret/semoy/etab/ecole-primaire-publique.html
172,Ecole primaire publique,0450859P,5 Route de Thignonville,45310,45300,SERMAISES,Ecole primaire publique,Juillet 2012,Géocodage,640667.2,6799751.2,02 38 39 71 95,http://www.education.gouv.fr/annuaire/45-loiret/sermaises/etab/ecole-primaire-publique.html
173,Ecole primaire publique,0450880M,337 Grande rue,45313,45410,SOUGY,Ecole primaire publique,Juillet 2012,Géocodage,609930.6,6773231.8,02 38 75 81 06,http://www.education.gouv.fr/annuaire/45-loiret/sougy/etab/ecole-primaire-publique.html
174,Ecole primaire publique Centre,0450152W,28 rue du Coq,45315,45600,SULLY SUR LOIRE,Ecole primaire publique,Juillet 2012,Géocodage,653006.8,6740675.8,02 38 36 26 48,http://www.education.gouv.fr/annuaire/45-loiret/sully-sur-loire/etab/ecole-primaire-publique-centre.html
175,Ecole primaire publique JM Blanchard,0450151V,50 rue Voltaire,45315,45600,SULLY SUR LOIRE,Ecole primaire publique,Juillet 2012,Géocodage,652442.8,6740246.15,02 38 36 36 92,http://www.education.gouv.fr/annuaire/45-loiret/sully-sur-loire/etab/ecole-primaire-publique-j-m-blanchard.html
176,Ecole primaire publique,0450532J,8 rue de la Mairie,45316,45530,SURY AUX BOIS,Ecole primaire publique,Juillet 2012,Géocodage,650871.9,6762985.6,02 38 55 45 96,http://www.education.gouv.fr/annuaire/45-loiret/sury-aux-bois/etab/ecole-primaire-publique.html
177,Ecole primaire publique,0451314J,1 rue Abel Adam,45317,45190,TAVERS,Ecole primaire publique,Juillet 2012,Géocodage,596368.05,6740854.7,02 38 44 92 49,http://www.education.gouv.fr/annuaire/45-loiret/tavers/etab/ecole-primaire-publique.html
178,Ecole primaire publique,0450135C,8 rue des écoles,45321,45260,THIMORY,Ecole primaire publique,Juillet 2012,Manuel,670248.1,6758110.9,02 38 96 33 04,http://www.education.gouv.fr/annuaire/45-loiret/thimory/etab/ecole-primaire-publique.html
179,Ecole primaire publique,0451214A,8 rue du 20 août 1944,45324,45510,TIGY,Ecole primaire publique,Juillet 2012,Géocodage,640187.1,6744082.35,02 38 58 11 10,http://www.education.gouv.fr/annuaire/45-loiret/tigy/etab/ecole-primaire-publique.html
180,Ecole primaire publique,0451190Z,82 rue de la Mairie,45326,45310,TOURNOISIS,Ecole primaire publique,Juillet 2012,Géocodage,597905.081865,6768001.223383,02 38 80 82 14,http://www.education.gouv.fr/annuaire/45-loiret/tournoisis/etab/ecole-primaire-publique.html
181,Ecole primaire publique,0450217S,4 rue du Vieux Bourg,45227,45500,NEVOY,Ecole primaire publique,Juillet 2012,Géocodage,668432.00647,6734921.076057,02 38 67 25 81,http://www.education.gouv.fr/annuaire/45-loiret/nevoy/etab/ecole-primaire-publique.html
182,Ecole primaire publique Roger Giry,0450882P,48 rue Saint Sauveur,45228,45340,NIBELLE,Ecole primaire publique,Juillet 2012,Géocodage,649829.397025,6769245.571355,02 38 32 23 28,http://www.education.gouv.fr/annuaire/45-loiret/nibelle/etab/ecole-primaire-publique-roger-giry.html
183,Ecole primaire publique,0451447D,56 rue du 17 Juin 1940,45188,45470,LOURY,Ecole primaire publique,Juillet 2012,Géocodage,631809.702728,6767106.354902,02 38 52 74 29,http://www.education.gouv.fr/annuaire/45-loiret/loury/etab/ecole-primaire-publique.html
184,Ecole primaire publique Château-Vignon Grands,0451086L,49 rue de Château Vignon,45191,45330,MALESHERBES,Ecole primaire publique,Juillet 2012,Géocodage,656214.3,6799903.9,02 38 34 86 55,http://www.education.gouv.fr/annuaire/45-loiret/malesherbes/etab/ecole-primaire-publique-chateau-vignon-grands.html
185,Ecole primaire publique Mazagran petits,0450609T,2 place Mazagran,45191,45330,MALESHERBES,Ecole primaire publique,Juillet 2012,Manuel,656604.6,6799615.1,02 38 34 82 55,http://www.education.gouv.fr/annuaire/45-loiret/malesherbes/etab/ecole-primaire-publique-mazagran-petits.html
186,Ecole primaire publique,0450618C,7 rue de la gare,45192,45300,MANCHECOURT,Ecole primaire publique,Juillet 2012,Géocodage,651364,6793184.9,02 38 30 19 34,http://www.education.gouv.fr/annuaire/45-loiret/manchecourt/etab/ecole-primaire-publique.html
187,Ecole primaire publique,0451198H,Rue de Chantaloup,45193,45240,MARCILLY EN VILLETTE,Ecole primaire publique,Juillet 2012,Géocodage,626294.2,6741043.25,02 38 76 15 17,http://www.education.gouv.fr/annuaire/45-loiret/marcilly-en-villette/etab/ecole-primaire-publique.html
188,Ecole primaire publique,0451088N,86 place Jean Zay,45194,45430,MARDIE,Ecole primaire publique,Juillet 2012,Géocodage,629499.265978,6754365.885212,02 38 86 81 92,http://www.education.gouv.fr/annuaire/45-loiret/mardie/etab/ecole-primaire-publique.html
189,Ecole primaire publique,0450665D,2 rue des écoles,45195,45300,MAREAU AUX BOIS,Ecole primaire publique,Juillet 2012,Géocodage,639601.1,6778482.1,02 38 34 04 77,http://www.education.gouv.fr/annuaire/45-loiret/mareau-aux-bois/etab/ecole-primaire-publique.html
190,Ecole primaire publique,0451591K,381 rue Saint Fiacre,45196,45370,MAREAU AUX PRES,Ecole primaire publique,Juillet 2012,Géocodage,610151.829837,6750169.394326,02 38 45 67 02,http://www.education.gouv.fr/annuaire/45-loiret/mareau-aux-pres/etab/ecole-primaire-publique.html
191,Ecole primaire publique,0450416H,20 rue de la gare,45197,45760,MARIGNY LES USAGES,Ecole primaire publique,Juillet 2012,Géocodage,626439.007235,6762346.123235,02 38 75 06 41,http://www.education.gouv.fr/annuaire/45-loiret/marigny-les-usages/etab/ecole-primaire-publique.html
192,Ecole primaire publique,0450829G,2 rue de Triguères,45199,45220,MELLEROY,Ecole primaire publique,Juillet 2012,Géocodage,696495.6,6755088.7,02 38 95 31 85,http://www.education.gouv.fr/annuaire/45-loiret/melleroy/etab/ecole-primaire-publique.html
193,Ecole primaire publique,0451396Y,101 rue des écoles,45200,45240,MENESTREAU EN VILLETTE,Ecole primaire publique,Juillet 2012,Géocodage,626598.6,6733603,02 38 76 96 51,http://www.education.gouv.fr/annuaire/45-loiret/menestreau-en-villette/etab/ecole-primaire-publique.html
194,Ecole primaire publique,0450354R,2 A rue des Hauts Talons,45202,45190,MESSAS,Ecole primaire publique,Juillet 2012,Géocodage,597853.2,6746161.6,02 38 44 04 84,http://www.education.gouv.fr/annuaire/45-loiret/messas/etab/ecole-primaire-publique.html
195,Ecole primaire publique Jehan de Meung,0450376P,17 rue Saint Jean,45203,45130,MEUNG SUR LOIRE,Ecole primaire publique,Juillet 2012,Géocodage,602813,6748265.5,02 38 44 31 55,http://www.education.gouv.fr/annuaire/45-loiret/meung-sur-loire/etab/ecole-primaire-publique-jehan-de-meung.html
196,Ecole primaire publique La Nivelle,0450377R,29 place Roger Gauthier,45203,45130,MEUNG SUR LOIRE,Ecole primaire publique,Juillet 2012,Manuel,602542.8,6748205.4,02 38 44 36 44,http://www.education.gouv.fr/annuaire/45-loiret/meung-sur-loire/etab/ecole-primaire-publique-la-nivelle.html
197,Ecole primaire publique Les Potières,0451372X,2 rue des Vignes,45203,45130,MEUNG SUR LOIRE,Ecole primaire publique,Juillet 2012,Géocodage,603480.8,6749097.2,02 38 44 28 81,http://www.education.gouv.fr/annuaire/45-loiret/meung-sur-loire/etab/ecole-primaire-publique-les-potieres.html
198,Ecole primaire publique Papecets,0451298S,5 rue Jean Macé,45203,45130,MEUNG SUR LOIRE,Ecole primaire publique,Juillet 2012,Manuel,602542.8,6748205.4,02 38 44 30 17,http://www.education.gouv.fr/annuaire/45-loiret/meung-sur-loire/etab/ecole-primaire-publique-papecets.html
199,Ecole primaire publique,0450337X,36 rue de Bourg,45204,45370,MEZIERES LEZ CLERY,Ecole primaire publique,Juillet 2012,Géocodage,610517.647219,6747175.370478,02 38 45 65 00,http://www.education.gouv.fr/annuaire/45-loiret/mezieres-lez-clery/etab/ecole-primaire-publique.html
200,Ecole primaire publique,0450500Z,3 rue des écoles,45206,45490,MIGNERES,Ecole primaire publique,Juillet 2012,Géocodage,671990,6772011.7,02 38 87 87 52,http://www.education.gouv.fr/annuaire/45-loiret/migneres/etab/ecole-primaire-publique.html
201,Ecole primaire publique,0450499Y,Rue de la Mairie,45207,45490,MIGNERETTE,Ecole primaire publique,Juillet 2012,Géocodage,670391.15,6772973.95,02 38 96 49 07,http://www.education.gouv.fr/annuaire/45-loiret/mignerette/etab/ecole-primaire-publique.html
202,Ecole primaire publique Albert Thierry,0450551E,8 rue de la Pontonnerie,45208,45200,MONTARGIS,Ecole primaire publique,Juillet 2012,Géocodage,679541.9,6766742.8,02 38 85 14 35,http://www.education.gouv.fr/annuaire/45-loiret/montargis/etab/ecole-primaire-publique-albert-thierry.html
203,Ecole primaire publique Gambetta,0450549C,19 rue Gambetta,45208,45200,MONTARGIS,Ecole primaire publique,Juillet 2012,Géocodage,679962.7,6766316.1,02 38 98 00 84,http://www.education.gouv.fr/annuaire/45-loiret/montargis/etab/ecole-primaire-publique-gambetta.html
204,Ecole primaire publique Genebrier,0450553G,Route de Paucourt,45208,45200,MONTARGIS,Ecole primaire publique,Juillet 2012,Manuel,680332.4,6766354.9,02 38 93 31 86,http://www.education.gouv.fr/annuaire/45-loiret/montargis/etab/ecole-primaire-publique-genebrier.html
205,Ecole primaire publique Jean Moulin,0450989F,1 rue Jean Moulin,45208,45200,MONTARGIS,Ecole primaire publique,Juillet 2012,Géocodage,680877.2,6765938.2,02 38 85 05 48,http://www.education.gouv.fr/annuaire/45-loiret/montargis/etab/ecole-primaire-publique-jean-moulin.html
206,Ecole primaire publique Maurice Meunier,0451556X,6 rue Emile Decourt,45208,45200,MONTARGIS,Ecole primaire publique,Juillet 2012,Géocodage,680886.2,6766436.7,02 38 85 24 25,http://www.education.gouv.fr/annuaire/45-loiret/montargis/etab/ecole-primaire-publique-maurice-meunier.html
207,Ecole primaire publique Pasteur,0450547A,5 boulevard Durzy,45208,45200,MONTARGIS,Ecole primaire publique,Juillet 2012,Géocodage,680283.1,6766242,02 38 85 72 42,http://www.education.gouv.fr/annuaire/45-loiret/montargis/etab/ecole-primaire-publique-pasteur.html
208,Ecole primaire publique Paul Langevin,0450552F,85 boulevard Kennedy,45208,45200,MONTARGIS,Ecole primaire publique,Juillet 2012,Géocodage,679292,6767001.2,02 38 85 41 07,http://www.education.gouv.fr/annuaire/45-loiret/montargis/etab/ecole-primaire-publique-paul-langevin.html
209,Ecole primaire publique,0450221W,10 rue de Gien,45280,45500,SAINT GONDON,Ecole primaire publique,Juillet 2012,Géocodage,665748,6733203.1,02 38 36 96 06,http://www.education.gouv.fr/annuaire/45-loiret/saint-gondon/etab/ecole-primaire-publique.html
210,Ecole primaire publique Quatre vents,0450576G,Les Petits Bouguereaux,45281,45320,SAINT HILAIRE LES ANDRESIS,Ecole primaire publique,Juillet 2012,Manuel,700395.1,6772867.6,02 38 97 03 73,http://www.education.gouv.fr/annuaire/45-loiret/saint-hilaire-les-andresis/etab/ecole-primaire-publique-des-quatre-vents.html
211,Ecole primaire publique,0451161T,1017 Route d'Orléans,45282,45160,SAINT HILAIRE SAINT MESMIN,Ecole primaire publique,Juillet 2012,Géocodage,612763,6752253,02 38 76 31 29,http://www.education.gouv.fr/annuaire/45-loiret/saint-hilaire-saint-mesmin/etab/ecole-primaire-publique.html
212,Ecole primaire publique Gallouedec,0451055C,2 rue Gallouedec,45284,45800,SAINT JEAN DE BRAYE,Ecole primaire publique,Juillet 2012,Géocodage,620555.8,6756520.1,02 38 86 50 08,http://www.education.gouv.fr/annuaire/45-loiret/saint-jean-de-braye/etab/ecole-primaire-publique-gallouedec.html
213,Ecole primaire publique Jacques Prévert,0451267H,Rue du Clocheton,45284,45800,SAINT JEAN DE BRAYE,Ecole primaire publique,Juillet 2012,Géocodage,622820.9,6757836.45,02 38 86 70 20,http://www.education.gouv.fr/annuaire/45-loiret/saint-jean-de-braye/etab/ecole-primaire-publique-jacques-prevert.html
214,Ecole primaire publique Jean zay,0451416V,34 rue de la Mairie,45284,45800,SAINT JEAN DE BRAYE,Ecole primaire publique,Juillet 2012,Géocodage,623148.8,6757290.7,02 38 55 13 51,http://www.education.gouv.fr/annuaire/45-loiret/saint-jean-de-braye/etab/ecole-primaire-publique-jean-zay.html
215,Ecole primaire privée Saint Joseph,0450964D,63 Grande rue,45082,45110,CHATEAUNEUF SUR LOIRE,Ecole primaire privée,Juillet 2012,Géocodage,641896.6,6751712.5,02 38 58 45 33,http://www.education.gouv.fr/annuaire/45-loiret/chateauneuf-sur-loire/etab/ecole-primaire-privee-saint-joseph.html
216,Ecole primaire privée Notre-Dame de la Bretauche,0450961A,121 rue Vauroger,45089,45430,CHECY,Ecole primaire privée,Juillet 2012,Géocodage,625731.9,6757778.7,02 38 75 21 40,http://www.education.gouv.fr/annuaire/45-loiret/checy/etab/ecole-primaire-privee-notre-dame-de-la-bretauche.html
217,Ecole primaire privée Jeanne d'Arc,0451010D,16 rue des Fossés,45145,45210,FERRIERES EN GATINAIS,Ecole primaire privée,Juillet 2012,Géocodage,684408.5,6776890,02 38 96 52 58,http://www.education.gouv.fr/annuaire/45-loiret/ferrieres-en-gatinais/etab/ecole-primaire-privee-jeanne-d-arc.html
218,Ecole primaire privée Sainte Genevieve,0450965E,7 rue Paul Bert,45155,45500,GIEN,Ecole primaire privée,Juillet 2012,Géocodage,672023.3,6731947.1,02 38 67 16 57,http://www.education.gouv.fr/annuaire/45-loiret/gien/etab/ecole-primaire-privee-sainte-genevieve.html
219,Ecole primaire privée Saint-Jean,0450957W,2 rue Saint Jean,45203,45130,MEUNG SUR LOIRE,Ecole primaire privée,Juillet 2012,Géocodage,602728.8,6748172.1,02 3844 33 43,http://www.education.gouv.fr/annuaire/45-loiret/meung-sur-loire/etab/ecole-primaire-privee-saint-jean.html
220,Ecole primaire privée Jeanne d'Arc,0450974P,Place de Verdun,45191,45330,MALESHERBES,Ecole primaire privée,Juillet 2012,Géocodage,656604.6,6799615.1,02 38 34 92 31,http://www.education.gouv.fr/annuaire/45-loiret/malesherbes/etab/ecole-primaire-privee-jeanne-d-arc.html
221,Ecole primaire privée Saint-Louis Saint-Charles,0451005Y,Le Château,45208,45200,MONTARGIS,Ecole primaire privée,Juillet 2012,Géocodage,679766.95,6766387.6,02 38 95 06 33,http://www.education.gouv.fr/annuaire/45-loiret/montargis/etab/ecole-primaire-privee-saint-louis-saint-charles.html
222,Ecole primaire privée Saint Joseph,0450950N,17 rue des Villeneuves,45224,45170,NEUVILLE AUX BOIS,Ecole primaire privée,Juillet 2012,Géocodage,629668.6,6774858.7,02 38 91 02 27,http://www.education.gouv.fr/annuaire/45-loiret/neuville-aux-bois/etab/ecole-primaire-privee-saint-joseph.html
223,Ecole primaire privée La Providence,0450959Y,91 rue du Général de Gaulle,45232,45160,OLIVET,Ecole primaire privée,Juillet 2012,Géocodage,617724.6,6752146.2,02 38 63 46 67,http://www.education.gouv.fr/annuaire/45-loiret/olivet/etab/ecole-primaire-privee-la-providence.html
224,Ecole primaire privée Jeanne d'Arc,0450962B,28 place Jeanne d'Arc,45248,45310,PATAY,Ecole primaire privée,Juillet 2012,Géocodage,602890.1,6772482.1,02 38 75 75 00,http://www.education.gouv.fr/annuaire/45-loiret/patay/etab/ecole-primaire-privee-jeanne-d-arc.html
225,Ecole primaire privée Saint Grégoire,0451563E,5 avenue de la République,45252,45303,PITHIVIERS,Ecole primaire privée,Juillet 2012,Géocodage,644413.6,6786024.6,02 38 30 23 88,http://www.education.gouv.fr/annuaire/45-loiret/pithiviers/etab/ecole-primaire-privee-saint-gregoire.html
226,Ecole primaire privée Sainte-Marie,0450970K,8 chemin du Port,45270,45730,SAINT BENOIT SUR LOIRE,Ecole primaire privée,Juillet 2012,Géocodage,647876.9,6745774.8,02 38 35 72 19,http://www.education.gouv.fr/annuaire/45-loiret/saint-benoit-sur-loire/etab/ecole-primaire-privee-sainte-marie.html
227,Ecole primaire privée Sainte-Thérese,0450979V,Rue des écoles,45274,45560,SAINT DENIS EN VAL,Ecole primaire privée,Juillet 2012,Géocodage,622099.8,6753996.35,02 38 76 70 21,http://www.education.gouv.fr/annuaire/45-loiret/saint-denis-en-val/etab/ecole-primaire-privee-sainte-therese.html
228,Ecole primaire privée Jeanne d'Arc,0450971L,7 Route de Cerdon,45315,45600,SULLY SUR LOIRE,Ecole primaire privée,Juillet 2012,Géocodage,653139.5,6740522,02 38 36 22 91,http://www.education.gouv.fr/annuaire/45-loiret/sully-sur-loire/etab/ecole-primaire-privee-jeanne-d-arc.html
229,Ecole primaire privée Hc la Chouette,0451671X,98 rue d'Illiers,45234,45000,ORLEANS,Ecole primaire privée,Juillet 2012,Géocodage,617607.4,6756446.5,09 64 27 00 45,http://www.education.gouv.fr/annuaire/45-loiret/orleans/etab/ecole-elementaire-privee-hc-la-chouette.html
230,Ecole primaire privée Hc Sainte-Anne,0451683K,56 rue de la Cigogne,45234,45100,ORLEANS,Ecole primaire privée,Juillet 2012,Géocodage,617821.7,6754674.3,06 62 73 70 65,http://www.education.gouv.fr/annuaire/45-loiret/orleans/etab/ecole-elementaire-privee-hc-sainte-anne.html
231,Ecole primaire privée Assomption-Saint Marc-Saint Aignan,0450949M,20 rue Saint Marc,45234,45044,ORLEANS,Ecole primaire privée,Juillet 2012,Géocodage,619414.6,6756539.7,02 38 24 02 70,http://www.education.gouv.fr/annuaire/45-loiret/orleans/etab/ecole-primaire-privee-assomption-st-marc-st-aignan.html
232,Ecole primaire privée Notre Dame la Consolation,0450948L,323 faubourg Bannier,45234,45000,ORLEANS,Ecole primaire privée,Juillet 2012,Géocodage,617593.9,6758976.2,02 38 88 55 38,http://www.education.gouv.fr/annuaire/45-loiret/orleans/etab/ecole-primaire-privee-notre-dame-de-consolation.html
233,Ecole primaire publique Au fil de l'eau,0450600H,Chemin des Gravissants,45210,45230,MONTBOUY,Ecole primaire publique,Juillet 2012,Géocodage,686578.15,6751257.35,02 38 97 55 14,http://www.education.gouv.fr/annuaire/45-loiret/montbouy/etab/ecole-primaire-publique-au-fil-de-l-eau.html
234,Ecole primaire publique,0451573R,23 rue de Verdun,45212,45700,MONTCRESSON,Ecole primaire publique,Juillet 2012,Géocodage,685590.931641,6756112.454284,02 38 90 02 99,http://www.education.gouv.fr/annuaire/45-loiret/montcresson/etab/ecole-primaire-publique.html
235,Ecole primaire publique,0450148S,26 Route de Lorris,45213,45260,MONTEREAU,Ecole primaire publique,Juillet 2012,Géocodage,667943.618906,6750835.313584,02 38 87 72 98,http://www.education.gouv.fr/annuaire/45-loiret/montereau/etab/ecole-primaire-publique.html
236,Ecole primaire publique,0450708A,Au bourg,45220,45340,NANCRAY SUR RIMARDE,Ecole primaire publique,Juillet 2012,Manuel,650321.9,6774542,02 38 32 24 75,http://www.education.gouv.fr/annuaire/45-loiret/nancray-sur-rimarde/etab/ecole-primaire-publique.html
237,Ecole primaire publique,0451262C,2 rue du Mail Sud,45224,45170,NEUVILLE AUX BOIS,Ecole primaire publique,Juillet 2012,Géocodage,629661.435967,6774592.732732,02 38 91 01 08,http://www.education.gouv.fr/annuaire/45-loiret/neuville-aux-bois/etab/ecole-primaire-publique.html
238,Ecole primaire publique,0451294M,20 rue du Mesnil,45225,45390,LA NEUVILLE SUR ESSONNE,Ecole primaire publique,Juillet 2012,Géocodage,653522.8,6787587.5,02 38 39 15 52,http://www.education.gouv.fr/annuaire/45-loiret/la-neuville-sur-essonne/etab/ecole-primaire-publique.html
239,Ecole primaire publique,0450325J,1 rue des écoles,45226,45510,NEUVY EN SULLIAS,Ecole primaire publique,Juillet 2012,Manuel,643501.5,6744180.7,02 38 58 17 21,http://www.education.gouv.fr/annuaire/45-loiret/neuvy-en-sullias/etab/ecole-primaire-publique.html
240,Ecole primaire publique,0450687C,144 rue de la Mairie,45259,45270,QUIERS SUR BEZONDE,Ecole primaire publique,Juillet 2012,Géocodage,658054.8,6766351.1,02 38 90 26 36,http://www.education.gouv.fr/annuaire/45-loiret/quiers-sur-bezonde/etab/ecole-primaire-publique.html
241,Ecole primaire publique,0451572P,20 Route de Neuville,45261,45470,REBRECHIEN,Ecole primaire publique,Juillet 2012,Géocodage,628706.1,6765905,02 38 65 61 37,http://www.education.gouv.fr/annuaire/45-loiret/rebrechien/etab/ecole-primaire-publique.html
242,Ecole primaire publique,0450575F,81 Route de Bazoches,45265,45210,ROZOY LE VIEIL,Ecole primaire publique,Juillet 2012,Géocodage,696288.65,6780432.9,02 38 90 92 01,http://www.education.gouv.fr/annuaire/45-loiret/rosoy-le-vieil/etab/ecole-primaire-publique.html
243,Ecole primaire publique,0450538R,3 Route de Bray En Val,45267,45460,SAINT AIGNAN DES GUES,Ecole primaire publique,Juillet 2012,Géocodage,649110.4,6749065.5,02 38 58 21 75,http://www.education.gouv.fr/annuaire/45-loiret/saint-aignan-des-gues/etab/ecole-primaire-publique.html
244,Ecole primaire publique,0450158C,5 rue de la Mairie,45268,45600,SAINT AIGNAN LE JAILLARD,Ecole primaire publique,Juillet 2012,Géocodage,658202.889988,6738165.868857,02 38 36 48 42,http://www.education.gouv.fr/annuaire/45-loiret/saint-aignan-le-jaillard/etab/ecole-primaire-publique.html
245,Ecole primaire publique François Rabelais,0451126E,24 rue de la Métairie,45269,45130,SAINT AY,Ecole primaire publique,Juillet 2012,Géocodage,607039.4,6752086.2,02 38 88 89 24,http://www.education.gouv.fr/annuaire/45-loiret/saint-ay/etab/ecole-primaire-publique-francois-rabelais.html
246,Ecole primaire publique Grands,0450149T,1 place de l'Université,45270,45730,SAINT BENOIT SUR LOIRE,Ecole primaire publique,Juillet 2012,Géocodage,648215,6745682.6,02 38 35 73 95,http://www.education.gouv.fr/annuaire/45-loiret/saint-benoit-sur-loire/etab/ecole-primaire-publique-des-grands.html
247,Ecole primaire publique Petits,0450150U,13 place du Grand Arcis,45270,45730,SAINT BENOIT SUR LOIRE,Ecole primaire publique,Juillet 2012,Géocodage,648125.2,6745592.3,02 38 35 75 90,http://www.education.gouv.fr/annuaire/45-loiret/saint-benoit-sur-loire/etab/ecole-primaire-publique-des-petits.html
248,Ecole primaire publique,0450220V,12 rue Campagne,45271,45500,SAINT BRISSON SUR LOIRE,Ecole primaire publique,Juillet 2012,Géocodage,676250.6,6727350.8,02 38 36 70 80,http://www.education.gouv.fr/annuaire/45-loiret/saint-brisson-sur-loire/etab/ecole-primaire-publique.html
249,Ecole primaire publique Claude de Loynes,0451435R,63 rue de la Jonchère,45272,45590,SAINT CYR EN VAL,Ecole primaire publique,Juillet 2012,Manuel,622873.8,6748465.8,02 38 76 20 45,http://www.education.gouv.fr/annuaire/45-loiret/saint-cyr-en-val/etab/ecole-primaire-publique-claude-de-loynes.html
250,Ecole primaire publique Clos d'or,0451057E,Avenue de la tête Verte,45273,45550,SAINT DENIS DE L'HOTEL,Ecole primaire publique,Juillet 2012,Manuel,634852.6,6752405.6,02 38 46 00 62,http://www.education.gouv.fr/annuaire/45-loiret/saint-denis-de-l-hotel/etab/ecole-primaire-publique-du-clos-d-or.html
251,Ecole primaire publique Bourgneuf,0451207T,Rue de Bourgneuf,45274,45560,SAINT DENIS EN VAL,Ecole primaire publique,Juillet 2012,Géocodage,622055.4,6753499.55,02 38 76 77 21,http://www.education.gouv.fr/annuaire/45-loiret/saint-denis-en-val/etab/ecole-primaire-publique-bourgneuf.html
252,Ecole primaire publique Champdoux,0451208U,85 rue de Champdoux,45274,45560,SAINT DENIS EN VAL,Ecole primaire publique,Juillet 2012,Géocodage,622107.841625,6753845.191814,02 38 76 75 98,http://www.education.gouv.fr/annuaire/45-loiret/saint-denis-en-val/etab/ecole-primaire-publique-champdoux.html
253,Ecole primaire publique Les Bruyères,0451496G,55 rue du Cabernet,45274,45560,SAINT DENIS EN VAL,Ecole primaire publique,Juillet 2012,Géocodage,622628.349632,6753482.648229,02 38 76 80 43,http://www.education.gouv.fr/annuaire/45-loiret/saint-denis-en-val/etab/ecole-primaire-publique-les-bruyeres.html
254,Ecole primaire publique,0450606P,Route des choux,45278,45230,SAINTE GENEVIEVE DES BOIS,Ecole primaire publique,Juillet 2012,Manuel,686457.7,6746446.2,02 38 96 05 80,http://www.education.gouv.fr/annuaire/45-loiret/sainte-genevieve-des-bois/etab/ecole-primaire-publique.html
255,Ecole primaire publique,0450589W,1 rue de la Mairie,45275,45220,SAINT FIRMIN DES BOIS,Ecole primaire publique,Juillet 2012,Géocodage,693380.1,6762984.25,02 38 95 31 89,http://www.education.gouv.fr/annuaire/45-loiret/saint-firmin-des-bois/etab/ecole-primaire-publique.html
256,Ecole primaire publique,0450160E,7 rue de Villemurlin,45277,45600,SAINT FLORENT,Ecole primaire publique,Juillet 2012,Géocodage,660601.9,6732289.9,02 38 36 93 32,http://www.education.gouv.fr/annuaire/45-loiret/saint-florent/etab/ecole-primaire-publique.html
257,Ecole primaire publique La Claudinerie,0451557Y,La Claudinerie,45279,45220,SAINT GERMAIN DES PRES,Ecole primaire publique,Juillet 2012,Géocodage,688215.45,6761686.3,02 38 94 74 50,http://www.education.gouv.fr/annuaire/45-loiret/saint-germain-des-pres/etab/ecole-primaire-publique-la-claudinerie.html
258,Ecole primaire publique,0450827E,2 bis Route de Montbouy,45229,45290,NOGENT SUR VERNISSON,Ecole primaire publique,Juillet 2012,Géocodage,680904.2,6749715.5,02 38 97 61 05,http://www.education.gouv.fr/annuaire/45-loiret/nogent-sur-vernisson/etab/ecole-primaire-publique.html
259,Ecole primaire publique Du Val,0450992J,536 rue d'Ivoy,45232,45160,OLIVET,Ecole primaire publique,Juillet 2012,Géocodage,617642.707287,6753245.270214,02 38 66 16 16,http://www.education.gouv.fr/annuaire/45-loiret/olivet/etab/ecole-primaire-d-application-val.html
260,Ecole primaire publique Plissay,0451423C,250 rue des Sternes,45232,45160,OLIVET,Ecole primaire publique,Juillet 2012,Géocodage,618263.7,6752982.3,02 38 51 21 80,http://www.education.gouv.fr/annuaire/45-loiret/olivet/etab/ecole-primaire-publique-du-plissay.html
261,Ecole primaire publique La Cerisaie,0450346G,119 rue du Général de Gaulle,45232,45160,OLIVET,Ecole primaire publique,Juillet 2012,Manuel,617575.2,6752243.7,02 38 63 44 84,http://www.education.gouv.fr/annuaire/45-loiret/olivet/etab/ecole-primaire-publique-la-cerisaie.html
262,Ecole primaire publique Michel Ronfard,0451558Z,55 rue des Chênes,45232,45160,OLIVET,Ecole primaire publique,Juillet 2012,Manuel,617575.2,6752243.7,02 38 63 01 38,http://www.education.gouv.fr/annuaire/45-loiret/olivet/etab/ecole-primaire-publique-michel-ronfard.html
263,Ecole primaire publique Poutyl,0450347H,282 rue du Général de Gaulle,45232,45160,OLIVET,Ecole primaire publique,Juillet 2012,Manuel,617575.2,6752243.7,02 38 63 55 09,http://www.education.gouv.fr/annuaire/45-loiret/olivet/etab/ecole-primaire-publique-poutyl.html
264,Ecole primaire publique Pauline Kergomard,0451685M,8 rue Cracovie,45234,45100,ORLEANS,Ecole primaire publique,Juillet 2012,Géocodage,620201.95,6749288.3,02 38 22 68 40,http://www.education.gouv.fr/annuaire/45-loiret/orleans/etab/ecole-elementaire-publique-pauline-kergomard.html
265,Ecole primaire publique Louis Guilloux,0450299F,28 faubourg Saint Jean,45234,45100,ORLEANS,Ecole primaire publique,Juillet 2012,Géocodage,617440.5,6756383.65,02 38 53 12 49,http://www.education.gouv.fr/annuaire/45-loiret/orleans/etab/ecole-primaire-d-application-louis-guilloux.html
266,Ecole primaire publique Marcel Proust,0450273C,111 rue du faubourg Bannier,45234,45100,ORLEANS,Ecole primaire publique,Juillet 2012,Géocodage,617806.210617,6757620.08058,02 38 81 72 32,http://www.education.gouv.fr/annuaire/45-loiret/orleans/etab/ecole-primaire-d-application-marcel-proust.html
267,Ecole primaire publique André Dessaux,0450287T,45 rue du faubourg Bannier,45234,45100,ORLEANS,Ecole primaire publique,Juillet 2012,Géocodage,617884.793571,6757139.224001,02 38 77 13 08,http://www.education.gouv.fr/annuaire/45-loiret/orleans/etab/ecole-primaire-publique-andre-dessaux.html
268,Ecole primaire publique Charles Peguy,0450713F,2 bis rue Théophile Naudy,45234,45100,ORLEANS,Ecole primaire publique,Juillet 2012,Manuel,618506.6,6756404.2,02 38 62 72 57,http://www.education.gouv.fr/annuaire/45-loiret/orleans/etab/ecole-primaire-publique-charles-peguy.html
269,Ecole primaire publique Charles Pensée,0450283N,36 rue du Bourdon Blanc,45234,45100,ORLEANS,Ecole primaire publique,Juillet 2012,Géocodage,618798.660136,6756304.020722,02 38 53 86 21,http://www.education.gouv.fr/annuaire/45-loiret/orleans/etab/ecole-primaire-publique-charles-pensee.html
270,Ecole primaire publique Cordiers,0450280K,14 rue des Cordiers,45234,45100,ORLEANS,Ecole primaire publique,Juillet 2012,Géocodage,619368,6756399,02 38 54 07 85,http://www.education.gouv.fr/annuaire/45-loiret/orleans/etab/ecole-primaire-publique-cordiers.html
271,Ecole primaire publique Gens du Voyage,0451422B,2374 avenue de la Pomme de Pin,45234,45100,ORLEANS,Ecole primaire publique,Juillet 2012,Géocodage,618921.6,6748393,02 38 69 26 04,http://www.education.gouv.fr/annuaire/45-loiret/orleans/etab/ecole-primaire-publique-des-gens-du-voyage.html
272,Ecole primaire publique Diderot,0450885T,1 place Albert Camus,45234,45100,ORLEANS,Ecole primaire publique,Juillet 2012,Géocodage,620451.1,6748752.6,02 38 69 33 96,http://www.education.gouv.fr/annuaire/45-loiret/orleans/etab/ecole-primaire-publique-diderot.html
273,Ecole primaire publique Gaston Galloux,0451373Y,16 place Sainte Beuve,45234,45100,ORLEANS,Ecole primaire publique,Juillet 2012,Manuel,618506.6,6756404.2,02 38 63 08 76,http://www.education.gouv.fr/annuaire/45-loiret/orleans/etab/ecole-primaire-publique-gaston-galloux.html
274,Ecole primaire publique Georges Chardon,0451374Z,1 rue des Roses,45234,45100,ORLEANS,Ecole primaire publique,Juillet 2012,Géocodage,618604.5,6754567.2,02 38 56 35 13,http://www.education.gouv.fr/annuaire/45-loiret/orleans/etab/ecole-primaire-publique-georges-chardon.html
275,Ecole primaire publique Guillaume Apollinaire,0450285R,59 rue Bannier,45234,45100,ORLEANS,Ecole primaire publique,Juillet 2012,Géocodage,618023.7,6756590.2,02 38 62 83 16,http://www.education.gouv.fr/annuaire/45-loiret/orleans/etab/ecole-primaire-publique-guillaume-apollinaire.html
276,Ecole primaire publique Gutenberg,0450293Z,37 rue du Grand Villiers,45234,45100,ORLEANS,Ecole primaire publique,Juillet 2012,Géocodage,620296.171696,6757474.161249,02 38 83 62 46,http://www.education.gouv.fr/annuaire/45-loiret/orleans/etab/ecole-primaire-publique-gutenberg.html
277,Ecole primaire publique Henri Poincarré,0451158P,27 rue Henri Poincaré,45234,45100,ORLEANS,Ecole primaire publique,Juillet 2012,Géocodage,620033.8,6747956.6,02 38 63 43 56,http://www.education.gouv.fr/annuaire/45-loiret/orleans/etab/ecole-primaire-publique-henri-poincare.html
278,Ecole primaire publique Jacques Andruet du Cerceau,0450296C,10 rue Jeanne d'Arc,45234,45000,ORLEANS,Ecole primaire publique,Juillet 2012,Géocodage,618278.4,6756253.7,02 38 81 05 06,http://www.education.gouv.fr/annuaire/45-loiret/orleans/etab/ecole-primaire-publique-jacques-androuet-du-cerceau.html
279,Ecole primaire publique Jardin des plantes,0451091S,3 rue Dante,45234,45100,ORLEANS,Ecole primaire publique,Juillet 2012,Manuel,618506.6,6756404.2,02 38 56 64 59,http://www.education.gouv.fr/annuaire/45-loiret/orleans/etab/ecole-primaire-publique-jardin-des-plantes.html
280,Ecole primaire publique Jean Mermoz,0450860R,10 rue Charles Le Chauve,45234,45000,ORLEANS,Ecole primaire publique,Juillet 2012,Géocodage,617362.05,6758682.9,02 38 43 49 77,http://www.education.gouv.fr/annuaire/45-loiret/orleans/etab/ecole-primaire-publique-jean-mermoz.html
281,Ecole primaire publique Jean Zay,0450291X,50 rue des Charretiers,45234,45000,ORLEANS,Ecole primaire publique,Juillet 2012,Géocodage,617762.8,6756217.9,02 38 53 86 31,http://www.education.gouv.fr/annuaire/45-loiret/orleans/etab/ecole-primaire-publique-jean-zay.html
282,Ecole primaire publique La Cigogne,0451555W,1 bis rue Etienne d'Orves,45234,45100,ORLEANS,Ecole primaire publique,Juillet 2012,Manuel,618506.6,6756404.2,02 38 66 73 17,http://www.education.gouv.fr/annuaire/45-loiret/orleans/etab/ecole-primaire-publique-la-cigogne.html
283,Ecole primaire publique Lavoisier,0451093U,2 rue Ampère,45234,45100,ORLEANS,Ecole primaire publique,Juillet 2012,Manuel,618506.6,6756404.2,02 38 64 17 23,http://www.education.gouv.fr/annuaire/45-loiret/orleans/etab/ecole-primaire-publique-lavoisier.html
284,Ecole primaire publique Les Aydes,0450876H,2 rue des écoles,45234,45000,ORLEANS,Ecole primaire publique,Juillet 2012,Manuel,618506.6,6756404.2,02 38 73 90 03,http://www.education.gouv.fr/annuaire/45-loiret/orleans/etab/ecole-primaire-publique-les-aydes.html
285,Ecole primaire publique Les Guernazelles,0451436S,4 rue des Anciens Combattants,45234,45100,ORLEANS,Ecole primaire publique,Juillet 2012,Manuel,618506.6,6756404.2,02 38 64 19 99,http://www.education.gouv.fr/annuaire/45-loiret/orleans/etab/ecole-primaire-publique-les-guernazelles.html
286,Ecole primaire publique Louis Pasteur,0450025H,8 rue Antoine Lavoisier,45234,45100,ORLEANS,Ecole primaire publique,Juillet 2012,Géocodage,619733.75,6748494.7,02 38 63 73 69,http://www.education.gouv.fr/annuaire/45-loiret/orleans/etab/ecole-primaire-publique-louis-pasteur.html
287,Ecole primaire publique Madeleine,0451125D,1 rue de l'Ecale,45234,45000,ORLEANS,Ecole primaire publique,Juillet 2012,Géocodage,616464.3,6756211.3,02 38 88 19 68,http://www.education.gouv.fr/annuaire/45-loiret/orleans/etab/ecole-primaire-publique-madeleine.html
288,Ecole primaire publique Maxime Perrard,0450524A,45 avenue Dauphiné,45234,45100,ORLEANS,Ecole primaire publique,Juillet 2012,Géocodage,618163.9,6755074.8,02 38 56 64 80,http://www.education.gouv.fr/annuaire/45-loiret/orleans/etab/ecole-primaire-publique-maxime-perrard.html
289,Ecole primaire publique Michel de la Fournière,0450289V,80 rue Barrière Saint-Marc,45234,45000,ORLEANS,Ecole primaire publique,Juillet 2012,Géocodage,619803.714562,6758745.980832,02 38 84 48 08,http://www.education.gouv.fr/annuaire/45-loiret/orleans/etab/ecole-primaire-publique-michel-de-la-fourniere.html
290,Ecole primaire publique Molière,0450875G,8 rue Molière,45234,45000,ORLEANS,Ecole primaire publique,Juillet 2012,Manuel,618506.6,6756404.2,02 38 54 04 66,http://www.education.gouv.fr/annuaire/45-loiret/orleans/etab/ecole-primaire-publique-moliere.html
291,Ecole primaire publique Nécotin,0450922H,19 rue du Nécotin,45234,45000,ORLEANS,Ecole primaire publique,Juillet 2012,Géocodage,620665.75,6759636.1,02 38 84 42 02,http://www.education.gouv.fr/annuaire/45-loiret/orleans/etab/ecole-primaire-publique-necotin.html
292,Ecole primaire publique Olympia Cormier,0451570M,19 rue du Château Gaillard,45234,45000,ORLEANS,Ecole primaire publique,Juillet 2012,Manuel,618506.6,6756404.2,02 38 84 20 59,http://www.education.gouv.fr/annuaire/45-loiret/orleans/etab/ecole-primaire-publique-olympia-cormier.html
293,Ecole primaire publique Pierre Séguelle,0451540E,1 rue Eloy d'Amerval,45234,45000,ORLEANS,Ecole primaire publique,Juillet 2012,Géocodage,618355.15,6757304.7,02 38 77 13 05,http://www.education.gouv.fr/annuaire/45-loiret/orleans/etab/ecole-primaire-publique-pierre-segelle.html
294,Ecole primaire publique Romain Rolland,0450519V,2 rue Jules Ferry,45234,45100,ORLEANS,Ecole primaire publique,Juillet 2012,Géocodage,619840.4,6749097.9,02 38 69 08 41,http://www.education.gouv.fr/annuaire/45-loiret/orleans/etab/ecole-primaire-publique-romain-rolland.html
295,Ecole primaire publique,0450913Y,1 rue Alain,45234,45100,ORLEANS,Ecole primaire publique,Juillet 2012,Géocodage,620001.666132,6748336.893478,02 38 63 65 22,http://www.education.gouv.fr/annuaire/45-loiret/orleans/etab/ecole-primaire-speciale-publique.html
296,Ecole primaire publique Jacques Prévert,0451507U,Place Clément Marot,45235,45140,ORMES,Ecole primaire publique,Juillet 2012,Manuel,611797.1,6760844.8,02 38 74 99 45,http://www.education.gouv.fr/annuaire/45-loiret/ormes/etab/ecole-primaire-publique-jacques-prevert.html
297,Ecole primaire publique,0450189L,11 rue de l'Abreuvoir,45238,45250,OUSSON SUR LOIRE,Ecole primaire publique,Juillet 2012,Géocodage,683841.3,6721023.8,02 38 31 00 51,http://www.education.gouv.fr/annuaire/45-loiret/ousson-sur-loire/etab/ecole-primaire-publique.html
298,Ecole primaire publique,0450131Y,Au bourg,45239,45290,OUSSOY EN GATINAIS,Ecole primaire publique,Juillet 2012,Géocodage,673312.15,6756336.25,02 38 96 33 08,http://www.education.gouv.fr/annuaire/45-loiret/oussoy-en-gatinais/etab/ecole-primaire-publique.html
299,Ecole primaire publique,0450715H,Rue des écoles,45240,45480,OUTARVILLE,Ecole primaire publique,Juillet 2012,Manuel,627091,6790564,02 38 39 50 70,http://www.education.gouv.fr/annuaire/45-loiret/outarville/etab/ecole-primaire-publique.html
300,Ecole primaire publique,0451264E,1 Route de Sigloy,45241,45150,OUVROUER LES CHAMPS,Ecole primaire publique,Juillet 2012,Géocodage,638579.709639,6748341.42849,02 38 59 91 88,http://www.education.gouv.fr/annuaire/45-loiret/ouvrouer-les-champs/etab/ecole-primaire-publique.html
301,Ecole primaire publique,0450858N,154 rue Fouchard,45244,45570,OUZOUER SUR LOIRE,Ecole primaire publique,Juillet 2012,Géocodage,661305.9,6740957.8,02 38 35 65 51,http://www.education.gouv.fr/annuaire/45-loiret/ouzouer-sur-loire/etab/ecole-primaire-publique.html
302,Ecole primaire publique Jacques Prévert,0451269K,14 rue de la Flamandière,45245,45250,OUZOUER SUR TREZEE,Ecole primaire publique,Juillet 2012,Géocodage,685534.624961,6730028.647206,02 38 31 92 89,http://www.education.gouv.fr/annuaire/45-loiret/ouzouer-sur-trezee/etab/ecole-primaire-publique-jacques-prevert.html
303,Ecole primaire publique Bourg,0451182R,549 rue Marcel Donette,45247,45700,PANNES,Ecole primaire publique,Juillet 2012,Géocodage,675294.125684,6768666.549611,02 38 87 85 52,http://www.education.gouv.fr/annuaire/45-loiret/pannes/etab/ecole-primaire-publique-bourg.html
304,Ecole primaire publique Georges Braibant,0451183S,250 rue des Pervenches,45247,45700,PANNES,Ecole primaire publique,Juillet 2012,Géocodage,677703.6,6766852.3,02 38 85 63 83,http://www.education.gouv.fr/annuaire/45-loiret/pannes/etab/ecole-primaire-publique-georges-braibant.html
305,Ecole primaire publique Jacqueline Auriol,0451054B,3 boulevard de Verdun,45248,45310,PATAY,Ecole primaire publique,Juillet 2012,Géocodage,602938.8,6772528.3,02 38 80 81 51,http://www.education.gouv.fr/annuaire/45-loiret/patay/etab/ecole-primaire-publique-jacqueline-auriol.html
306,Ecole primaire publique,0450467N,76 rue de l'école,45249,45200,PAUCOURT,Ecole primaire publique,Juillet 2012,Manuel,684586.3,6770533,02 38 85 84 28,http://www.education.gouv.fr/annuaire/45-loiret/paucourt/etab/ecole-primaire-publique.html
307,Ecole primaire publique,0451095W,7 rue de la Mairie,45251,45360,PIERREFITTE ES BOIS,Ecole primaire publique,Juillet 2012,Géocodage,678765.8,6711930.8,02 38 31 08 13,http://www.education.gouv.fr/annuaire/45-loiret/pierrefitte-es-bois/etab/ecole-primaire-publique.html
308,Ecole primaire publique Abbé Regnard,0451096X,2 rue Abbé Regnard,45252,45300,PITHIVIERS,Ecole primaire publique,Juillet 2012,Manuel,644684.7,6786156.7,02 38 30 04 86,http://www.education.gouv.fr/annuaire/45-loiret/pithiviers/etab/ecole-primaire-publique-abbe-regnard.html
309,Ecole primaire publique Clos Beauvoys,0450026J,Rue du Safran,45252,45300,PITHIVIERS,Ecole primaire publique,Juillet 2012,Géocodage,644676.75,6786614.3,02 38 30 09 80,http://www.education.gouv.fr/annuaire/45-loiret/pithiviers/etab/ecole-primaire-publique-clos-beauvoys.html
310,Ecole primaire publique Général de Gaulle,0451097Y,6 place du Général de Gaulle,45252,45300,PITHIVIERS,Ecole primaire publique,Juillet 2012,Manuel,644684.7,6786156.7,02 38 30 04 65,http://www.education.gouv.fr/annuaire/45-loiret/pithiviers/etab/ecole-primaire-publique-general-de-gaulle.html
311,Ecole primaire publique Saint-Aignan,0451266G,3 place Maurice Ravel,45252,45300,PITHIVIERS,Ecole primaire publique,Juillet 2012,Géocodage,645442.2,6786513.25,02 38 30 18 76,http://www.education.gouv.fr/annuaire/45-loiret/pithiviers/etab/ecole-primaire-publique-saint-aignan.html
312,Ecole primaire publique Christian Charbonnier,0450879L,Rue de la Mairie,45253,45300,PITHIVIERS LE VIEIL,Ecole primaire publique,Juillet 2012,Géocodage,641230.2,6785346.3,02 38 30 08 10,http://www.education.gouv.fr/annuaire/45-loiret/pithiviers-le-vieil/etab/ecole-primaire-publique-christian-charbonnier.html
313,Ecole primaire publique,0450924K,Rue du 11 Novembre,45254,45500,POILLY LEZ GIEN,Ecole primaire publique,Juillet 2012,Géocodage,669710.75,6730768.6,02 38 38 06 12,http://www.education.gouv.fr/annuaire/45-loiret/poilly-lez-gien/etab/ecole-primaire-publique.html
314,Ecole primaire publique Louis Collotte,0450496V,19 Route de Château Landon,45255,45490,PREFONTAINES,Ecole primaire publique,Juillet 2012,Géocodage,677108.9,6779050.9,02 38 95 83 50,http://www.education.gouv.fr/annuaire/45-loiret/prefontaines/etab/ecole-primaire-publique-louis-collotte.html
315,Ecole primaire publique,0450605N,11 place du Bourg,45257,45290,PRESSIGNY LES PINS,Ecole primaire publique,Juillet 2012,Géocodage,681279.6,6753412.3,02 38 94 94 31,http://www.education.gouv.fr/annuaire/45-loiret/pressigny-les-pins/etab/ecole-primaire-publique.html
316,Ecole primaire publique,0451328Z,605 rue de la République,45327,45470,TRAINOU,Ecole primaire publique,Juillet 2012,Géocodage,633295.373982,6764019.867409,02 38 65 65 40,http://www.education.gouv.fr/annuaire/45-loiret/trainou/etab/ecole-primaire-publique.html
317,Ecole primaire publique,0450493S,15 rue du Bourg,45328,45490,TREILLES EN GATINAIS,Ecole primaire publique,Juillet 2012,Géocodage,674740.3,6775159.5,02 38 87 91 30,http://www.education.gouv.fr/annuaire/45-loiret/treilles-en-gatinais/etab/ecole-primaire-publique.html
318,Ecole primaire publique,0451205R,2 avenue de la gare,45329,45220,TRIGUERES,Ecole primaire publique,Juillet 2012,Géocodage,698854.5,6759873.5,02 38 94 03 03,http://www.education.gouv.fr/annuaire/45-loiret/trigueres/etab/ecole-primaire-publique.html
319,Ecole primaire publique,0451452J,18 Route de Tigy,45331,45510,VANNES SUR COSSON,Ecole primaire publique,Juillet 2012,Géocodage,640722.7,6737611.5,02 38 58 13 15,http://www.education.gouv.fr/annuaire/45-loiret/vannes-sur-cosson/etab/ecole-primaire-publique.html
320,Ecole primaire publique,0450136D,17 Route de Nogent,45332,45290,VARENNES CHANGY,Ecole primaire publique,Juillet 2012,Géocodage,674703.6,6751700.5,02 38 94 54 15,http://www.education.gouv.fr/annuaire/45-loiret/varennes-changy/etab/ecole-primaire-publique.html
321,Ecole primaire publique Jacques-Yves Cousteau,0450313W,Rue de l'Avenir,45333,45760,VENNECY,Ecole primaire publique,Juillet 2012,Géocodage,629331.15,6761992.85,02 38 75 08 03,http://www.education.gouv.fr/annuaire/45-loiret/vennecy/etab/ecole-primaire-publique-jacques-yves-cousteau.html
322,Ecole primaire publique,0450137E,14 rue du Bourg,45334,45260,VIEILLES MAISONS SUR JOUDRY,Ecole primaire publique,Juillet 2012,Géocodage,658495.4,6754177.5,02 38 26 13 30,http://www.education.gouv.fr/annuaire/45-loiret/vieilles-maisons-sur-joudry/etab/ecole-primaire-publique.html
323,Ecole primaire publique Louis Didier Jousselin,0451571N,Rue de l'Ancienne gare,45335,45510,VIENNE EN VAL,Ecole primaire publique,Juillet 2012,Géocodage,635346.95,6744949.15,02 38 58 83 49,http://www.education.gouv.fr/annuaire/45-loiret/vienne-en-val/etab/ecole-primaire-publique-louis-didier-jousselin.html
324,Ecole primaire publique Jean Vilar,0450440J,5 rue d'Ingre,45075,45380,LA CHAPELLE SAINT MESMIN,Ecole primaire publique,Juillet 2012,Géocodage,613290.9,6755327.4,02 38 72 61 66,http://www.education.gouv.fr/annuaire/45-loiret/la-chapelle-saint-mesmin/etab/ecole-primaire-publique-jean-vilar.html
325,Ecole primaire publique Les Vallées,0451542G,7 avenue des Vallées,45075,45380,LA CHAPELLE SAINT MESMIN,Ecole primaire publique,Juillet 2012,Géocodage,612300.639003,6754848.314381,02 38 43 87 09,http://www.education.gouv.fr/annuaire/45-loiret/la-chapelle-saint-mesmin/etab/ecole-primaire-publique-les-vallees.html
326,Ecole primaire publique,0450597E,73 rue Saint Roch,45077,45230,LA CHAPELLE SUR AVEYRON,Ecole primaire publique,Juillet 2012,Géocodage,689722.422988,6751694.941391,02 38 97 53 87,http://www.education.gouv.fr/annuaire/45-loiret/la-chapelle-sur-aveyron/etab/ecole-primaire-publique.html
327,Ecole primaire publique,0450129W,Au bourg,45112,45260,LA COUR MARIGNY,Ecole primaire publique,Juillet 2012,Géocodage,669832.45,6754977,02 38 96 20 06,http://www.education.gouv.fr/annuaire/45-loiret/la-cour-marigny/etab/ecole-primaire-publique.html
328,Ecole primaire publique,0451561C,44 rue du Bourg,45020,45130,LE BARDON,Ecole primaire publique,Juillet 2012,Géocodage,599006.8,6749960.1,02 38 46 50 13,http://www.education.gouv.fr/annuaire/45-loiret/le-bardon/etab/ecole-primaire-publique.html
329,Ecole primaire publique Paul Fort,0450142K,15 rue de la Poste,45042,45460,LES BORDES,Ecole primaire publique,Juillet 2012,Géocodage,655309.573324,6745893.777308,02 38 35 57 02,http://www.education.gouv.fr/annuaire/45-loiret/les-bordes/etab/ecole-primaire-publique-paul-fort.html
330,Ecole primaire publique,0450211K,Rue de la Poste,45096,45290,LES CHOUX,Ecole primaire publique,Juillet 2012,Géocodage,675749.4,6744147.65,02 38 31 86 44,http://www.education.gouv.fr/annuaire/45-loiret/les-choux/etab/ecole-primaire-publique.html
331,Ecole primaire publique,0451156M,94 rue César Finance,45182,45240,LIGNY LE RIBAULT,Ecole primaire publique,Juillet 2012,Manuel,608577.4,6732096.7,02 38 45 43 79,http://www.education.gouv.fr/annuaire/45-loiret/ligny-le-ribault/etab/ecole-primaire-publique.html
332,Ecole primaire publique Gaston Couté,0450157B,8 rue de Boissoudy,45184,45600,LION EN SULLIAS,Ecole primaire publique,Juillet 2012,Géocodage,661823.23851,6736443.372338,02 38 36 99 22,http://www.education.gouv.fr/annuaire/45-loiret/lion-en-sullias/etab/ecole-primaire-publique-gaston-coute.html
333,Ecole primaire publique,0451538C,Zone de la Noue,45187,45260,LORRIS,Ecole primaire publique,Juillet 2012,Manuel,663249.9,6753833.8,02 38 92 40 89,http://www.education.gouv.fr/annuaire/45-loiret/lorris/etab/ecole-primaire-publique.html
334,Ecole primaire privée Saint Charles Nd Recouvrance,0450986C,26 rue Stanislas Julien,45234,45000,ORLEANS,Ecole primaire privée,Juillet 2012,Géocodage,617650.8,6756161.2,02 38 53 29 16,http://www.education.gouv.fr/annuaire/45-loiret/orleans/etab/ecole-primaire-privee-saint-charles-nd-recouvrance.html
335,Ecole primaire privée Sainte Croix Saint Euverte,0450945H,75 bis faubourg Bannier,45234,45000,ORLEANS,Ecole primaire privée,Juillet 2012,Géocodage,617744.1,6757311.8,02 38 52 27 30,http://www.education.gouv.fr/annuaire/45-loiret/orleans/etab/ecole-primaire-privee-sainte-croix-saint-euverte.html
336,Ecole primaire privée Saint-Laurent,0451524M,2 rue Albert Lejeune,45234,45000,ORLEANS,Ecole primaire privée,Juillet 2012,Géocodage,617247.71,6756387.8349,02 38 62 31 16,http://www.education.gouv.fr/annuaire/45-loiret/orleans/etab/ecole-primaire-privee-saint-laurent.html
337,Ecole primaire privée Saint-Marceau,0451065N,107 rue Saint-Marceau,45234,45100,ORLEANS,Ecole primaire privée,Juillet 2012,Géocodage,618237.5,6755047.6,02 38 66 14 44,http://www.education.gouv.fr/annuaire/45-loiret/orleans/etab/ecole-primaire-privee-saint-marceau.html
338,Ecole primaire privée Saint-Paul Bourdon Blanc,0450987D,22 rue du Bourdon Blanc,45234,45000,ORLEANS,Ecole primaire privée,Juillet 2012,Géocodage,618807.3,6756245.9,02 38 78 13 84,http://www.education.gouv.fr/annuaire/45-loiret/orleans/etab/ecole-primaire-privee-saint-paul-bourdon-blanc.html
339,Ecole primaire privée Saint Vincent,0451523L,4 rue Jules Lemaître,45234,45000,ORLEANS,Ecole primaire privée,Juillet 2012,Géocodage,618828,6756725.3,02 38 53 48 95,http://www.education.gouv.fr/annuaire/45-loiret/orleans/etab/ecole-primaire-privee-saint-vincent.html
